LaboratoryName,PrimeAddress,City,State,Country,,,,,,,,,,,,,,,,,,
"1600 KV ULTRA HIGH VOLTAGE RESEARCH CENTRE & EHV LABORATORIES, CG POWER & INDUSTRIAL SOLUTIONS LTD., SWITCHGEAR DIVISION","A-3, MIDC, AMBAD,",Nashik,Maharashtra,India,,,,,,,,,,,,,,,,,,
AA ELECTRO MAGNETIC TEST LABORATORY PRIVATE LIMITED,"PLOT NO 174, UDYOG VIHAR, PHASE 4, SECTOR 18",Gurgaon,Haryana,India,,,,,,,,,,,,,,,,,,
AADCO TESTING & RESEARCH LABORATORY PVT. LTD.,"F-28, BULANDSHAHAR ROAD, INDUSTRIAL AREA",Ghaziabad,Uttar Pradesh,India,,,,,,,,,,,,,,,,,,
AADHAR TESTING SOLUTIONS LLP,"FIRST FLOOR, PLOT NO. 2, GYANI COMPOUND, SAHIBABAD",Ghaziabad,Uttar Pradesh,India,,,,,,,,,,,,,,,,,,
AADHNI MEASUREMATIC INDIA ELECTRICAL LAB LLP,"No. 9, 14TH CROSS STREET, MAHARAJA NAGAR, PALAYAMKOTTAI",Tirunelveli,Tamil Nadu,India,,,,,,,,,,,,,,,,,,
AADIDEV TEST & RESEARCH CENTRE LLP,"N-92, SECTOR-1, DSIDC INDUSTRIAL AREA, BAWANA",Delhi,Delhi,India,,,,,,,,,,,,,,,,,,
AANCHAL TECHNO SOLUTIONS,"# 18 & 19, 1ST CROSS , 2ND LEFT, BEGUR ROAD, BOMMANAHALLI",Bengaluru,Karnataka,India,,,,,,,,,,,,,,,,,,
AANCHAL TECHNO SOLUTIONS,"SITE NO.116, LAKSHMI NAGAR, SIDCO WEST SIDE",Coimbatore,Tamil Nadu,India,,,,,,,,,,,,,,,,,,
"AB SQUARE, BAJAJ ELECTRICALS LIMITED","PLOT NO. 27/PT-2, MILLENIUM BUSINESS PARK",Navi Mumbai,Maharashtra,India,,,,,,,,,,,,,,,,,,
ABB GLOBAL INDUSTRIES AND SERVICES PRIVATE LIMITED - LOW VOLTAGE BREAKERS AND SWITCHES TESTING LABORATORY,"WESTERN AQUA, GROUND FLOOR & 10TH FLOOR, PLOT NOS.1,2,3 AND 4 / PART, HI-TECH CITY, WHITE FIELD",Hyderabad,Telangana,India,,,,,,,,,,,,,,,,,,
ABB INDIA LIMITED (TECHNOLOGY CENTRE LABORATORY),"PLOT NO. B-81, BUILDING B, AMBAD",Nashik,Maharashtra,India,,,,,,,,,,,,,,,,,,
ABB INDIA LIMITED- ELSP-TESTING LABORATORY,"88/3; 88/6 BASAVA NAHALLI VILLAGE, NELAMANGALA",Bengaluru,Karnataka,India,,,,,,,,,,,,,,,,,,
"ABB LOW VOLTAGE ROTATING MACHINE LAB., ABB INDIA LTD.","32 INDUSTRIAL AREA, NIT",Faridabad,Haryana,India,,,,,,,,,,,,,,,,,,
ABERDARE TECHNOLOGIES PRIVATE LIMITED,"PLOT NO. I-09 (PART II), INDUSTRIAL PARK (DOMESTIC), KHED CITY, KANHERSAR VILLAGE",Pune,Maharashtra,India,,,,,,,,,,,,,,,,,,
ABSOLUTE EXPERTISE TESTING LABORATORY LLP,"PLOT NO.1, KH NO. 23 / 1, 1ST FLOOR, AMBEY GARDEN, VILLAGE LIBASPUR",Delhi,Delhi,India,,,,,,,,,,,,,,,,,,
ABSOLUTE TESTING SERVICES,"FCA-3659, SGM NAGAR NIT-3",Faridabad,Haryana,India,,,,,,,,,,,,,,,,,,
"AC TESTING LAB, COTERD SOLUTIONS (OPC) PRIVATE LIMITED","BLOCK ECOTECH VI, PLOT NO -62, SECTOR ECOTECH VI",Greater Noida,Uttar Pradesh,India,,,,,,,,,,,,,,,,,,
ACCELOR MICROSYSTEMS ENVIRONMENT TEST LABORATORY,"PLOT NO. F-451, SECTOR-74, PHASE 8B, INDUSTRIAL FOCAL POINT, S.A.S NAGAR",Mohali,Punjab,India,,,,,,,,,,,,,,,,,,
ACCURATE TEST SOLUTIONS LLP,"F 21, SECTOR-11",Noida,Uttar Pradesh,India,,,,,,,,,,,,,,,,,,
ACCUTEST SYSTEMS PRIVATE LIMITED,"987/14, GIDC, INDUSTRIAL ESTATE",Vadodara,Gujarat,India,,,,,,,,,,,,,,,,,,
ACE TEST HOUSE PRIVATE LIMITED,"KHASRA No. 1089, FIRST FLOOR, VILLAGE BHALSWA",Delhi,Delhi,India,,,,,,,,,,,,,,,,,,
ACE TEST LAB PRIVATE LIMITED,"INDUSTRIAL PLOT NO.-69, KH.NO.-54, G.T. KARNAL ROAD, NANGLI POONA",Delhi,Delhi,India,,,,,,,,,,,,,,,,,,
ACE TEST LABS & METROLOGY PRIVATE LIMITED,"PLOT NO. 68, HSIIDC INDUSTRIAL ESTATE, RAI",Sonipat,Haryana,India,,,,,,,,,,,,,,,,,,
ACOUSTIC TEST FACILITY OF NATIONAL INSTITUTE OF OCEAN TECHNOLOGY,PALLIKARANAI,Chennai,Tamil Nadu,India,,,,,,,,,,,,,,,,,,
ADITYA BIRLA INSULATORS ( A UNIT OF GRASIM INDUSTRIES LIMITED),"P.O. PRABHAS NAGAR, RISHRA",Hooghly,West Bengal,India,,,,,,,,,,,,,,,,,,
ADS LABTECH,"39/2/10A, SAHIBABAD INDUSTRIAL AREA",Sahibabad,Uttar Pradesh,India,,,,,,,,,,,,,,,,,,
ADSUN LIGHTING PRIVATE LIMITED,"PLOT NO. 366, PHASE-V, SECTOR-56",Kundli,Haryana,India,,,,,,,,,,,,,,,,,,
ADTL SR&DC TEST LAB,"09,SERVICE ROAD,HAL 2ND STAGE,INDIRA NAGAR",Bengaluru,Karnataka,India,,,,,,,,,,,,,,,,,,
ADVANCE ELECTRICAL TESTING AND CALIBRATION LAB LLP,"SHED NO. 13/1/A, MAKARPURA GIDC",Vadodara,Gujarat,India,,,,,,,,,,,,,,,,,,
ADVANCE FIRETEC AND RESEARCH LAB PRIVATE LIMITED,"B-3, MANGOLPURI INDUSTRIAL AREA, PHASE-II",New Delhi,Delhi,India,,,,,,,,,,,,,,,,,,
ADYA SMART METERING Q.A. LAB,"PLOT NO.-61, 2ND FLOOR, 8-2-248/1/7/61, NAGARJUNA HILLS ROAD, PUNJAGUTTA,",Hyderabad,Telangana,India,,,,,,,,,,,,,,,,,,
AFORESERVE LABS PVT LTD,"PLOT NO. 138, SECTOR 7, IMT MANESAR",Gurugram,Haryana,India,,,,,,,,,,,,,,,,,,
AIC-AMTZ MEDI VALLEY INCUBATION COUNCIL (MEDI VALLEY LABORATORY),"AMTZ CAMPUS, PRAGATI MAIDAN, VM STEEL PROJECTS S.O",Visakhapatnam,Andhra Pradesh,India,,,,,,,,,,,,,,,,,,
"AIRCON LAB,WHIRLPOOL OF INDIA LTD","PLOT NO.- 28,NIT INDUSTRIAL AREA",Faridabad,Haryana,India,,,,,,,,,,,,,,,,,,
"AJUS ELECTRIC PRIVATE LIMITED, TESTING LABORATORY","PLOT NO. 13, SECTOR- 8A, IIE, SIDCUL",Haridwar,Uttarakhand,India,,,,,,,,,,,,,,,,,,
"AKRON ENERGY PRIVATE LIMITED, TESTING DIVISION","5TH FLOOR, A-504, PRIVILION, AMBLI-BOPAL ROAD, S.G.HIGHWAY",Ahmedabad,Gujarat,India,,,,,,,,,,,,,,,,,,
AKSH TEST & RESEARCH CENTER,"F 1075-1081, RIICO INDUSTRIAL AREA",Bhiwadi,Rajasthan,India,,,,,,,,,,,,,,,,,,
AKSHAT TEST LAB & CALIBRATION SERVICES,"A-2/49,G.D. STEEL COMPOUND, SITE-4, INDUSTRIAL AREA, SAHIBABAD",Ghaziabad,Uttar Pradesh,India,,,,,,,,,,,,,,,,,,
ALAIPURIA TEST HOUSE PRIVATE LIMITED,"PLOT NO. H-11, BLOCK-H, DURGA INDUSTRIAL PARK",Ghaziabad,Uttar Pradesh,India,,,,,,,,,,,,,,,,,,
ALCALAB PRIVATE LIMITED,"3RD FLOOR, 311-316, ASHIANA TRADE CENTRE, ADITYAPUR",Jamshedpur,Jharkhand,India,,,,,,,,,,,,,,,,,,
ALPHA TEST HOUSE PRIVATE LIMITED,"487/25, PEERAGARHI",New Delhi,Delhi,India,,,,,,,,,,,,,,,,,,
ALPHION Q.A. LAB,"C-203, SECTOR 63",Noida,Uttar Pradesh,India,,,,,,,,,,,,,,,,,,
"AMARA RAJA ENERGY & MOBILITY LIMITED,TESTING AND CALIBRATION LABORATORY","KARAKAMBADI, RENIGUNTA KADAPA ROAD",Tirupati,Andhra Pradesh,India,,,,,,,,,,,,,,,,,,
AMIT TEST AND CALIBRATION CENTRE (DIVISION OF AMIT ELECTRICAL LAB LLP),"KH. NO. 45/7, VILLAGE PRAHALADPUR BANGAR, ROHINI SECTOR 30",Delhi,Delhi,India,,,,,,,,,,,,,,,,,,
"ANALYTICAL TECHNOLOGY LAB, SABIC RESEARCH AND TECHNOLOGY PVT. LTD.","PLOT NO. 81 TO 85, CHIKKADUNNASANDRA VILLAGE ANEKAL TALUK, OFF SARJAPURA, ATTIBELE STATE HIGHWAY",Bengaluru,Karnataka,India,,,,,,,,,,,,,,,,,,
ANANYA TECHNOLOGIES PRIVATE LIMITED,"NO. 7B, GROUND FLOOR, TRANS INDUSTRIAL HUB, 5TH MAIN ROAD, 3RD PHASE, PEENYA INDUSTRIAL AREA",Bengaluru,Karnataka,India,,,,,,,,,,,,,,,,,,
ANUVEGA TECHNOLOGIES (ENVIRONMENTAL TESTING LABORATORY) PRIVATE LIMITED,"S-2/7, S-2/8, E-CITY, FAB CITY RD, RAVIRYAL VILLAGE, MAHESHWARAM MANDAL",Hyderabad,Telangana,India,,,,,,,,,,,,,,,,,,
APAR INDUSTRIES LIMITED,"18, TTC, MIDC INDUSTRIAL AREA, RABALE",Navi Mumbai,Maharashtra,India,,,,,,,,,,,,,,,,,,
APAR INDUSTRIES LIMITED (ELASTO DIVISION LABORATORY),"CITY SURVEY NO. NA 1990, REVENUE SURVEY NO. 730 AND 730 P1, VILLAGE MANEKPUR, KHATALWADA -MANEKPUR ROAD, TALUKA- UMBERGAON, KHATALWADA, SANJAN",Vapi,Gujarat,India,,,,,,,,,,,,,,,,,,
APAR INDUSTRIES LIMITED (POWER OIL PETROLEUM PRODUCT DIVISION),"SURVEY NO. 148/1 & 148/3/1, KUDACHA VILLAGE",Silvassa,Dadra and Nagar Haveli,India,,,,,,,,,,,,,,,,,,
APAR INDUSTRIES LIMITED (UNIT: UNIFLEX CABLES LAB DIVISION),PLOT NO : 158-163,Umbergaon,Gujarat,India,,,,,,,,,,,,,,,,,,
"APAR INDUSTRIES LIMITED, CONDUCTOR TESTING LABORATORY (CTL), UNIT- V","SURVEY NO. 409 OLD SURVEY NO. 139/2, ATHOLA -UMERKOI ROAD, ATHOLA",Silvassa,Dadra and Nagar Haveli,India,,,,,,,,,,,,,,,,,,
"APAR INDUSTRIES LIMITED, CONDUCTOR TESTING LABORATORY(CTL), CONDUCTOR DIVISION, UNIT- VI","SURVEY NO. 1/2, VILLAGE KHUTLI, KHANVEL",Silvassa,Dadra and Nagar Haveli and Daman and Diu,India,,,,,,,,,,,,,,,,,,
"APAR INDUSTRIES LIMITED,
CONDUCTOR TESTING LABORATORY (CTL),UNIT-III","SURVEY NO.127/1/2, VILLAGE ATHOLA, UMARKOI ROAD",Silvassa,Dadra and Nagar Haveli,India,,,,,,,,,,,,,,,,,,
APAR INDUSTRIES LTD (OPTICAL FIBER CABLE LAB),"SURVEY NO. 6074, 2228, 1991, 6341/P1, 2219, 2221, KHATALWADA-MANEKPUR ROAD",Valsad,Gujarat,India,,,,,,,,,,,,,,,,,,
"APAR INDUSTRIES LTD, CONDUCTOR DIVISION","SURVEY NO. 144/1, PLOT NO. 6/1, VILLAGE RAKHOLI",Silvassa,Dadra and Nagar Haveli,India,,,,,,,,,,,,,,,,,,
APEX TELECOM TESTING SERVICES (OPC) PRIVATE LIMITED,"362, TEACHERS TOWN, NARAYANAGHATTA TOWN",Bengaluru,Karnataka,India,,,,,,,,,,,,,,,,,,
"APPLETON LAB, EMERSON INNOVATION CENTER-PUNE, (A DIVISION OF EMERSON ELECTRIC CO. INDIA PVT. LIMITED)","PLOT NO. 23, RAJIV GANDHI INFOTECH PARK, M.I.D.C., PHASE II, HINJAWADI, VILLAGE MAAN, TALUKA MULSHI",Pune,Maharashtra,India,,,,,,,,,,,,,,,,,,
APTIV CONNECTION SYSTEMS INDIA PRIVATE LIMITED ENGINEERING LAB,"7/60-A & 60-B, ARAKKUNNAM PULIKKAMALI ROAD",Ernakulam,Kerala,India,,,,,,,,,,,,,,,,,,
"APTIV CONNECTION SYSTEMS INDIA PRIVATE LTD,CHENNAI EGNINEERING CENTER","BLOCK-3,  DLF IT PARK (IT/ITES/SEZ)",Chennai,Tamil Nadu,India,,,,,,,,,,,,,,,,,,
ARACION TECHNOLOGY PRIVATE LIMITED,"1ST FLOOR, B-23 HK ARCADE, KSSIDC, INDUSTRIAL AREA",Bengaluru,Karnataka,India,,,,,,,,,,,,,,,,,,
ARDISONS ASSOCIATES LAB,A 21 INDUSTRIAL FOCAL POINT,Kurali,Punjab,India,,,,,,,,,,,,,,,,,,
ARUDHYA TEST SOLUTIONS PRIVATE LIMITED,"PLOT NO 28/2, PHASE-2, IDA, CHERLAPALLY",Hyderabad,Telangana,India,,,,,,,,,,,,,,,,,,
ARYAVRAT TEST HOUSE PRIVATE LIMITED,"L.R. DAG NO. 257 AND 259, MOUZA ARGOURI, NH 6, BOMBAY ROAD, JANGALPUR, NATIBPUR",Howrah,West Bengal,India,,,,,,,,,,,,,,,,,,
"ASHTAVINAYAKA ENERGY-INFRA PRIVATE LIMITED, METER TESTING LABORATORY","PLOT NO. R-478, TTC INDUSTRIAL AREA, MIDC RABALE",Navi Mumbai,Maharashtra,India,,,,,,,,,,,,,,,,,,
"ASTRA MICROWAVE PRODUCTS LIMITED, ETF TEST SERVICES(UNIT-3)","SY.NO.1/1, UDL, HARDWARE PARK, IMARATH KANCHA, RAVIRYALA, MAHESHWARAM",Hyderabad,Telangana,India,,,,,,,,,,,,,,,,,,
ASTUTE LABS PVT. LTD.,"SR. NO. 82/1, BAJIRAO DHAWADE PATIL INDUSTRIAL ESTATE, NDA ROAD, SHIVANE",Pune,Maharashtra,India,,,,,,,,,,,,,,,,,,
ATHARVA LABORATORIES PRIVATE LIMITED,"C-54, HOSIERY COMPLEX, PHASE-II EXTENSION",Noida,Uttar Pradesh,India,,,,,,,,,,,,,,,,,,
ATHARVA LABORATORIES PVT. LTD.,"D-115 A, HOSIERY COMPLEX",Noida,Uttar Pradesh,India,,,,,,,,,,,,,,,,,,
ATLANTA ELECTRICALS LIMITED (TRANSFORMER TEST LABORATORY),"1503-04 & 1701-2, G.I.D.C. ESTATE, PHASE-IV, VITHTHAL UDYOG NAGAR",Anand,Gujarat,India,,,,,,,,,,,,,,,,,,
ATMY ANALYTICAL LABS PVT LTD,"I-30, DLF INDUSTRIAL AREA, PHASE-1",Faridabad,Haryana,India,,,,,,,,,,,,,,,,,,
AUTO CLUSTER DEVELOPMENT AND RESEARCH INSTITUTE,"PLOT NO. C-181, H-BLOCK, M.I.D.C",Chinchwad,Maharashtra,India,,,,,,,,,,,,,,,,,,
AVARTANAM TEST LABS LLP,"PLOT NO. 32, ZONE - D-4, PHASE - I, G.I.D.C. ESTATE, VITHAL UDYOGNAGAR",Anand,Gujarat,India,,,,,,,,,,,,,,,,,,
AXIOM - AXIS ELECTRICAL COMPONENTS INDIA PRIVATE LIMITED,"149-BCD, KANDIVALI, GOVT. INDUSTRIAL ESTATE",Mumbai,Maharashtra,India,,,,,,,,,,,,,,,,,,
AZISTA BST AEROSPACE PRIVATE LIMITED,"PLOT NO. 16, SANAND LAND INDUSTRIAL ESTATE CORPORATION",Ahmedabad,Gujarat,India,,,,,,,,,,,,,,,,,,
AZURE SWITCHGEAR PRIVATE LIMITED (QUALITY ASSURANCE LAB),"PLOT NO. 9, SECTOR-4, UNIT-2, IIE SIDCUL",Haridwar,Uttarakhand,India,,,,,,,,,,,,,,,,,,
B. R. INDUSTRIAL SERVICES LLP,"OFFICE NO. 311 & 312, 3RD FLOOR, R CUBE, MUMBAI BANGALORE HIGHWAY, ATULNAGAR, WARJE",Pune,Maharashtra,India,,,,,,,,,,,,,,,,,,
BARODA CALIBRATION SERVICES LLP,"SURVEY NO. 88, RAMANGAMDI TO KASHIPURA ROAD, RAMANGAMDI, POR",Vadodara,Gujarat,India,,,,,,,,,,,,,,,,,,
BCH ELECTRIC LIMITED,"20/4, MATHURA ROAD",Faridabad,Haryana,India,,,,,,,,,,,,,,,,,,
BEANALYTIC SOLUTIONS LLP,"B131/A, DYAVASANDRA INDUSTRIAL ESTATE, MAHADEVAPURA, WHITEFIELD RD",Bengaluru,Karnataka,India,,,,,,,,,,,,,,,,,,
BENTEC LIGHTING LLP,"PLOT NO. 76, SECTOR-68, INDUSTRIAL MODEL TOWNSHIP",Faridabad,Haryana,India,,,,,,,,,,,,,,,,,,
BESMAK ENGINEERING AND DEVELOPMENT LABORATORY,"PLOT NO. A-45, SIPCOT INDUSTRIAL GROWTH CENTRE",Kanchipuram,Tamil Nadu,India,,,,,,,,,,,,,,,,,,
BHARAT ELECTRICAL RESEARCH LAB PRIVATE LIMITED,"PLOT NO.9, PALANI NAGAR, MOULIVAKKAM",Chennai,Tamil Nadu,India,,,,,,,,,,,,,,,,,,
"BHARAT ELECTRONICS LIMITED, ENVIRONMENTAL TEST DEPARTMENT",BEL ARMY ROAD,Chennai,Tamil Nadu,India,,,,,,,,,,,,,,,,,,
BHARAT TEST HOUSE PVT. LTD.,"781, HSIIDC INDUSTRIAL ESTATE, RAI",Sonipat,Haryana,India,,,,,,,,,,,,,,,,,,
BHARAT TEST HOUSE PVT. LTD.,"1474, HSIIDC INDUSTRIAL ESTATE, RAI",Sonipat,Haryana,India,,,,,,,,,,,,,,,,,,
BIRASINI TEST HOUSE,"4/31-B, SITE-4, INDUSTRIAL AREA, SAHIBABAD",Ghaziabad,Uttar Pradesh,India,,,,,,,,,,,,,,,,,,
BIRLA FURUKAWA FIBRE OPTICS PRIVATE LIMITED,"PLOT NOS. : L-62 TO L-64, VERNA INDUSTRIAL ESTATE",Verna,Goa,India,,,,,,,,,,,,,,,,,,
BLUE STAR R&D RELIABILITY LAB,"BLUE STAR INNOVATION CENTRE, S NO.32, RAUNAK BUSINESS ARCADE, KAPURBAWADI, GHODBUNDAR ROAD",Thane,Maharashtra,India,,,,,,,,,,,,,,,,,,
BNN COMMUNICATION ENGINEERS PVT.LTD. (EMR DIV),"33/33, INDUSTRIAL AREA, SITE 2, LONI ROAD, MOHAN NAGAR, SAHIBABAD",Ghaziabad,Uttar Pradesh,India,,,,,,,,,,,,,,,,,,
BNNSPEAG TEST & CALIBRATION LABORATORY INDIA PVT. LTD.,"11/11, SECTOR-3, RAJINDRA NAGAR, SAHIBABAD",Ghaziabad,Uttar Pradesh,India,,,,,,,,,,,,,,,,,,
BONTON CABLES (INDIA) PRIVATE LIMITED,"A-6(A), KAHARANI INDUSTRIAL AREA, BHIWADI EXTN.",Bhiwadi,Rajasthan,India,,,,,,,,,,,,,,,,,,
BRANCH MSME DEVELOPMENT & FACILITATION OFFICE,"386, PATEL ROAD, RAMNAGAR",Coimbatore,Tamil Nadu,India,,,,,,,,,,,,,,,,,,
BRIGHTGRID TESTING LABORATORY,"S-14/C, RAVIRYAL, E-CITY SEZ, MAHESWARAM MANDAL, INDUSTRIAL PARK",Ranga Reddy district,Telangana,India,,,,,,,,,,,,,,,,,,
"BRPL LABORATORY, BSES RAJDHANI POWER LIMITED","SUBSTATION NO. 15, SECTOR 7, PUSHP VIHAR",New Delhi,Delhi,India,,,,,,,,,,,,,,,,,,
BSR TRANSFORMER TESTING LAB,"PLOT NO. 67, 68, 69, 74, 75, M.G. AUTONAGAR, VILLAGE SOMASUNDARAPALEM",Tenali,Andhra Pradesh,India,,,,,,,,,,,,,,,,,,
BUREAU OF INDIAN STANDARDS (WESTERN REGIONAL LABORATORY),"PLOT NO. E-9, ROAD NO. 8, M.I.D.C., ANDHERI (EAST)",Mumbai,Maharashtra,India,,,,,,,,,,,,,,,,,,
"BUREAU OF INDIAN STANDARDS, BANGALORE BRANCH LABORATORY",PEENYA 1ST STAGE,Bengaluru,Karnataka,India,,,,,,,,,,,,,,,,,,
"BUREAU OF INDIAN STANDARDS, EASTERN REGIONAL LABORATORY (EROL)","P-230, CIT SCHEME, VII M, BLOCK W, KANKURGACHI",Kolkata,West Bengal,India,,,,,,,,,,,,,,,,,,
"BUREAU OF INDIAN STANDARDS, SOUTHERN REGIONAL OFFICE LABORATORY","IV CROSS ROAD, CIT CAMPUS",Chennai,Tamil Nadu,India,,,,,,,,,,,,,,,,,,
BUREAU VERITAS CONSUMER PRODUCTS SERVICES (INDIA) PVT. LTD.,"C-19, SECTOR-07, GAUTAM BUDDHA NAGAR",Noida,Uttar Pradesh,India,,,,,,,,,,,,,,,,,,
BUV INTERNATIONAL POWER LAB PRIVATE LIMITED,"SHOP NO. 43-48, 1ST FLOOR, SHIVANSH SHARNAM",Vadodara,Gujarat,India,,,,,,,,,,,,,,,,,,
BVG LABORATORIES & ELECTRICAL RESEARCH CENTER PRIVATE LIMITED,"16, SURVEY NO. 52/2, 11TH CROSS, BALAJINAGAR, THIGALARAPALYA MAIN ROAD, PEENYA 2ND STAGE",Bengaluru,Karnataka,India,,,,,,,,,,,,,,,,,,
BYPL LABORATORY,"BSES YAMUNA POWER LIMITED, SAVITA VIHAR",New Delhi,Delhi,India,,,,,,,,,,,,,,,,,,
C AND I CALIBRATIONS PVT. LTD.,"F-717A, SITAPURA INDUSTRIAL AREA",Jaipur,Rajasthan,India,,,,,,,,,,,,,,,,,,
CABCON TECHNOLOGIES QA LAB,"JALAN PARK, JALA DHULAGORI, SANKARAIL INDUSTRIAL PARK",Howrah,West Bengal,India,,,,,,,,,,,,,,,,,,
"CABLE TESTING LABORATORY, TORRENT ELECTRICALS LIMITED",YOGINAGAR MISSION ROAD,Nadiad,Gujarat,India,,,,,,,,,,,,,,,,,,
CAPITAL POWER SYSTEMS LTD. - METER TESTING LABORATORY,B-40 SECTOR-4,Noida,Uttar Pradesh,India,,,,,,,,,,,,,,,,,,
CARGILL INDIA PRIVATE LIMITED,"PLOT : E4, MIDC AREA",Pune,Maharashtra,India,,,,,,,,,,,,,,,,,,
CCR QA/QC LABORATORY-BIRLA COPPER ASOJ PRIVATE LIMITED,"SURVEY NO. 21 , VILLAGE - ASOJ, VADODARA - HALOL HIGHWAY,TA - WAGHODIA",Vadodara,Gujarat,India,,,,,,,,,,,,,,,,,,
CEEPCALIBRATION AND TESTING LLP,"638, GIDC. MAKARPURA INDUSTRIAL ESTATE, MAKARPURA",Vadodara,Gujarat,India,,,,,,,,,,,,,,,,,,
CENTRAL COAL AND OIL TESTING LABORATORY,"MAHAGENCO, EXPANSION SERVICE BUILDING, KORADI",Nagpur,Maharashtra,India,,,,,,,,,,,,,,,,,,
CENTRAL ELECTRICAL TESTING LABORATORY,KAKKALUR,Tiruvallur,Tamil Nadu,India,,,,,,,,,,,,,,,,,,
"CENTRAL ELECTRONICS CENTRE, INDIAN INSTITUTE OF TECHNOLOGY, MADRAS",IIT MADRAS,Chennai,Tamil Nadu,India,,,,,,,,,,,,,,,,,,
CENTRAL INSTITUTE OF PETROCHEMICAL ENGINEERING AND TECHNOLOGY (CIPET),"B-25, C. N. I. COMPLEX, PATIA",Bhubaneswar,Odisha,India,,,,,,,,,,,,,,,,,,
CENTRAL INSTITUTE OF PETROCHEMICALS ENGINEERING & TECHNOLOGY,"CITY CENTRE, P.O. DEBHOG",Haldia,West Bengal,India,,,,,,,,,,,,,,,,,,
CENTRAL INSTITUTE OF PETROCHEMICALS ENGINEERING & TECHNOLOGY (CIPET),"SP-1298, SITAPURA INDUSTRIAL AREA, PHASE-III",Jaipur,Rajasthan,India,,,,,,,,,,,,,,,,,,
"CENTRAL INSTITUTE OF PETROCHEMICALS ENGINEERING & TECHNOLOGY (CIPET), DEHRADUN","CSTS, DEHRADUN-HARIDWAR ROAD, POST - BHANIYAWALA, DOIWALA",Dehradun,Uttarakhand,India,,,,,,,,,,,,,,,,,,
CENTRAL INSTITUTE OF ROAD TRANSPORT (CIRT),"BHOSARI, PUNE - NASIK ROAD",Pune,Maharashtra,India,,,,,,,,,,,,,,,,,,
CENTRAL INSULATING OIL TESTING LABORATORY,"POWERGRID, MEDCHEL MALKAJGIRI",Ghatkesar,Telangana,India,,,,,,,,,,,,,,,,,,
"CENTRAL LABORATORY, BUREAU OF INDIAN STANDARDS","20/9, SITE-4, SAHIBABAD INDUSTRIAL AREA",Ghaziabad,Uttar Pradesh,India,,,,,,,,,,,,,,,,,,
"CENTRAL LABORATORY, HINDALCO INDUSTRIES LIMITED",P.O. RENUKUT,Renukut,Uttar Pradesh,India,,,,,,,,,,,,,,,,,,
"CENTRAL LABORATORY, THE SUPREME INDUSTRIES LTD","SF.NO. 22/2B, 22/3, 23/1B, 24/1 A, 593/1 B1, BYRAMANGALAM (VILLAGE & POST), KELAMANGALAM PANCHAYAT, DENKANIKOTTAI TALUK",Hosur,Tamil Nadu,India,,,,,,,,,,,,,,,,,,
"CENTRAL METER TESTING LABORATORY, J.V.V.N.L","HAWA SARAK, CIVIL LINES",Jaipur,Rajasthan,India,,,,,,,,,,,,,,,,,,
CENTRAL POWER RESEARCH INSTITUTE,PROF SIR C V RAMAN ROAD,Bengaluru,Karnataka,India,,,,,,,,,,,,,,,,,,
CENTRAL POWER RESEARCH INSTITUTE,"REGIONAL TESTING LABORATORY, PLOT 3A, INSTITUTIONAL AREA, SECTOR-62, GAUTAM BUDDHA NAGAR",Noida,Uttar Pradesh,India,,,,,,,,,,,,,,,,,,
"CENTRAL POWER RESEARCH INSTITUTE, SWITCHGEAR TESTING AND DEVELOPMENT STATION",GOVINDPURA,Bhopal,Madhya Pradesh,India,,,,,,,,,,,,,,,,,,
"CENTRAL TESTING LABORATORY, EVEREADY INDUSTRIES INDIA LIMITED","P-4, TRANSPORT DEPOT ROAD, TARATALA",Kolkata,West Bengal,India,,,,,,,,,,,,,,,,,,
CENTRE OF EXCELLENCE IN ELECTRONIC PRODUCTS DESIGN AND TESTING LAB (COE-EPDTL),"CENTRE FOR DEVELOPMENT OF ADVANCED COMPUTING (CDAC), GROUND FLOOR & SECOND FLOOR, B-30, SECTOR-62",Noida,Uttar Pradesh,India,,,,,,,,,,,,,,,,,,
"CENTURION UNIVERSITY OF TECHNOLOGY AND MANAGEMENT, TRANSFORMER TESTING LABORATORY",CENTURION UNIVERSITY CAMPUS,Bhubaneswar,Odisha,India,,,,,,,,,,,,,,,,,,
"CESC TESTING LABORATORY, TESTING DEPARTMENT, CESC LIMITED","4, SASHI SEKHAR BOSE ROW",Kolkata,West Bengal,India,,,,,,,,,,,,,,,,,,
"CHAMUNDA ELECTRICAL LIMITED, TESTING DIVISION","125-126, SECOND FLOOR, RAJ HARMONY, UGAT-BHESAN CANAL ROAD, JAHANGIRABAD",Surat,Gujarat,India,,,,,,,,,,,,,,,,,,
"CHEMICAL AND METALLURGICAL LABORATORY, MATERIAL TECHNOLOGY CENTRE, LOCO WORKSHOP",PERAMBUR,Chennai,Tamil Nadu,India,,,,,,,,,,,,,,,,,,
"CHHATTISGARH STATE POWER DISTRIBUTION COMPANY LIMITED, CENTRAL TESTING LABORATORY DIVISION","BHILAI 220 KV SUB-STATION ROAD, BIJALI NAGAR, BHILAI-3",Bhilai,Chhattisgarh,India,,,,,,,,,,,,,,,,,,
CHIEF QUALITY ASSURANCE ESTABLISHMENT (WARSHIP EQUIPMENT),"CQAE(WE), JALAHALLI CAMP ROAD, YESHWANTPUR POST",Bengaluru,Karnataka,India,,,,,,,,,,,,,,,,,,
CIMEC INFRALABS PVT. LTD.,"PLOT NO 179/13, ANAND INDUSTRIAL ESTATE, MOHAN NAGAR",Ghaziabad,Uttar Pradesh,India,,,,,,,,,,,,,,,,,,
CIPET:CENTRE FOR SKILLING AND TECHNICAL SUPPORT (CSTS),"PLOT NO.J-3/2, MIDC INDUSTRIAL AREA",Aurangabad,Maharashtra,India,,,,,,,,,,,,,,,,,,
CLASSIC INSTRUMENTATION PVT. LTD.,"C-45, SECTOR 65",Noida,Uttar Pradesh,India,,,,,,,,,,,,,,,,,,
CLASSIC TESTING & RESEARCH CENTRE PRIVATE LIMITED,"B-17, SECTOR-65",Noida,Uttar Pradesh,India,,,,,,,,,,,,,,,,,,
CNLABS TEST SERVICES PRIVATE LIMITED,"UNIT NO. S-01, GROUND FLOOR, EXPLORER INTERNATIONAL TECH PARK, WHITEFIELD",Bengaluru,Karnataka,India,,,,,,,,,,,,,,,,,,
COLUMBIA PETROCHEM PVT. LTD. - LIQUID DIELECTRIC TESTING LABORATORY,"SURVEY NO. 144/1/1, PLOT NO. 12-13-14",Silvassa,Dadra and Nagar Haveli,India,,,,,,,,,,,,,,,,,,
COMPLIANCE INTERNATIONAL TELECOM LABORATORIES (A UNIT OF COMPLIANCE INTERNATIONAL PVT. LTD.),"A-55, SECTION-1, 1ST FLOOR, SECTOR-2",Noida,Uttar Pradesh,India,,,,,,,,,,,,,,,,,,
CONFORMITY TESTING LABS PVT. LTD.,"WH-52, MAYAPURI INDUSTRIAL AREA PHASE 1",New Delhi,Delhi,India,,,,,,,,,,,,,,,,,,
"CONFORMITY TESTING LABS PVT. LTD., UNIT 2","A-33, MAYAPURI INDUSTRIAL AREA, PHASE 1",New Delhi,Delhi,India,,,,,,,,,,,,,,,,,,
CONTROL POWER RESEARCH LABORATORY LLP,"PLOT NO. 490, SECTOR 37, PACE CITY II",Gurgaon,Haryana,India,,,,,,,,,,,,,,,,,,
CORDS CABLE INDUSTRIES LIMITED (LAB DIVISION),"SP 239, 240, 241, RIICO INDUSTRIAL AREA, KAHARANI",Bhiwadi,Rajasthan,India,,,,,,,,,,,,,,,,,,
COSMIC COMPLIANCE TEST LAB PRIVATE LIMITED,"SY NO.192/1, A-1, MUNIREDDY INDUSTRIAL ESTATE, 3RD PHASE, BOMMASANDRA VILLAGE, ATTIBELE HOBLI, ANEKAL TALUK",Bengaluru,Karnataka,India,,,,,,,,,,,,,,,,,,
CQAL LABORATORIES,JC Nagar,Bengaluru,Karnataka,India,,,,,,,,,,,,,,,,,,
"CRITERION NETWORK LABS, CRITERION NETWORKS INDIA PRIVATE LIMITED","UNIT#3 GROUND FLOOR, EXPLORER BUILDING, WHITEFIELD",Bengaluru,Karnataka,India,,,,,,,,,,,,,,,,,,
"CRM & ACL LABORATORY, POSCO MAHARASHTRA STEEL PRIVATE LIMITED","PLOT NO. C-1, VILE/BHAGAD MIDC INDUSTRIAL AREA",Raigad,Maharashtra,India,,,,,,,,,,,,,,,,,,
CSA INDIA PVT. LTD.,"UNIT NO. A-3, 3RD FLOOR, TOWER A, EINSTEIN BUILDING, BEARYS GLOBAL RESEARCH TRIANGLE, SY NO. 63/3B, GORVIGERE VILLAGE, BIDARAHALLI HOBLI, WHITEFIELD ASHRAM ROAD, BANGALORE, KARNATAKA",Bengaluru,Karnataka,India,,,,,,,,,,,,,,,,,,
"CSIR-BATTERY PERFORMANCE TESTING AND EVALUATION CENTRE (CSIR-BPTEC), CENTRAL ELECTROCHEMICAL RESEARCH INSTITUTE (COUNCIL OF SCIENTIFIC & INDUSTRIAL RESEARCH)","CSIR-CECRICAMPUS, COLLEGE ROAD,KARAIKUDI",Karaikkudi,Tamil Nadu,India,,,,,,,,,,,,,,,,,,
"CSIR-CENTRAL ELECTRONICS ENGINEERING RESEARCH INSTITUTE, JAIPUR CAMPUS","CFC-1, MALVIYA INDUSTRIAL AREA",Jaipur,Rajasthan,India,,,,,,,,,,,,,,,,,,
CSIR-NATIONAL AEROSPACE LABORATORIES (ENVIRONMENTAL TEST FACILITY),"HAL AIRPORT ROAD, KODIHALLI",Bengaluru,Karnataka,India,,,,,,,,,,,,,,,,,,
"CTTF LABORATORY, MOTORS DIVISION, BHARAT BIJLEE LIMITED","NO.2, MIDC, THANE BELAPUR ROAD",Navi Mumbai,Maharashtra,India,,,,,,,,,,,,,,,,,,
DAMODAR VALLEY CORPORATION INSULATING OIL TESTING LABORATORY C.T.C. MAITHON,"DVC MAITHON, CSO BUILDING COMPLEX, AREA NO 6",Dhanbad,Jharkhand,India,,,,,,,,,,,,,,,,,,
DANISH POWER LIMITED TRANSFORMER TEST LABORATORY,"07 & 08, DTA PHASE-II, MAHINDRA WORLD CITY, TEHSIL SANGANER",Jaipur,Rajasthan,India,,,,,,,,,,,,,,,,,,
DARSHAN ELECTRICAL TESTING & RESEARCH LABORATORY,"AT.HADALA, RAJKOT-MORBI HIGHWAY",Rajkot,Gujarat,India,,,,,,,,,,,,,,,,,,
DE VOLTRANS PVT LTD,"SURVEY NO. 126/128, WIDC, VILLAGE- HAMRAPUR, TALUKA- WADA",Palghar,Maharashtra,India,,,,,,,,,,,,,,,,,,
DELHI TEST HOUSE,"A-62/3, G T KARNAL ROAD INDUSTRIAL AREA, AZADPUR",Delhi,Delhi,India,,,,,,,,,,,,,,,,,,
DELHI TEST HOUSE,"PLOT 50, PHASE-IV, SECTOR-57, HSIDC INDUSTRIAL AREA",Kundli,Haryana,India,,,,,,,,,,,,,,,,,,
DELTA LABORATORY,"80-B, PREM NAGAR",Indore,Madhya Pradesh,India,,,,,,,,,,,,,,,,,,
DELTAPHI LABS PVT. LTD.,"UNIT 606, MEADOWS, SAHAR PLAZA, ANDHERI  KURLA ROAD",Mumbai,Maharashtra,India,,,,,,,,,,,,,,,,,,
"DEULTI TEST LABORATORY, NIRMAL WIRES PRIVATE LIMITED","ISWARIPUR, P.O. BARUNDA, P.S. Bagnan",Howrah,West Bengal,India,,,,,,,,,,,,,,,,,,
"DEVSYS LAB, DEVSYS EMBEDDED TECHNOLOGIES PVT LTD","51/2, Lakshmi Layout Main Road, Gaverbhavipalya, Chikka begur Industrial Layout",Bengaluru,Karnataka,India,,,,,,,,,,,,,,,,,,
"DGA TEST LAB, DELHI METRO RAIL CORPORATION","DCC BUILDING, YAMUNA BANK DEPOT, LAXMI NAGAR",Delhi,Delhi,India,,,,,,,,,,,,,,,,,,
DGVCL HI-TECH LABORATORY,"DAKSHIN GUJARAT VIJ COMPANY LIMITED, NANA VARACHHA ROAD",Surat,Gujarat,India,,,,,,,,,,,,,,,,,,
DICABS ELECTRICAL AND PHYSICAL TEST LABORATORIES FOR CABLES AND CONDUCTORS,"PHASE - II, BLOCK NO. 98/1 P, 198/ P1, VILLAGE VADADALA, JAROD-SAMLAYA ROAD, TAL. SAVLI",Vadodara,Gujarat,India,,,,,,,,,,,,,,,,,,
DL TESTING & CALIBRATION SERVICES LLP,"B-1-11, SCHEME NO. 71, SECTOR A INDUSTRIAL AREA",Indore,Madhya Pradesh,India,,,,,,,,,,,,,,,,,,
DRY TYPE TRANSFORMERS TESTING LABORATORY,"HITACHI ENERGY INDIA LIMITED, 25 & 26 (ALINDRA) MANJUSAR G.I.D.C., SAVLI WORKS",Vadodara,Gujarat,India,,,,,,,,,,,,,,,,,,
EAMP LABORATORIES LLP,"SURVEY NO.102/1/2 NAGAR PARISHAD HOUSE, MAHIM ROAD",Palghar,Maharashtra,India,,,,,,,,,,,,,,,,,,
EAMP Laboratories LLP,"GAT NO. 674/4, BHANUSHALI FARM, NANDORE-PADAGHE ROAD, NANDORE, PALGHAR (EAST)",Palghar,Maharashtra,India,,,,,,,,,,,,,,,,,,
ECE INDUSTRIES LTD (TRANSFORMER DIVISION),DELHI ROAD,Sonipat,Haryana,India,,,,,,,,,,,,,,,,,,
ELCA LABORATORIES,"PLOT NO.-GEN-62,TRANS-THANE-CREEK INDUSTRIAL AREA, MAHAPE MIDC",Navi Mumbai,Maharashtra,India,,,,,,,,,,,,,,,,,,
ELCIA CLUSTER,"S.NO.3 (P) ELCIA COMPLEX,  ELECTRONIC CITY, WEST PHASE",Bengaluru,Karnataka,India,,,,,,,,,,,,,,,,,,
"ELECTRICAL AND ELECTRONICS DIVISION LAB, CIT-HMCL","HEROMOTOCORP GLOBAL CENTRE FOR INNOVATION AND TECHNOLOGY (HGCIT), SPL-1 RIICO INDUSTRIAL AREA, KUKAS PHASE II",Jaipur,Rajasthan,India,,,,,,,,,,,,,,,,,,
ELECTRICAL EQUIPMENT QUALITY ASSURANCE LABORATORY,"CTI ROAD,NAYAGAON,MPPKVVCL",Jabalpur,Madhya Pradesh,India,,,,,,,,,,,,,,,,,,
ELECTRICAL POWER RESEARCH LABORATORY,"PLOT NO. 25, AATMIYA BROOKFIELDZ INDUSTRIAL PARK AT UNTIYA (KAJAPUR) VILLAGE, POR VILLAGE",Vadodara,Gujarat,India,,,,,,,,,,,,,,,,,,
"ELECTRICAL QUALITY CONTROL LABORATORY, RSRDC LIMITED","SETU BHAWAN, JHALANA DOONGRI, JAIPUR AGRA BYPASS",Jaipur,Rajasthan,India,,,,,,,,,,,,,,,,,,
ELECTRICAL RESEARCH & TESTING ORGANISATION,"PLOT NO. 747, MANJUSAR VILLAGE, SAVLI VADODARA MAIN ROAD",Vadodara,Gujarat,India,,,,,,,,,,,,,,,,,,
ELECTRICAL RESEARCH AND DEVELOPMENT ASSOCIATION,"ERDA ROAD, GIDC, MAKARPURA",Vadodara,Gujarat,India,,,,,,,,,,,,,,,,,,
ELECTRICAL RESEARCH AND DEVELOPMENT ASSOCIATION,"PLOT NO. D-183/6 TTC INDUSTRIAL AREA, MIDC SHIRWANE",Navi Mumbai,Maharashtra,India,,,,,,,,,,,,,,,,,,
ELECTRICAL RESEARCH AND DEVELOPMENT ASSOCIATION,"SURVEY & PLOT NO. - 333/2 & 17, APIIC, DOWLESWARAM (U) VILLAGE, RAJAMAHENDRAVARAM RURAL MANDAL",Rajamahendravaram,Andhra Pradesh,India,,,,,,,,,,,,,,,,,,
"ELECTRICAL RESEARCH AND DEVELOPMENT ASSOCIATION, ERDA NORTH LABORATORY, GURUGRAM","CBIP CENTRE OF EXCELLENCE GROUND FLOOR, PLOT NO. 21, SECTOR 32",Gurgaon,Haryana,India,,,,,,,,,,,,,,,,,,
ELECTRICAL SAFETY AUDIT LABORATORY (SIMARTECH PROJECTS AND SERVICES LIMITED),"E-278, PSIEC I.T. PARK, SECTOR 75, INDUSTRIAL FOCAL POINT, PHASE 8A",Mohali,Punjab,India,,,,,,,,,,,,,,,,,,
ELECTRICAL STAMPINGS MANUFACTURERS (ELECTRICAL LABORATORY),"B-16A, INDUSTRIAL AREA, SITE NO. 3, MEERUT ROAD",Ghaziabad,Uttar Pradesh,India,,,,,,,,,,,,,,,,,,
ELECTRICAL STEEL TESTING LABORATORY,"SURVEY NO. 427 P/3-4 & 431 P/1-2, SARKHEJ BAVLA HIGHWAY, MORAIYA, TALUKA SANAND",Ahmedabad,Gujarat,India,,,,,,,,,,,,,,,,,,
"ELECTRICAL TEST LAB, CG POWER AND INDUSTRIAL SOLUTIONS","D2 MIDC, WALUJ",Aurangabad,Maharashtra,India,,,,,,,,,,,,,,,,,,
"ELECTRICAL TEST LABORATORY, CTR MANUFACTURING INDUSTRIES PRIVATE LIMITED","E-79, MIDC AMBAD",Nashik,Maharashtra,India,,,,,,,,,,,,,,,,,,
ELECTRICAL TESTING AND CALIBRATION LABORATORY,"A-7, PRIME INDUSTRIAL ESTATE, MANJUSAR",Vadodara,Gujarat,India,,,,,,,,,,,,,,,,,,
ELECTRICAL TESTING LABORATORY OF JPM INDUSTRIES LTD.,"KHASRA NO. 39/14, 15/1, 17/1, KHANDSA ROAD, VILLAGE-MOHAMMADPUR JHARSA, POST-KHERKI DHAULA",Gurgaon,Haryana,India,,,,,,,,,,,,,,,,,,
"ELECTRICAL TESTING LABORATORY, BAKRESWAR THERMAL POWER STATION","PO: BKTPP, PS: SADAIPUR",Siuri,West Bengal,India,,,,,,,,,,,,,,,,,,
"ELECTRICAL TESTING LABORATORY, BANDEL THERMAL POWER STATION","WBPDCL, TRIBENI",Hooghly,West Bengal,India,,,,,,,,,,,,,,,,,,
"ELECTRICAL TESTING LABORATORY, GEMINI INSTRATECH LIMITED","B-83,MIDC AMBAD",Nashik,Maharashtra,India,,,,,,,,,,,,,,,,,,
"ELECTRICAL TESTING LABORATORY, JHAJJAR POWER LIMITED","VILLAGE: KHANPUR, TEHSIL: MATENHAIL",Jhajjar,Haryana,India,,,,,,,,,,,,,,,,,,
"ELECTRICAL TESTING LABORATORY, OVERDRIVE ELECTRONICS PVT. LTD.","B-215, PHASE 2, NAGLA, DADRI ROAD",Noida,Uttar Pradesh,India,,,,,,,,,,,,,,,,,,
"ELECTRICAL TESTING LABORATORY, RAVIN CABLES LIMITED","ALANDI-MARKAL MAIN ROAD, MARKAL VILLAGE, GAT NO-227/230, TAL. KHED",Pune,Maharashtra,India,,,,,,,,,,,,,,,,,,
ELECTRONIC METER TEST LABORATORY OF UPCL,OFFICE OF THE EXECUTIVE ENGINEER,Dehradun,Uttarakhand,India,,,,,,,,,,,,,,,,,,
"ELECTRONIC SAFETY TEST LABORATORY, EMC DIVISION, SAMEER-CENTRE FOR MICROWAVE RESEARCH","SECTOR-7, RAIN TREE MARG, CBD BELAPUR",Navi Mumbai,Maharashtra,India,,,,,,,,,,,,,,,,,,
ELECTRONICS AND QUALITY DEVELOPMENT CENTRE (EQDC),"B-177/178, G.I.D.C. ELECTRONICS ESTATE, SECTOR 25",Gandhinagar,Gujarat,India,,,,,,,,,,,,,,,,,,
ELECTRONICS REGIONAL TEST LABORATORY (EAST),"BLOCK DN 63, SECTOR V, SALT LAKE",Kolkata,West Bengal,India,,,,,,,,,,,,,,,,,,
ELECTRONICS REGIONAL TEST LABORATORY (NORTH),"S BLOCK, OKHLA PH-II",New Delhi,Delhi,India,,,,,,,,,,,,,,,,,,
ELECTRONICS REGIONAL TEST LABORATORY (WEST),"PLOT NO. F-7 & 8, MIDC AREA, ANDHERI-EAST, GOVERNMENT OF INDIA, MINISTRY OF ELECTRONICS & INFORMATION TECHNOLOGY, STQC DIRECTORATE",Mumbai,Maharashtra,India,,,,,,,,,,,,,,,,,,
"ELECTRONICS TEST & DEVELOPMENT CENTRE, JAIPUR",MALVIYA INDUSTRIAL AREA,Jaipur,Rajasthan,India,,,,,,,,,,,,,,,,,,
ELECTRONICS TEST AND DEVELOPMENT CENTRE,"B-108, INDUSTRIAL AREA, PHASE-8",Mohali,Punjab,India,,,,,,,,,,,,,,,,,,
ELECTRONICS TEST AND DEVELOPMENT CENTRE,"AGRICULTURE COLLEGE CAMPUS, SHIVAJINAGAR",Pune,Maharashtra,India,,,,,,,,,,,,,,,,,,
ELECTRONICS TEST AND DEVELOPMENT CENTRE,"STQC DIRECTORATE, MEITY, KAMALA NAGAR, ECIL POST",Hyderabad,Telangana,India,,,,,,,,,,,,,,,,,,
ELECTRONICS TEST AND DEVELOPMENT CENTRE,"100 FEET ROAD, PEENYA INDUSTRIAL ROAD",Bengaluru,Karnataka,India,,,,,,,,,,,,,,,,,,
ELECTRONICS TEST AND DEVELOPMENT CENTRE,"DR. VSI ESTATE, THIRUVANMIYUR",Chennai,Tamil Nadu,India,,,,,,,,,,,,,,,,,,
ELENERGY LAB RESEARCH PRIVATE LIMITED,"Ground Floor, No. 135, Road No. 10, KIADB IT Park, Arebinnamangala Village, Jala Hobli",Bengaluru,Karnataka,India,,,,,,,,,,,,,,,,,,
ELETTRA TECH LABS PRIVATE LIMITED,"A-38, 2ND CROSS STREET, SIPCOT IT PARK",Chennai,Tamil Nadu,India,,,,,,,,,,,,,,,,,,
"EL-LAB, ELMEASURE INDIA PRIVATE LIMITED","#47P, KIADB HARDWARE PARK,HUVINAYAKANAHALLI, BENGALURU RURAL.",Yelahanka,Karnataka,India,,,,,,,,,,,,,,,,,,
ELMEF TESTING AND CALIBRATION LABORATORIES PVT. LTD.,"RH-8, COUNTYWALK, VILLAGE-JHALARIA",Indore,Madhya Pradesh,India,,,,,,,,,,,,,,,,,,
"EMC AND DURABILITY LAB, HCL TECHNOLOGIES LIMITED","73 - 74, SOUTH PHASE, AMBATTUR INDUSTRIAL ESTATE",Chennai,Tamil Nadu,India,,,,,,,,,,,,,,,,,,
"EMC DIVISION, SAMEER - CENTRE FOR MICROWAVE RESEARCH","SECTOR 7, RAIN TREE MARG",Navi Mumbai,Maharashtra,India,,,,,,,,,,,,,,,,,,
"EMC DIVISION, SAMEER-CENTRE FOR ELECTROMAGNETICS","MINISTRY OF ELECTRONICS AND INFORMATION TECHNOLOGY, GOVERNMENT OF INDIA, 2ND CROSS ROAD, CIT CAMPUS, TARAMANI",Chennai,Tamil Nadu,India,,,,,,,,,,,,,,,,,,
"EMC EMI TESTING LAB, HLL LIFE CARE LIMITED","B 14A, SECTOR 62",Noida,Uttar Pradesh,India,,,,,,,,,,,,,,,,,,
EMC TEST CENTER,"BHARAT ELECTRONICS LIMITED, I.E. NACHARAM",Hyderabad,Telangana,India,,,,,,,,,,,,,,,,,,
EMC TEST CENTRE,"BHARAT ELECTRONICS LTD, NANDAMBAKKAM",Chennai,Tamil Nadu,India,,,,,,,,,,,,,,,,,,
"EMC TEST CENTRE, QUALITY ASSURANCE DIVISION, BHARAT ELECTRONICS LTD.",JALAHALLI POST,Bengaluru,Karnataka,India,,,,,,,,,,,,,,,,,,
"EMC TEST FACILITY(ETF), BHARAT ELECTRONICS LTD.","SAHIBABAD INDUSTRIAL AREA,SITE -4",Ghaziabad,Uttar Pradesh,India,,,,,,,,,,,,,,,,,,
"EMC TEST LABORATORY, DATA PATTERNS (INDIA) LIMITED","PLOT H9, FOURTH MAIN ROAD, SIPCOT IT PARK, OMR, OFF RAJIV GANDHI SALAI, SIRUSERI",Chennai,Tamil Nadu,India,,,,,,,,,,,,,,,,,,
"EMC TEST SERVICES, ASTRA MICROWAVE PRODUCTS LIMITED","PLOT NO 18-21, IMARATH KANCHA, HARDWARE PARK, RAVIRYALA VILLAGE, MAHESHWARAM MANDAL,  HYDERABAD",Hyderabad,Telangana,India,,,,,,,,,,,,,,,,,,
EMC TESTING AND COMPLIANCE LLP,"115, PACE CITY 1, SECTOR 37",Gurgaon,Haryana,India,,,,,,,,,,,,,,,,,,
EMI/EMC AND ELECTRICAL SAFETY TEST FACILITY,"201H/202H, 1ST FLOOR, DIAMOND JUBILEE ACADEMIC COMPLEX, IIT",Kanpur,Uttar Pradesh,India,,,,,,,,,,,,,,,,,,
EMI/EMC TEST FACILITY,"ELECTRONICS CORPORATION OF INDIA LIMITED, ECIL (POST)",Hyderabad,Telangana,India,,,,,,,,,,,,,,,,,,
"EMI/EMC TEST FACILITY, LINKWELL TELESYSTEMS PVT LTD","B-45, ELECTRONIC COMPLEX, KUSHAIGUDA, MEDCHAL MALKAJGIRI",Hyderabad,Telangana,India,,,,,,,,,,,,,,,,,,
"EMOBILITY LABORATORY, L&AMP;T TECHNOLOGY SERVICES","EMOBILITY LABORATORY, L&T TECHNOLOGY SERVICES LIMITED, VISTA PIXEL,  GROUND FLOOR, 8/2B AND 8/2C, BELLARY ROAD JAKKURU LAYOUT, JAKKURU, BANGALORE URBAN",Bengaluru,Karnataka,India,,,,,,,,,,,,,,,,,,
"ENERGY TESTING LABORATORY, APPLIANCE DIVISION, GODREJ & BOYCE MFG. CO. LTD, MOHALI WORKS","PLOT NO. A-40, PHASE VIII A, SAS NAGAR, INDUSTRIAL AREA, MOHALI, PUNJAB, INDIA",Mohali,Punjab,India,,,,,,,,,,,,,,,,,,
"ENERGY TESTING LABORATORY, GODREJ & BOYCE MANUFACTURING COMPANY LIMITED (APPLIANCE DIVISION)","GAT NO. 600, 601, VILLAGE WING, TAL. KHANDALA, SATARA",Shirwal,Maharashtra,India,,,,,,,,,,,,,,,,,,
ENTEST INDIA LABORATORIES,"COMPLIANCE LAB, INDIQUBE GOLF VIEW HOMES, WARD NO. 73 AIRPORT, NAL WIND TUNNEL ROAD, MURUGESHPALYA",Bengaluru,Karnataka,India,,,,,,,,,,,,,,,,,,
ENVIROCHECK,"63/B, 189, 190 & 192 RASTRAGURU AVENUE",24 Parganas (n),West Bengal,India,,,,,,,,,,,,,,,,,,
ENVIRONMENT LABORATORY OF REGENT DEFENCE AND ENGINEERING SYSTEMS LIMITED,"126, K. SATHANOOR ROAD",Thiruchirapalli,Tamil Nadu,India,,,,,,,,,,,,,,,,,,
"ENVIRONMENTAL AND MECHANICAL TEST DIVISION, SOUTHERN ELECTRONICS (BANGALORE) PVT LTD","16A, PEENYA INDUSTRIAL AREA, 1ST PHASE",Bengaluru,Karnataka,India,,,,,,,,,,,,,,,,,,
ENVIRONMENTAL DURABILITY TEST LABORATORY,ELECTRONICS CORPORATION OF INDIA LIMITED,Hyderabad,Telangana,India,,,,,,,,,,,,,,,,,,
ENVIRONMENTAL TEST CENTRE (ETC),"BHARAT ELECTRONICS LIMITED, SITE-IV, SAHIBABAD INDUSTRIAL AREA, BHARAT NAGAR POST",Ghaziabad,Uttar Pradesh,India,,,,,,,,,,,,,,,,,,
"ENVIRONMENTAL TEST DEPARTMENT, QUALITY ASSURANCE DIVISION, BHARAT ELECTRONICS LIMITED","BLOCK B, C, E, F & G, JALAHALLI POST",Bengaluru,Karnataka,India,,,,,,,,,,,,,,,,,,
"ENVIRONMENTAL TEST FACILITY, SITAR","VIJINAPURA ROAD, DOORVANINAGAR",Bengaluru,Karnataka,India,,,,,,,,,,,,,,,,,,
"ENVIRONMENTAL TEST FACILITY, TRIDENT INFOSOL PVT. LTD.","1A, KHUSAL GARDEN ARCADE",Bengaluru,Karnataka,India,,,,,,,,,,,,,,,,,,
ENVIRONMENTAL TEST FACILITY/QM DEPT/COMPONENTS SBU,"COMPONENTS SBU, BHARAT ELECTRONICS LIMITED, JALAHALLI P.O.,",Bengaluru,Karnataka,India,,,,,,,,,,,,,,,,,,
"ENVIRONMENTAL TEST LAB,AVANTEL LIMITED","PLOT NO. 47/P, APIIC INDUSTRIAL PARK, GAMBHEERAM (V), ANANDAPURAM (M)",Visakhapatnam,Andhra Pradesh,India,,,,,,,,,,,,,,,,,,
ENVIRONMENTAL TEST LABORATORY DATA PATTERNS (INDIA) LIMITED,"PLOT #H9, FOURTH MAIN ROAD, SIPCOT IT PARK, SIRUSERI",Chennai,Tamil Nadu,India,,,,,,,,,,,,,,,,,,
ENVIRONMENTAL TESTING LABORATORY,"LARSEN AND TOUBRO LIMITED, STRATEGIC ELECTRONICS CENTER (SEC),145/2, OLD MADRAS ROAD, C V RAMAN NAGAR",Bengaluru,Karnataka,India,,,,,,,,,,,,,,,,,,
"ENVIRONMENTAL TESTING LABORATORY, LARSEN & TOUBRO LIMITED","STRATEGIC SYSTEM COMPLEX, PLOT NO. A-5, 7, 8, 10, 11 TALEGAON MIDC, VILLAGE NAVLAKH UMBRE, TALUKA MAVAL",Pune,Maharashtra,India,,,,,,,,,,,,,,,,,,
ENVISYS TEST LAB,"ENVISYS TECHNOLOGIES PVT LTD, SB-118, 3RD CROSS, 1ST STAGE PEENYA INDUSTRIAL ESTATE",Bengaluru,Karnataka,India,,,,,,,,,,,,,,,,,,
ENVITEST LABORATORIES PRIVATE LIMITED,"NO.14-1510, SHAMANNA REDDY LAYOUT",Bengaluru,Karnataka,India,,,,,,,,,,,,,,,,,,
EPSILON ADVANCED MATERIALS PRIVATE LIMITED (QC LAB),"SULTANPUR ROAD, VILLAGE MUSINAYAKANAHALLI, TALUKA SANDUR",Bellary,Karnataka,India,,,,,,,,,,,,,,,,,,
ESAB INDIA LIMITED - WELDING PRODUCT TESTING LABORATORY,"PLOT NO:13,3RD MAIN ROAD, INDUSTRIAL ESTATE, AMBATTUR",Tiruvallur,Tamil Nadu,India,,,,,,,,,,,,,,,,,,
ESENNAR TRANSFORMERS PRIVATE LIMITED (TRANSFORMER TESTING LABORATORY),"PLOT NO 2, PHASE 1, IDA, PASHAMYLARAM",Sangareddy,Telangana,India,,,,,,,,,,,,,,,,,,
ESKAPS (INDIA) PRIVATE LIMITED,"30, JAWAHARLAL NEHRU ROAD, PARK STREET",Kolkata,West Bengal,India,,,,,,,,,,,,,,,,,,
ESYASOFT LANDIS AND GYR TEST LABORATORY,DIAMOND HARBOUR ROAD,Kolkata,West Bengal,India,,,,,,,,,,,,,,,,,,
EVENT ELECTRIC PRIVATE LIMITED(DIVISION- KTEC OIL LABORATORIES),"PLOT NO-727, 1ST FLOOR, PHASE-1, MIE",Bahadurgarh,Haryana,India,,,,,,,,,,,,,,,,,,
EXCEL ELECTRICAL EQUIPMENT LLP - TESTING LABORATORY,"KOONAMTHAI, AMBALAM ROAD, CHANGAMPUZHA NAGAR P.O",Kochi,Kerala,India,,,,,,,,,,,,,,,,,,
EXIDE INDUSTRIES LIMITED (DEPARTMENT OF CHEMICAL & ELECTRICAL LABORATORY),"91, NEW CHORD ROAD, P.O ATHPUR, SHYAMNAGAR",Bhatpara,West Bengal,India,,,,,,,,,,,,,,,,,,
FINE FINISH ANALYTICAL LABORATORY,"PLOT NO 29 & 76, NEW CHEMICAL ZONE",Taloja,Maharashtra,India,,,,,,,,,,,,,,,,,,
FINOLEX J-POWER SYSTEMS LIMITED,"GAT NO.1142 TO 1149, AT-POST-SHIRWAL, KHANDALA",Satara,Maharashtra,India,,,,,,,,,,,,,,,,,,
Fire Test And Research Laboratory,"9TH MILESTONE, SONIPAT - GOHANA ROAD, VILL. & P.O. RATTANGARH, SH-11",Sonipat,Haryana,India,,,,,,,,,,,,,,,,,,
FLUID CONTROL RESEARCH INTITUTE,KANJIKODE WEST,Palakkad,Kerala,India,,,,,,,,,,,,,,,,,,
FOCUS TESTING LABORATORY,"FOCUS LIGHTING AND FIXTURES LTD., SURVEY NO.396/24, PLOT NO.71/72, NEW AHMEDABAD INDUSTRIAL ESTATE",Ahmedabad,Gujarat,India,,,,,,,,,,,,,,,,,,
FORENTEC ENGINEERS PVT LIMITED (DIVISION: TESTING LAB),"4TH & 5TH FLOOR, SKYLINE, KADRU",Ranchi,Jharkhand,India,,,,,,,,,,,,,,,,,,
FRIGOGLASS INDIA PRIVATE LIMITED (LABORATORY DIVISION),"PLOT NO. 26-A, SECTOR 3, IMT MANESAR",Gurgaon,Haryana,India,,,,,,,,,,,,,,,,,,
FUJI ELECTRIC INDIA PRIVATE LIMITED (TESTING LABORATORY),"KUNNAVAKKAM VILLAGE, SH 48, BUILDING NUMBER 3, SAN LOGISTIK PARK, VANDALUR ORAGADAM WALAJABAD HIGHWAY, ORAGADAM",Kanchipuram,Tamil Nadu,India,,,,,,,,,,,,,,,,,,
FUTURE TEK LABORATORY (A DIVISION OF QUADRANT FUTURE TEK LIMITED),"VILLAGE- BASMA, BASMA JHAJJON ROAD",Mohali,Punjab,India,,,,,,,,,,,,,,,,,,
G NINE MODULAR TESTING LABORATORY,"PLOT NO. 11/12, SURVEY NO. 77/2, SATIVALI ROAD",Vasai,Maharashtra,India,,,,,,,,,,,,,,,,,,
GANDHAR OIL REFINERY INDIA LIMITED,"PLOT NO. 2, SURVEY NO. 678/1/3 & 675/1/2",Silvassa,Dadra and Nagar Haveli,India,,,,,,,,,,,,,,,,,,
"GARG ASSOCIATES PRIVATE LIMITED, Q.A. LAB","D-3, MEERUT ROAD INDUSTRIAL AREA-3",Ghaziabad,Uttar Pradesh,India,,,,,,,,,,,,,,,,,,
GE VERNOVA T&D INDIA LIMITED,"PLOT NO.46, SIPCOT INDUSTRIAL COMPLEX",Hosur,Tamil Nadu,India,,,,,,,,,,,,,,,,,,
GEMSCAB INDUSTRIES LIMITED,"PLOT NO. SP-1192/ L & K,  PHASE -IV, RIICO INDUSTRIAL AREA",Bhiwadi,Rajasthan,India,,,,,,,,,,,,,,,,,,
GEMSCAB INDUSTRIES LIMITED (UNIT-II),"PLOT NO. SP4- 868, 869, RIICO INDUSTRIAL AREA, PATHREDI",Bhiwadi,Rajasthan,India,,,,,,,,,,,,,,,,,,
GENUS METER TESTING LABORATORY,"SPL-3, RIICO INDUSTRIAL AREA, SITAPURA, TONK ROAD",Jaipur,Rajasthan,India,,,,,,,,,,,,,,,,,,
GENUS POWER INFRASTRUCTURES LIMITED METERING LABORATORY,"PLOT-12, SEC-4, SIDCUL",Haridwar,Uttarakhand,India,,,,,,,,,,,,,,,,,,
"GENUS POWER INFRASTRUCTURES LIMITED, METERING LAB","PLOT NO. SP1-2317, RIICO INDUSTRIAL AREA, RAMCHANDRAPURA SITAPURA(EXT)",Jaipur,Rajasthan,India,,,,,,,,,,,,,,,,,,
"GENUS POWER METERING LABORATORY, GENUS POWER INFRASTRUCTURES LIMITED","PLOT NO. 09, SECTOR-02, SIDCUL, RANIPUR",Haridwar,Uttarakhand,India,,,,,,,,,,,,,,,,,,
GENUS POWER METROLOGICAL LABORATORY,"PLOT NO. 104; BRAHMAPUTRA INDUSTRIAL PARK, AMINGAON",Guwahati,Assam,India,,,,,,,,,,,,,,,,,,
GHAZIABAD TESTING LABORATORIES PVT. LTD.,"AO 150, AMRIT STEEL COMPOUND, SOUTH SIDE GT ROAD   INDUSTRIAL AREA",Ghaziabad,Uttar Pradesh,India,,,,,,,,,,,,,,,,,,
GIGA LABS,"BEARYS GLOBAL RESEARCH CENTRE, 63/3B, GORVIGERE VILLAGE, BIDARAHALLI HOBLI",Bengaluru,Karnataka,India,,,,,,,,,,,,,,,,,,
GLOBAL AUTOMOTIVE RESEARCH CENTRE (GARC),"PLOT E1, SIPCOT INDUSTRIAL GROWTH CENTRE",Chennai,Tamil Nadu,India,,,,,,,,,,,,,,,,,,
GLOBAL COMPLIANCE LABORATORY INDIA,"14/17, SECOND FLOOR, SITE 4, INDUSTRIAL AREA, SAHIBABAD",Ghaziabad,Uttar Pradesh,India,,,,,,,,,,,,,,,,,,
GLOBAL ELECTRICAL LABORATORY LLP,"302, SUN ENCLAVE, MANJALPUR",Vadodara,Gujarat,India,,,,,,,,,,,,,,,,,,
GLOBAL POWER RESEARCH INSTITUTE (UNIT OF SARAVANA GLOBAL ENERGY LIMITED),"VRIDHACHALAM ROAD, P.N.KUPPAM",Kurinjippadi,Tamil Nadu,India,,,,,,,,,,,,,,,,,,
GLOBAL TESTING LABORATORY PRIVATE LIMITED,"PLOT NO.55, RAJENDRA NAGAR INDUSTRIAL AREA, GALI NO. 5 A, MOHAN NAGAR",Ghaziabad,Uttar Pradesh,India,,,,,,,,,,,,,,,,,,
"GLOSTER CABLES LIMITED, TESTING LAB","SURVEY NO. 293, KALLAKAL (VILLAGE), NH-44, MANOHARABAD (MANDAL)",Medak,Telangana,India,,,,,,,,,,,,,,,,,,
"GODREJ BUSBAR TEMPERATURE RISE & IMPULSE TEST LABORATORY, GODREJ & BOYCE MFG CO LTD.","PLOT NO.495, 2ND STAGE, SOMPURA INDUSTRIAL AREA, BEERAGONDANAHALLI VILLAGE, NELAMANGALA",Bengaluru,Karnataka,India,,,,,,,,,,,,,,,,,,
GRANDLAY ELECTRICALS (INDIA) (LAB DIVISION),"PLOT NO.-73, MURTHAL",Sonipat,Haryana,India,,,,,,,,,,,,,,,,,,
GRANITE RIVER LABS INDIA SERVICES PRIVATE LIMITED,"UNIT # 10, 1ST FLOOR, ROACH ICON, SURVEY NO. 28 & 36/5, OUTER RING ROAD, DODDANAKUNDI, K R PURAM HOBLI",Bengaluru,Karnataka,India,,,,,,,,,,,,,,,,,,
"GWALIOR TESTING LABORATORY, MADHYA PRADESH MADHYA KSHETRA VIDYUT VITARAN COMPANY LIMITED",SIROL ROAD,Gwalior,Madhya Pradesh,India,,,,,,,,,,,,,,,,,,
HAIER APPLIANCES (INDIA) PVT. LTD.-WATER HEATER LAB,"B-3, RANJANGAON GROWTH CENTER, MIDC RANJANGAON, TALUKA-SHIRUR",Pune,Maharashtra,India,,,,,,,,,,,,,,,,,,
HAIER APPLIANCES INDIA PVT LTD,"B-3, RANJANGAON GROTH CENTRE, MIDC RANJANGAON",Pune,Maharashtra,India,,,,,,,,,,,,,,,,,,
"HAIER PA LAB, HAIER APPLIANCES (INDIA) PVT. LTD.","B-3, MIDC, RANJANGAON, TAL.-SHIRUR",Pune,Maharashtra,India,,,,,,,,,,,,,,,,,,
HAMMOND POWER SOLUTIONS PRIVATE LIMITED,"PLOT NO. 6A, PHASE 1, I.D.A",Hyderabad,Telangana,India,,,,,,,,,,,,,,,,,,
HASTI ENGINEERS LLP,"KAILASH INDUSTRIAL AREA, 40 FEET SWATI RESIDENCY MAIN ROAD",Rajkot,Gujarat,India,,,,,,,,,,,,,,,,,,
HAVELLS INDIA LIMITED,"A-461/462 & SP-215, M.I.A.",Alwar,Rajasthan,India,,,,,,,,,,,,,,,,,,
HAVELLS INDIA LIMITED,"PLOT NO. SP 181-189 AND 191(A), PHASE - II, RIICO INDUSTRIAL AREA, NEEMRANA",Alwar,Rajasthan,India,,,,,,,,,,,,,,,,,,
HAVELLS INDIA LIMITED - CRI DIVISION,"E-1, SECTOR-59",Noida,Uttar Pradesh,India,,,,,,,,,,,,,,,,,,
HAVELLS RESEARCH & DEVELOPMENT LABORATORY - UNIT II,"VILLAGE GULLARWALA, SOLAN",Baddi,Himachal Pradesh,India,,,,,,,,,,,,,,,,,,
HEPL TESTING AND CALIBRATION LABORATORY,"HIVOLTRANS ELECTRICALS PVT. LTD., 2202-03, GIDC HALOL",Halol,Gujarat,India,,,,,,,,,,,,,,,,,,
HERRMANN RESEARCH PRODUCTS AND LABORATORIES PVT LTD,"B-4/1, NICE, MIDC, SATPUR",Nashik,Maharashtra,India,,,,,,,,,,,,,,,,,,
HFCL LIMITED (OFC TEST LAB),"PLOT NO: S-9, SURVEY NO. 26P, 62P, 88P, ELECTRONIC CITY, RAVIRYLA, MAHESHWARAM (M)",Ranga Reddy district,Telangana,India,,,,,,,,,,,,,,,,,,
HFCL LTD. (OFC TESTING LAB),"L-35,36,37, VERNA INDUSTRIAL ESTATE",Verna,Goa,India,,,,,,,,,,,,,,,,,,
HI PHYSIX LABORATORY INDIA PRIVATE LIMITED,"B-32/1/2, MIDC, INDUSTRIAL AREA, RANJANGAON",Pune,Maharashtra,India,,,,,,,,,,,,,,,,,,
"HIGH VOLTAGE AND HIGH CURRENT TEST       LABORATORY, BUSHINGS, INSTRUMENT TRANSFORMERS & COILS, SIEMENS ENERGY INDIA LimiTED","E-76, MIDC, WALUJ",Aurangabad,Maharashtra,India,,,,,,,,,,,,,,,,,,
HIGH VOLTAGE PRODUCTS LABORATORY - HITACHI ENERGY INDIA LIMITED,MANEJA,Vadodara,Gujarat,India,,,,,,,,,,,,,,,,,,
"HIGH VOLTAGE TEST LABORATORY, ELECTRICAL CONTROLS & SYSTEMS","1409-1410, WAGHODIA GIDC, WAGHODIA",Vadodara,Gujarat,India,,,,,,,,,,,,,,,,,,
"HIGH VOLTAGE TEST LABORATORY, PFIFFNER INSTRUMENT TRANSFORMERS PRIVATE LIMITED","G. NO. 176, 178/2",Nashik,Maharashtra,India,,,,,,,,,,,,,,,,,,
"HINDALCO INDUSTRIES LIMITED, HIC SEMI FAB","PLOT NO. 2,  MIDC,  TALOJA AV",Navi Mumbai Panvel,Maharashtra,India,,,,,,,,,,,,,,,,,,
"HIREL LABORATORY, CONTINENTAL DEVICE INDIA PRIVATE LIMITED","C-120, NARAINA INDUSTRIAL AREA",New Delhi,Delhi,India,,,,,,,,,,,,,,,,,,
HI-TECH AUTOMATIC METER TEST LAB,"33/11 KV SUB-STATION, GANGANAGAR-1",Meerut,Uttar Pradesh,India,,,,,,,,,,,,,,,,,,
"HI-TECH AUTOMATIC METER TEST LAB, DVVNL","CHIEF DISTRIBUTION OFFICE, GAILANA ROAD",Agra,Uttar Pradesh,India,,,,,,,,,,,,,,,,,,
"HI-TECH METER LABORATORY, UGVCL",SABARMATI,Ahmedabad,Gujarat,India,,,,,,,,,,,,,,,,,,
HI-TECH METER TESTING LABORATORY,"NAKA MADAR, AVVNL",Ajmer,Rajasthan,India,,,,,,,,,,,,,,,,,,
HI-TECH METER TESTING LABORATORY,"PASCHIM GUJARAT VIJ CO. LTD., ZONAL OFFICE",Bhavnagar,Gujarat,India,,,,,,,,,,,,,,,,,,
"HI-TECH TEST LAB, MVVNL","GOMTI NAGAR, VIPIN KHAND",Lucknow,Uttar Pradesh,India,,,,,,,,,,,,,,,,,,
"HONEYWELL ELECTRICAL DEVICES & SYSTEMS INDIA LIMITED, HOPE TOWN TEST CENTRE","KHASRA NO.323 (MI), CENTRAL HOPE TOWN",Dehradun,Uttarakhand,India,,,,,,,,,,,,,,,,,,
"HONEYWELL TECHNOLOGY SOLUTIONS - EMC, ENV/SAFETY LAB","19/2, DEVARABISANAHALLI VILLAGE, VARTUR HOBLI, BANGALORE EAST TALUK",Bengaluru,Karnataka,India,,,,,,,,,,,,,,,,,,
HONEYWELL TECHNOLOGY SOLUTIONS LAB PRIVATE LIMITED - EMC/ENV/SAFETY LAB,"PLOT NO.11, SURVEY NO. 115, RD NO.2, IT PARK, NANAKRAMGUDA, GACHIBOWLI",Hyderabad,Telangana,India,,,,,,,,,,,,,,,,,,
"HPL ELECTRIC & POWER LIMITED, TESTING LABORATORY","MAIN G.T ROAD, NH-44, VILLAGE- BASTARA, TEHSIL- GHARAUNDA",Karnal,Haryana,India,,,,,,,,,,,,,,,,,,
HT PRODUCT SERVICES PRIVATE LIMITED,"B-78, BASEMENT, 1ST, 4TH, 5TH FLOOR, SECTOR-5",Noida,Uttar Pradesh,India,,,,,,,,,,,,,,,,,,
HTL OFC TESTING LABORATORY,"NO. 57, GST ROAD, GUINDY",Chennai,Tamil Nadu,India,,,,,,,,,,,,,,,,,,
HTPL LABORATORY,"PLOT NO. 5, SECTOR-12, IIE, SIDCUL",Haridwar,Uttarakhand,India,,,,,,,,,,,,,,,,,,
"HV ELECTRICAL LAB & THERMO MECHANICAL LAB, RAYCHEM RPG PVT. LTD.",SAFARI CROSSING,Halol,Gujarat,India,,,,,,,,,,,,,,,,,,
"HV TEST LAB, ANDREW YULE AND COMPANY LIMITED","ELECTRICAL DIVISION, 5/346, OLD MAHABALIPURAM ROAD",Chennai,Tamil Nadu,India,,,,,,,,,,,,,,,,,,
"HV TEST LABORATORY, SIEMENS ENERGY INDIA LIMITED","THANE BELAPUR ROAD, AIROLI POST OFFICE, AIROLI",Navi Mumbai,Maharashtra,India,,,,,,,,,,,,,,,,,,
"HV/EHV TEST LABORATORY, KEC ASIAN CABLES LIMITED","PLOT NO. 803, SAMALAYA SAVLI ROAD VILLAGE GODAMPURA",Vadodara,Gujarat,India,,,,,,,,,,,,,,,,,,
I.T.L. TESTING LAB,"INTERNATIONAL TRANSMISSION LIMITED, VILLAGE-PUNDHE, MUMBAI-NASHIK HIGHWAY",Shahapur,Maharashtra,India,,,,,,,,,,,,,,,,,,
IAC ELECTRICALS PRIVATE LIMITED (TESTING LABORATORY),"SANKRIAL INDUSTRIAL PARK, PLOT NO. 53, VILLAGE JALADHULAGORI, PO DHULAGORI, BOMBAY ROAD (NH-6)",Howrah,West Bengal,India,,,,,,,,,,,,,,,,,,
IAF EMI-EMC LABORATORY,AIR FORCE STATION SOHNA ROAD,Gurgaon,Haryana,India,,,,,,,,,,,,,,,,,,
IEC TEST LABS LLP,"GROUND FLOOR, PLOT NO.N-47, PKT-N, SECTOR-5, BAWANA, DSIDC",New Delhi,Delhi,India,,,,,,,,,,,,,,,,,,
IFB TESTING LABORATORY,"L-1, VERNA ELECTRONIC CITY",Verna,Goa,India,,,,,,,,,,,,,,,,,,
IMPACTCALIBRATION AND TESTING SOLUTIONS PRIVATE LIMITED,"B5, 2ND CROSS, ITI INDUSTRIAL ESTATE",Bengaluru,Karnataka,India,,,,,,,,,,,,,,,,,,
"IMPULSE TEST LAB, SHREE ABIRAMI ENGGINEERING WORKS PRIVATE LIMITED","SURVEY No. 22/1 & 22/2, SH 113",Sriperumpudur,Tamil Nadu,India,,,,,,,,,,,,,,,,,,
"INDIA R&D LABORATORIES, ELECTRICAL INFRASTRUCTURE SBU, NOVATEUR ELECTRICAL AND DIGITAL SYSTEMS PRIVATE LIMITED (LEGRAND INDIA)","A-2, MIDC INDUSTRIAL AREA",Nashik,Maharashtra,India,,,,,,,,,,,,,,,,,,
INDIAN NAVAL MIL-STD-461 TEST LAB,"NAVAL EMC CENTRE, C/O FLEET MAIL OFFICE, NAVAL DOCKYARD, COLABA",Mumbai,Maharashtra,India,,,,,,,,,,,,,,,,,,
INDIAN TRANSFORMERS AND ELECTRICALS PRIVATE LIMITED - TESTING LABORATORY,"38TH K.M. STONE, NH-8, BEHRAMPUR ROAD, SECTOR-34",Gurgaon,Haryana,India,,,,,,,,,,,,,,,,,,
"INDKOSQUARE LAB, INDKOSQUARE GLOBAL ENGINEERING PRIVATE LIMITED","B-139, ROAD NO. 12, VKI AREA",Jaipur,Rajasthan,India,,,,,,,,,,,,,,,,,,
INDO TECH TRANSFORMERS LIMITED,"S.NO.153-210, ILLUPPATTU VILLGE, RAJAKULAM POST",Kanchipuram,Tamil Nadu,India,,,,,,,,,,,,,,,,,,
INDUSTRIAL ELECTRICS,"PLOT NO. 105, GNIDA, ECOTECH-12",Greater Noida,Uttar Pradesh,India,,,,,,,,,,,,,,,,,,
"INDUSTRIAL TEST HOUSE, EXIDE INDUSTRIES LIMITED","DURGACHAK, PURBA MEDINIPORE",Haldia,West Bengal,India,,,,,,,,,,,,,,,,,,
INSTITUTE FOR DESIGN OF ELECTRICAL MEASURING INSTRUMENTS,"SWATANTRYAVEER TATYA TOPE MARG, CHUNABHATTI, SION",Mumbai,Maharashtra,India,,,,,,,,,,,,,,,,,,
INSTITUTE OF TESTING AND CERTIFICATION INDIA PVT. LTD.,"146, JLPL, INDUSTRIAL AREA, SECTOR - 82",Mohali,Punjab,India,,,,,,,,,,,,,,,,,,
"INSULATING OIL TESTING LABORATORY (IOTL), POWER GRID CORPORATION OF INDIA LIMITED","AT: 765/400 KV, ANGUL POOLING STATION, PO: PHULPADA",Angul,Odisha,India,,,,,,,,,,,,,,,,,,
INSULATING OIL TESTING LABORATORY (POWER GRID CORPORATION OF INDIA LTD.),"400/220 KV POWERGRID SUBSTATION, PARULIA, P.O- DHABANI",Durgapur,West Bengal,India,,,,,,,,,,,,,,,,,,
"INSULATING OIL TESTING LABORATORY, CESC LIMITED","107/1, D.C. DEY ROAD",Kolkata,West Bengal,India,,,,,,,,,,,,,,,,,,
"INSULATING OIL TESTING LABORATORY, POWER GRID CORPORATION OF INDIA LIMITED","400/220 KV MISA SUB-STATION , VELUGURI, POST-KOTHIATOLI",Hojai,Assam,India,,,,,,,,,,,,,,,,,,
"INSULATING OIL TESTING LABORATORY, POWER GRID CORPORATION OF INDIA LIMITED",HVDC BACK TO BACK STATION & 400 KV SUB-STATION,Bhadravati,Maharashtra,India,,,,,,,,,,,,,,,,,,
"INSULATING OIL TESTING LABORATORY, POWER GRID CORPORATION OF INDIA LIMITED (WR-II)","400/220KV SUBSTATION, BETUL ROAD, PATHROTA",Itarsi,Madhya Pradesh,India,,,,,,,,,,,,,,,,,,
"INTEGRATED EMC AND RELIABILITY TESTING LABORATORY, BOSCH GLOBAL SOFTWARE TECHNOLOGIES PRIVATE LIMITED","NO.123, HOSUR ROAD, INDUSTRIAL LAYOUT",Bengaluru,Karnataka,India,,,,,,,,,,,,,,,,,,
"INTEGRATED EMC AND RELIABILITY TESTING LABORATORY, BOSCH GLOBAL SOFTWARE TECHNOLOGIES PRIVATE LIMITED","CHIL - SEZ, KEERANATHAM VILLAGE",Coimbatore,Tamil Nadu,India,,,,,,,,,,,,,,,,,,
"INTEGRATED EMC AND RELIABILITY TESTING LABORATORY, BOSCH GLOBAL SOFTWARE TECHNOLOGIES PRIVATE LIMITED","601, HOSUR ROAD, ADUGODI",Bengaluru,Karnataka,India,,,,,,,,,,,,,,,,,,
INTELLISMART METER TESTING LABORATORY,"GROUND FLOOR, TOWER A, UNITECH BUSINESS PARK, SOUTH CITY-1",Gurgaon,Haryana,India,,,,,,,,,,,,,,,,,,
INTERNATIONAL CENTRE FOR AUTOMOTIVE TECHNOLOGY,"PLOT NO. 26, SECTOR-3, HSIIDC, IMT MANESAR",Gurgaon,Haryana,India,,,,,,,,,,,,,,,,,,
INTERTEK INDIA PRIVATE LIMITED,"E-26, BLOCK B-1, MOHAN CO-OPERATIVE INDUSTRIAL AREA, MATHURA ROAD",New Delhi,Delhi,India,,,,,,,,,,,,,,,,,,
INTERTEK INDIA PRIVATE LIMITED,"E-20, BLOCK B-1, MOHAN CO-OPERATIVE INDUSTRIAL AREA, MATHURA ROAD",New Delhi,Delhi,India,,,,,,,,,,,,,,,,,,
INTERTEK INDIA PRIVATE LIMITED,"17/F, 2ND STAGE, INDUSTRIAL SUBURB, YESHWANTHPUR INDUSTRIAL AREA",Bengaluru,Karnataka,India,,,,,,,,,,,,,,,,,,
INTERTEK INDIA PRIVATE LIMITED,"""F"" WING, TEX CENTRE, CHANDIVALI FARM ROAD, ANDHERI (EAST)",Mumbai,Maharashtra,India,,,,,,,,,,,,,,,,,,
INTEVA PRODUCTS INDIA AUTOMOTIVE PVT. LTD (TESTING LAB),"4TH FLOOR, N1 BLOCK, MANYATA EMBASSY BUSINESS PARK, NAGAWARA",Bengaluru,Karnataka,India,,,,,,,,,,,,,,,,,,
JAYBEE TRANSFORMER LABORATORY (OPC) PRIVATE LIMITED,"5TH KM STONE, MALOUT ROAD",Bathinda,Punjab,India,,,,,,,,,,,,,,,,,,
JSL INSTRUMENT TRANSFORMER LABORATORY,"JSL INDUSTRIES LTD, N.H.NO.8, MOGAR",Anand,Gujarat,India,,,,,,,,,,,,,,,,,,
KAMATH TRANSFORMERS PVT LTD TESTING LABORATORY,"NO. 4 D E F, KIADB INDUSTRIAL AREA, YEDEHALLI, SOMPURAPURA HOBLI, DABASPET",Bengaluru,Karnataka,India,,,,,,,,,,,,,,,,,,
KANOHAR ELECTRICALS LIMITED,GANGOL ROAD,Meerut,Uttar Pradesh,India,,,,,,,,,,,,,,,,,,
KARANDIKAR LABORATORIES PVT. LTD.,"GAT NO. 142, BOISAR CHILHAR ROAD, AT BETEGAON, BOISAR(E)",Boisar,Maharashtra,India,,,,,,,,,,,,,,,,,,
KC INDIA TEST LABORATORIES LLP,"A-16/2, SITE-IV, SAHIBABAD INDUSTRIAL AREA",Ghaziabad,Uttar Pradesh,India,,,,,,,,,,,,,,,,,,
"KDI POWER PRIVATE LIMITED, TESTING LABORATORY","H-1243, DSIDC INDUSTRIAL AREA, NARELA, NORTH WEST DELHI",Delhi,Delhi,India,,,,,,,,,,,,,,,,,,
KEDL METER TESTING LAB,"METERING DEPARTMENT, A2 DIVISION, VIGYAN NAGAR",Kota,Rajasthan,India,,,,,,,,,,,,,,,,,,
"KELTRON CONTROLS, ENVIRONMENTAL TEST FACILITY","KELTRON CONTROLS, AROOR",Alappuzha,Kerala,India,,,,,,,,,,,,,,,,,,
KERALA STATE ELECTRICITY BOARD LIMITED (METER TESTING LABORATORY),"TMR DIVISION, PAKKIL P.O, PALLOM",Kottayam,Kerala,India,,,,,,,,,,,,,,,,,,
KERALA STATE ELECTRICITY BOARD LIMITED (METER TESTING LABORATORY),TMR DIVISION - THIRUMALA,Thiruvananthapuram,Kerala,India,,,,,,,,,,,,,,,,,,
KINECTRICS INDIA PRIVATE LIMITED,"SY NO: 125, BANDA MAILARAM VILLAGE",Hyderabad,Telangana,India,,,,,,,,,,,,,,,,,,
K-LITE LAB,"G8, AMBATTUR INDUSTRIAL ESTATE",Chennai,Tamil Nadu,India,,,,,,,,,,,,,,,,,,
"KPML LOW VOLTAGE ROTATING MACHINE AND HYDRAULIC LABORATORY, KARAD PROJECTS AND MOTORS LIMITED","PLOT NO. B-67/ 68, KARAD INDUSTRIAL AREA, TASAWADE MIDC",Karad,Maharashtra,India,,,,,,,,,,,,,,,,,,
KRYFS POWER COMPONENTS LTD,"SURVEY NO.211/1, KHERDI VILLAGE",Silvassa,Dadra and Nagar Haveli,India,,,,,,,,,,,,,,,,,,
KSE ELECTRICALS PRIVATE LIMITED (TESTING LABORATORY),"JALAN INDUSTRIAL COMPLEX, 3RD MAIN ROAD, 4TH LEFT LANE,NH-6, BOMBAY HIWAY. PO.O BEGRI, HOWRAH, WEST BENGAL",Howrah,West Bengal,India,,,,,,,,,,,,,,,,,,
LAB DIVISION - ASHOKA CABLES PRIVATE LIMITED,"KHASRA NO. 250/3, RIICO ROAD, SKS INDUSTRIAL AREA, PARASRAMPURA HALKA SARGOTH",Ringas,Rajasthan,India,,,,,,,,,,,,,,,,,,
LAB DIVISION- INSUCON CABLES AND CONDUCTORS PRIVATE LIMITED,"BINDAYAKA INDUSTRIAL AREA, F 61-63, ROAD NO.5A",Jaipur,Rajasthan,India,,,,,,,,,,,,,,,,,,
"LABORATORIES OF HINDALCO INDUSTRIES LIMITED, UNIT: BIRLA COPPER","PO: DAHEJ, TA: VAGRA",Bharuch,Gujarat,India,,,,,,,,,,,,,,,,,,
LABORATORY DIVISION - HEPTACARE POWER INDUSTRIES PRIVATE LIMITED,"A-9/ A10, UDYOG PURAM PARTAPUR",Meerut,Uttar Pradesh,India,,,,,,,,,,,,,,,,,,
"LABORATORY DIVISION, LKB ENGINEERING PRIVATE LIMITED","E-418 TO E-421, RIICO INDUSTRIAL AREA, CHOPANKI, BHIWADI",Alwar,Rajasthan,India,,,,,,,,,,,,,,,,,,
"LAHARI - ADVANCED ELECTRONICS TEST FACILITY, MYSORE ESDM CLUSTER","PLOT 336/4 & 336/5, HEBBAL INDUSTRIAL AREA, HEBBAL",Mysuru,Karnataka,India,,,,,,,,,,,,,,,,,,
LAPP CABLE AND MATERIAL TESTING LABORATORY (LCMTL),"PLOT NO. 98, J&K, JIGANI INDUSTRIAL AREA, PHASE II, BANGALORE SOUTH",Bengaluru,Karnataka,India,,,,,,,,,,,,,,,,,,
"LAURITZ KNUDSEN SWITCHGEAR TESTING LABORATORIES, MSW, SEIPL","A 600, ELECTRICAL AND AUTOMATION CAMPUS, SHILL MAHAPE ROAD, TTC INDUSTRIAL AREA, MIDC",Navi Mumbai,Maharashtra,India,,,,,,,,,,,,,,,,,,
"LBI (LAB INDIA), SOCOMEC INDIA PRIVATE LIMITED","PLOT NO. 756, PACE CITY-II, SECTOR-37",Gurgaon,Haryana,India,,,,,,,,,,,,,,,,,,
LEGION ENERGY PRODUCTS PRIVATE LIMITED - LABORATORY DIVISION,"PLOT NO. 61, 62 & 63, OBADENAHALLI INDUSTRIAL AREA",Bengaluru,Karnataka,India,,,,,,,,,,,,,,,,,,
LG REFRIGERATOR TESTING LABORATORY,"GROUND FLOOR & FOURTH FLOOR, WEGMANS BUSINESS PARK, IT TOWER-1, PLOT NO.3, KNOWLEDGE PARK III",Greater Noida,Uttar Pradesh,India,,,,,,,,,,,,,,,,,,
LHP ROTATING MACHINE TESTING LABORATORY,"B11-B16, CHINCHOLI MIDC",Solapur,Maharashtra,India,,,,,,,,,,,,,,,,,,
"LIEBHERR PA LAB, LIEBHERR APPLIANCES INDIA PVT. LTD.",A-1/6 SHENDRA MIDC,Aurangabad,Maharashtra,India,,,,,,,,,,,,,,,,,,
LIGHTHOUSE TEST LABORATORY,"A-89, Basement, SECTOR-65, GAUTAM BUDDHA NAGAR",Noida,Uttar Pradesh,India,,,,,,,,,,,,,,,,,,
LIGHTING TECHNOLOGIES-TECHNOLOGY LAB,"NO.40, JIGANI INDUSTRIAL AREA, 1ST PHASE, SY .NO.592 & 124, JIGANI VILLAGE & HOBLI, ANEKAL TALUK",Bengaluru,Karnataka,India,,,,,,,,,,,,,,,,,,
LOKENATH INDUSTRIES GE MOTORS (OPC) PRIVATE LIMITED,"BAMUNARI, TRMR PROJECT SIDE, DANKUNI, RISHRA",Howrah,West Bengal,India,,,,,,,,,,,,,,,,,,
LS CABLE INDIA PVT LTD (LAB DIVISION),"PLOT NO 28-31, SECTOR-5, HSIIDC, BAWAL",Rewari,Haryana,India,,,,,,,,,,,,,,,,,,
LUCID LABORATORIES PVT LTD,"PLOT NO.3, IDA, BALANAGAR",Hyderabad,Telangana,India,,,,,,,,,,,,,,,,,,
LUKER - TESTING LABORATORY,"54, KRISHNARAYAPURAM THOTTASALAI",Coimbatore,Tamil Nadu,India,,,,,,,,,,,,,,,,,,
LUMINO INDUSTRIES LIMITED (TESTING LABORATORY),"BIPRANNAPARA, JALAN COMPLEX GATE NO-1",Howrah,West Bengal,India,,,,,,,,,,,,,,,,,,
"LV IEC MOTORS TESTING LAB, ABB INDIA LIMITED","LV MOTORS, PLOT NO 5 & 6, PEENYA INDUSTRIAL AREA, 2ND PHASE, PEENYA",Bengaluru,Karnataka,India,,,,,,,,,,,,,,,,,,
MAEON LABORATORIES LLP,"NO 14, LAKSHMIKANTHAMMAL 1ST STREET,RAJIV NAGAR, VANAGARAM",Chennai,Tamil Nadu,India,,,,,,,,,,,,,,,,,,
MAGNA AUTOMOTIVE INDIA PVT. LTD.,"PLOT NO:7B, 8TH AVENUE, 1ST CROSS ROAD",Chengalpattu,Tamil Nadu,India,,,,,,,,,,,,,,,,,,
MAHATI ELECTRICAL TESTING LABORATORY (UNIT OF MAHATI INDUSTRIES PVT. LTD.),"GAT NO. 233 & 175-2, NH-9, PUNE-SOLAPUR ROAD, A/P YEWAT, TAL. DAUND",Pune,Maharashtra,India,,,,,,,,,,,,,,,,,,
"MAHINDRA RESEARCH VALLEY (MRV) TESTING LABORATORIES, MAHINDRA & MAHINDRA LTD.","PLOT NO: 41/1, ANJUR PO",Chengalpattu,Tamil Nadu,India,,,,,,,,,,,,,,,,,,
MAHINDRA TEQO PRIVATE LIMITED - MOBILE PV LAB,"MAHINDRA TOWERS, PANDURANG BHUDHKAR MARG, WORLI",Mumbai,Maharashtra,India,,,,,,,,,,,,,,,,,,
MANGAL ELECTRICAL INDUSTRIES PRIVATE LIMITED,"E-40 TO E46 & E46A, SHREE KHATU SHYAM JI INDUSTRIAL AREA",Ringas,Rajasthan,India,,,,,,,,,,,,,,,,,,
MARELLI MOTHERSON AUTOMOTIVE LIGHTING INDIA PVT. LTD.,"GAT NO. 148-150, VILLAGE AMBETHAN",Pune,Maharashtra,India,,,,,,,,,,,,,,,,,,
MARQUIS TECHNOLOGIES PRIVATE LIMITED,"A - 43, SECTOR 67",Noida,Uttar Pradesh,India,,,,,,,,,,,,,,,,,,
MARSONS LIMITED (TESTING LABORATORY),"15-151, BUDGE BUDGE TRUNK ROAD, CHAKMIR",Kolkata,West Bengal,India,,,,,,,,,,,,,,,,,,
MATERIAL TESTING LABORATORY,BHARAT HEAVY ELECTRICALS LTD.,Jhansi,Uttar Pradesh,India,,,,,,,,,,,,,,,,,,
MATRIX METERS Q.A. LAB,"PLOT-409, UK-II, ECOTECH-III",Greater Noida,Uttar Pradesh,India,,,,,,,,,,,,,,,,,,
"MATS LAB , MAHLE ANAND THERMAL SYSTEMS PRIVATE LIMITED","GAT NO. 626/1/2 & 622/1/0, 29, MILESTONE, PUNE NASHIK HIGHWAY, VILLAGE - KURULI",Pune,Maharashtra,India,,,,,,,,,,,,,,,,,,
MAXWELL INDIA,"F-946 (D), ROAD NO.-14, VISHWAKARMA INDUSTRIAL AREA",Jaipur,Rajasthan,India,,,,,,,,,,,,,,,,,,
MEGHA POWER SOLUTIONS,"GROUND FLOOR,SAI GANESH BLDG, THANE",Kalyan,Maharashtra,India,,,,,,,,,,,,,,,,,,
"METER LAB, TP AJMER DISTRIBUTION LIMITED","PARBATPURA POWER HOUSE, RIICO INDUSTRIAL AREA, PARBATPURA",Ajmer,Rajasthan,India,,,,,,,,,,,,,,,,,,
"METER MANAGEMENT GROUP LABORATORY, TATA POWER DELHI DISTRIBUTION LIMITED","LAWRENCE ROAD, KESHAVPURAM",New Delhi,Delhi,India,,,,,,,,,,,,,,,,,,
METER TESTING AND CALIBRATION LABORATORY,"THE TATA POWER COMPANY LIMITED, DHARAVI RECEIVING STATION, MATUNGA",Mumbai,Maharashtra,India,,,,,,,,,,,,,,,,,,
METER TESTING LABORATORY,TP SOUTHERN ODISHA DISTRIBUTION LIMITED (TPSODL),Brahmapur,Odisha,India,,,,,,,,,,,,,,,,,,
METER TESTING LABORATORY- TMR SHORANUR,"TMR DIVISION, KSEB, KALLIPPADOM, SHORANUR",Palakkad,Kerala,India,,,,,,,,,,,,,,,,,,
"METER TESTING LABORATORY TPWODL, BALANGIR",PALACE LINE,Balangir,Odisha,India,,,,,,,,,,,,,,,,,,
"METER TESTING LABORATORY TPWODL, RAJGANGPUR",WESCO COLONY,Raj Gangpur,Odisha,India,,,,,,,,,,,,,,,,,,
METER TESTING LABORATORY UHBVN,"132 KV POWER HOUSE COLONY, JIND ROAD",Kaithal,Haryana,India,,,,,,,,,,,,,,,,,,
METER TESTING LABORATORY UHBVN YAMUNANAGAR,PATEL NAGAR,Yamunanagar,Haryana,India,,,,,,,,,,,,,,,,,,
"METER TESTING LABORATORY, DADRA AND NAGAR HAVELI AND DAMAN AND DIU POWER DISTRIBUTION CORPORATION LIMITED",AMLI,Silvassa,Dadra and Nagar Haveli,India,,,,,,,,,,,,,,,,,,
"METER TESTING LABORATORY, DHBVN","SARHAUL MORE, SECTOR 18",Gurgaon,Haryana,India,,,,,,,,,,,,,,,,,,
"METER TESTING LABORATORY, ISKRAEMECO INDIA PVT. LTD","PLOT NO. 2, KONGARA KALAN, RANGAREDDY",Hyderabad,Telangana,India,,,,,,,,,,,,,,,,,,
"METER TESTING LABORATORY, RRVPNL","132 KV GSS CHAMBAL PREMISES, HAWA SADAK, CIVIL LINES, SODALA",Jaipur,Rajasthan,India,,,,,,,,,,,,,,,,,,
"METER TESTING LABORATORY, RRVPNL, UDAIPUR","132 KV GSS PREMISES, PRATAPNAGAR",Udaipur,Rajasthan,India,,,,,,,,,,,,,,,,,,
"METER TESTING LABORATORY, TATA POWER DELHI DISTRIBUTION LIMITED","4/13, SUBSTATION BUILDING, SECTOR-13, ROHINI, DISTRICT-NORTH WEST",New Delhi,Delhi,India,,,,,,,,,,,,,,,,,,
"METER TESTING LABORATORY, TMR DIVISION, ANGAMALY","KERALA STATE ELECTRICITY BOARD LTD, ANGAMALY SOUTH P.O.",Ernakulam,Kerala,India,,,,,,,,,,,,,,,,,,
"METER TESTING LABORATORY, TMR KANNUR","MANGATTUPARAMBA, KANNUR UNIVERSITY P. O",Kannur,Kerala,India,,,,,,,,,,,,,,,,,,
"METER TESTING LABORATORY, TORRENT POWER LIMITED","NARANPURA ZONAL OFFICE PREMISES, SOLA ROAD",Ahmedabad,Gujarat,India,,,,,,,,,,,,,,,,,,
"METER TESTING LABORATORY, TORRENT POWER LIMITED","PATEL BUILDING, GROUND FLOOR, OSWAL WADI, OLD AGRA ROAD",Bhiwandi,Maharashtra,India,,,,,,,,,,,,,,,,,,
"METER TESTING LABORATORY, TORRENT POWER LIMITED","Vastadevdi Station, Vastadevdi Road, Katargam",Surat,Gujarat,India,,,,,,,,,,,,,,,,,,
"METER TESTING LABORATORY, TPWODL",BURLA,Sambalpur,Odisha,India,,,,,,,,,,,,,,,,,,
"METER TESTING LABORATORY, UHBVN","POWER HOUSE COMPLEX, DHULKOTE",Ambala,Haryana,India,,,,,,,,,,,,,,,,,,
"METER TESTING LABORATORY, UHBVN","POWER HOUSE COMPLEX, KUNJPURA ROAD",Karnal,Haryana,India,,,,,,,,,,,,,,,,,,
"METER TESTING LABORATORY, UHBVN, ROHTAK",OLD POWER HOUSE COLONY,Rohtak,Haryana,India,,,,,,,,,,,,,,,,,,
"METER TESTING LABORATORY, UPCL",PHOOLCHOR,Haldwani,Uttarakhand,India,,,,,,,,,,,,,,,,,,
"METROLOGICAL LABORATORY, GENUS POWER INFRASTRUCTURES LIMITED","UNIT 2, PLOT NO. 104, BRAHMAPUTRA INDUSTRIAL PARK, AMINGAON",Guwahati,Assam,India,,,,,,,,,,,,,,,,,,
MFR ELECTRONICS TEST LABORATORY,"UNIT NO 40, SDF II, SEEPZ (SEZ) ANDHERI (EAST)",Mumbai,Maharashtra,India,,,,,,,,,,,,,,,,,,
MGVCL HI-TECH LABORATORY,66 KV VIDYUT NAGAR S/S COMPOUND O P ROAD,Vadodara,Gujarat,India,,,,,,,,,,,,,,,,,,
"MICRO, SMALL & MEDIUM ENTERPRISES - TESTING CENTRE","111 & 112, B. T. ROAD",Kolkata,West Bengal,India,,,,,,,,,,,,,,,,,,
MICROLAB,"D25, AMBATTUR INDUSTRIAL ESTATE",Chennai,Tamil Nadu,India,,,,,,,,,,,,,,,,,,
MILESTONE ENGINEERING SERVICES,"PLOT NO. 1, 2, CHHATRAL INDUSTRIAL ESTATE, CHHATRAL-PANSAR ROAD, VADAVSVAMI VILLAGE",Gandhinagar,Gujarat,India,,,,,,,,,,,,,,,,,,
MITSUI CHEMICALS INDIA PRIVATE LIMITED.(SOLAR PV LAB),"PLOT NO. 5 AND 6, SWASTIK INDUSTRIAL ESTATE, VILL.SARI, TAL.SANAND",Ahmedabad,Gujarat,India,,,,,,,,,,,,,,,,,,
MODERN INSULATORS TESTING LAB,"TALHATI, VILLAGE- KAROLI",Abu Road,Rajasthan,India,,,,,,,,,,,,,,,,,,
MODERN MALLEABLES LIMITED (LABORATORY SERVICES),"75/5, RABINDRA SARANI, LILUAH",Howrah,West Bengal,India,,,,,,,,,,,,,,,,,,
MODERN TESTING SERVICES (INDIA) PVT. LTD,"A-95 ,SECTOR 58, NOIDA",Noida,Uttar Pradesh,India,,,,,,,,,,,,,,,,,,
"MODULE RELIABILITY LABORATORY, MUNDRA SOLAR ENERGY LIMITED",MUNDRA SOLAR TECHNOPARK PRIVATE LIMITED ELECTRONICS MANUFACTURING CLUSTER EMC SURVEY NO. 180P VILLAGE: VANDH & TUNDAADANI PORTS AND SPECIAL ECONOMIC ZONE,Mundra,Gujarat,India,,,,,,,,,,,,,,,,,,
"MOSDORFER INDIA PVT LTD., QUALITY AND TESTING LABORATORY","GAT NO. 196/1 & 2, GONDE DUMALA, GONDE MIDC, TALUKA IGATPURI",Nashik,Maharashtra,India,,,,,,,,,,,,,,,,,,
"MPS ELECTRICAL TEST LABORATORY, SCHNEIDER ELECTRIC INDIA PRIVATE LIMITED","MYSORE CAMPUS, KIADB INDUSTRIAL AREA, HEBBAL, HOOTAGALLI",Mysuru,Karnataka,India,,,,,,,,,,,,,,,,,,
MRT RESEARCH INSTITUTE PRIVATE LIMITED,"TERI GRAM, GWAL PAHARI, P.O SAMSATHIPUR, GURGAON-FARIDABAD ROAD",Gurgaon,Haryana,India,,,,,,,,,,,,,,,,,,
MSEDCL TESTING AND QUALITY ASSURANCE LABORATORY,"PLOT NO. AM-8, SUBSTATION NO.2, ROAD NO. 16A, AMBIKA NAGAR, WAGLE ESTATE",Thane,Maharashtra,India,,,,,,,,,,,,,,,,,,
MSME TESTING CENTRE,"KURLA - ANDHERI ROAD, SAKINAKA",Mumbai,Maharashtra,India,,,,,,,,,,,,,,,,,,
MSME TESTING CENTRE,"65/1, G.S.T ROAD, GUINDY",Chennai,Tamil Nadu,India,,,,,,,,,,,,,,,,,,
MURLITEK TECHNOLOGY LLP,"179, KAMI ROAD",Sonipat,Haryana,India,,,,,,,,,,,,,,,,,,
NAMAH TESTING & RESEARCH INSTITUTE LLP,"NH-91, G.T. ROAD",Khurja,Uttar Pradesh,India,,,,,,,,,,,,,,,,,,
NASHIK ENGINEERING CLUSTER,"""SAHASTRARASHMI"", C-10, MIDC, AMBAD",Nashik,Maharashtra,India,,,,,,,,,,,,,,,,,,
NATIONAL AUTOMOTIVE TEST TRACKS (NATRAX),"AGRA-MUMBAI HIGHWAY (NH-52), POST-KHANDWA",Dhar,Madhya Pradesh,India,,,,,,,,,,,,,,,,,,
"NATIONAL CENTRE FOR AUTOMOTIVE TESTING (NCAT), VEHICLES RESEARCH AND DEVELOPMENT ESTABLISHMENT (VRDE)","MINISTRY OF DEFENCE, DEFENCE RESEARCH AND DEVELOPMENT ORGANISATION, VAHANNAGAR",Ahmednagar,Maharashtra,India,,,,,,,,,,,,,,,,,,
NATIONAL HIGH POWER TEST LABORATORY PVT. LTD.,"POWERGRID COMPLEX, 765/400KV S/S, KHIMLASA ROAD",Bina-Etawa,Madhya Pradesh,India,,,,,,,,,,,,,,,,,,
NATIONAL RESEARCH AND TECHNOLOGY CONSORTIUM (C-ACT),"DEPARTMENT OF INDUSTRIES COMPLEX, SECTOR-1",Parwanoo,Himachal Pradesh,India,,,,,,,,,,,,,,,,,,
NATIONAL TEST HOUSE (EASTERN REGION),"BLOCK CP, SECTOR V, SALT LAKE",Kolkata,West Bengal,India,,,,,,,,,,,,,,,,,,
NATIONAL TEST HOUSE (EASTERN REGION),"11/1, JUDGES COURT ROAD, ALIPORE",Kolkata,West Bengal,India,,,,,,,,,,,,,,,,,,
NATIONAL TEST HOUSE (NR),KAMLA NEHRU NAGAR,Ghaziabad,Uttar Pradesh,India,,,,,,,,,,,,,,,,,,
NATIONAL TEST HOUSE (SR),"CSIR ROAD, TARAMANI",Chennai,Tamil Nadu,India,,,,,,,,,,,,,,,,,,
NATIONAL TEST HOUSE (WR),"PLOT NO. F-10, MIDC, MAROL, ANDHERI (EAST)",Mumbai,Maharashtra,India,,,,,,,,,,,,,,,,,,
NEMKO INDIA (TEST LAB) PRIVATE LIMITED,"PLOT NO. 193, SECTOR 68, IMT FARIDABAD",Faridabad,Haryana,India,,,,,,,,,,,,,,,,,,
NEWLECTRIC INNOVATION PRIVATE LIMITED METERING LAB,"PLOT NO. 22, IP-IV, BEGUMPUR INDUSTRIAL AREA, BAHADARABAD",Haridwar,Uttarakhand,India,,,,,,,,,,,,,,,,,,
NEXGEN QA LAB,"F-38, IT-PARK, MEWAR INDUSTRIAL AREA - EXTENSION, MADRI",Udaipur,Rajasthan,India,,,,,,,,,,,,,,,,,,
NEXTRON INTERNATIONAL LAB PRIVATE LIMITED,"G-45, POCKET-C, SECTOR-4, BAWANA",New Delhi,Delhi,India,,,,,,,,,,,,,,,,,,
"NICCO CABLES PRIVATE LIMITED, TESTING LABORATORY","SHYAMNAGAR UNIT, 71 EAST GHOSH PARA ROAD",Barrackpore,West Bengal,India,,,,,,,,,,,,,,,,,,
NIIRT CALIBRATION AND TESTING PRIVATE LIMITED,"PLOT NO. 306, INDUSTRIAL AREA, PHASE 1",Panchkula,Haryana,India,,,,,,,,,,,,,,,,,,
NIRMAL POWER SERVICES PRIVATE LIMITED,"SHOP NO. 109/110, WING 1, EKDANT APARTMENT, GANESH NAGRI, KORADI ROAD, BOKHARA",Koradi,Maharashtra,India,,,,,,,,,,,,,,,,,,
"NSIC-TECHNICAL SERVICES CENTRE, THE NATIONAL SMALL INDUSTRIES CORPORATION LIMITED (A GOVT. OF INDIA ENTERPRISE)","AJI INDUSTRIAL AREA, BHAVNAGAR ROAD",Rajkot,Gujarat,India,,,,,,,,,,,,,,,,,,
NUCON AEROSPACE PRIVATE LIMITED (ENVIRONMENTAL TESTING LABORATORY),"SURVEY NO. 523, PLOT NO.1/1 & 1/2 NADERGUL, SAROOR NAGAR, INDL. PARK, NADERGUL (V)",Hyderabad,Telangana,India,,,,,,,,,,,,,,,,,,
O/E/N INDIA LIMITED-LAB,"ELECTROGIRI, MULANTHURUTHY",Ernakulam,Kerala,India,,,,,,,,,,,,,,,,,,
OASYS CYBERNETICS PRIVATE LIMITED,"TRICHY-THURAIYUR MAIN ROAD, PULIVALAM VILLAGE, MUSIRI TALUK",Thiruchirapalli,Tamil Nadu,India,,,,,,,,,,,,,,,,,,
"OFC TESTING LAB, POLYCAB INDIA LIMITED","PLOT NO. 13, 15, 16A, 16B, HALOL VADODARA ROAD",Halol,Gujarat,India,,,,,,,,,,,,,,,,,,
"OFC TESTING LABORATORY, BIRLA CABLE LIMITED, UDYOG VIHAR, P.O. CHORHATA,
REWA, MADHYA PRADESH, INDIA","UDYOG VIHAR, P.O. CHORHATA",Rewa,Madhya Pradesh,India,,,,,,,,,,,,,,,,,,
"OFC UNIT - TESTING LABORATORY, VINDHYA TELELINKS LIMITED","PLOT NO. 1C & 1D, UDYOG VIHAR",Rewa,Madhya Pradesh,India,,,,,,,,,,,,,,,,,,
OIL AND DIAGNOSTIC TESTING LABORATORY,"ODTL 220 KV SUBSTATION, FEROZPUR ROAD, BRS NAGAR",Ludhiana,Punjab,India,,,,,,,,,,,,,,,,,,
OLG'S TEST LABS,"ONLOAD GEARS PRIVATE LIMITED (UNIT 1), NO 338 SIDCO ESTATE, AMBATTUR",Chennai,Tamil Nadu,India,,,,,,,,,,,,,,,,,,
OORJA TECHNICAL SERVICES PRIVATE LIMITED,"501-503, 520 BLOCK MS1-A NEW SIYAGANJ",Indore,Madhya Pradesh,India,,,,,,,,,,,,,,,,,,
ORIENT ELECTRICAL TESTING LABORATORY,"D-209, SECTOR-63",Noida,Uttar Pradesh,India,,,,,,,,,,,,,,,,,,
"ORIENT ELECTRICAL TESTING LABORATORY, INNOVATION CENTRE","PLOT NO. 11, MATHURA ROAD, SECTOR 6",Faridabad,Haryana,India,,,,,,,,,,,,,,,,,,
"ORIENTAL ELECTRICAL COMPONENTS PRIVATE LIMITED, TESTING LABORATORY","GANESH NAGAR, PLOT NO.75 A/B, GOVERNMENT INDUSTRIAL AREA, CHARKOP, KANDIVALI WEST",Mumbai,Maharashtra,India,,,,,,,,,,,,,,,,,,
ORIENTAL ELECTROTECH PRIVATE LIMITED,"PLOT NO. C-124C, ROAD NO. 9A, VISHWAKARMA INDUSTRIAL AREA",Jaipur,Rajasthan,India,,,,,,,,,,,,,,,,,,
PASPL-ESS LAB,"GF - PLOT 18, KIADB HI TECH DEFENSE AND AEROSPACE PARK (HARDWARE SECTOR), MAHADEVAKODIGEHALLI VILLAGE",Bengaluru,Karnataka,India,,,,,,,,,,,,,,,,,,
"PERFORMANCE & SAFETY LAB, DIXON TECHNOLOGIES (INDIA) LIMITED","PLOT NO. C-2/1, SELAQUI INDUSTRIAL AREA",Dehradun,Uttarakhand,India,,,,,,,,,,,,,,,,,,
PERFORMANCE TESTING LAB - VOLTBEK HOME APPLIANCES PRIVATE LIMITED,"PLOT NO. SM/12+SM/51/1/2, SANAND-II INDUSTRIAL ESTATE",Sanand,Gujarat,India,,,,,,,,,,,,,,,,,,
"PERFORMANCE TESTING LABORATORY, GEMCARE APPLIANCES PRIVATE LIMITED","SURVEY NO. 285, 286, 287, 288",Halol,Gujarat,India,,,,,,,,,,,,,,,,,,
"PERMALI WALLACE PRIVATE LIMITED, TESTING LABORATORY",HOSHANGABAD ROAD,Bhopal,Madhya Pradesh,India,,,,,,,,,,,,,,,,,,
PGVCL METER HI-TECH LABORATORY,"PASCHIM GUJARAT VIJ CO. LTD., DUDHSAGAR ROAD",Rajkot,Gujarat,India,,,,,,,,,,,,,,,,,,
PHOENIX CONTACT (INDIA) PVT. LTD,A 58/2 OKHLA INDUSTRIAL AREA PHASE 2,New Delhi,Delhi,India,,,,,,,,,,,,,,,,,,
PHOTOVOLTAIC LABORATORY - RENEWSYS INDIA PVT. LTD.,"PLOT NO. 21,22 & 23. BOMMASANDRA JIGANI LINK ROAD, INDUSTRIAL AREA",Bengaluru,Karnataka,India,,,,,,,,,,,,,,,,,,
"PHOTOVOLTAIC TESTING LABORATORY, NAVITAS ALPHA RENEWABLES PRIVATE LIMITED","PLOT NO. B-20/1, ROAD NO. 14, HOZIWALA INDUSTRIAL ESTATE, TA- CHORASI",Surat,Gujarat,India,,,,,,,,,,,,,,,,,,
"PIRANA MATERIAL TESTING LABORATORY, TORRENT POWER LIMITED","132 kV PIRANA SUBSTATION, OLD PIRANA OCTROI NAKA, NAROL-SARKEJ ROAD",Ahmedabad,Gujarat,India,,,,,,,,,,,,,,,,,,
PLANET ELECTRO LABS PRIVATE LIMITED,"WZ-407/B-1, BASAI DARAPUR",New Delhi,Delhi,India,,,,,,,,,,,,,,,,,,
"PLASTIC TESTING CENTRE, CENTRAL INSTITUTE OF PETROCHEMICALS ENGINEERING AND TECHNOLOGY (CIPET)","G SECTOR, J. K. ROAD, GOVINDPURA INDUSTRIAL AREA",Bhopal,Madhya Pradesh,India,,,,,,,,,,,,,,,,,,
"PLASTICS TESTING CENTRE, CENTRAL INSTITUTE OF PETROCHEMICALS ENGINEERING & TECHNOLOGY","TVK INDUSTRIAL AREA, GUINDY",Chennai,Tamil Nadu,India,,,,,,,,,,,,,,,,,,
POLARIS SMART METERING LAB,"F-789 A, ROAD NO. 13, VKI AREA",Jaipur,Rajasthan,India,,,,,,,,,,,,,,,,,,
"POLYMER TESTING LABORATORY, CIPET:SARP-APDDRL","PLOT NO.- 7P, HI TECH DEFENCE & AEROSPACE PARK (IT SECTOR)",Bengaluru,Karnataka,India,,,,,,,,,,,,,,,,,,
"POWER BUSBAR TESTING LABORATORY, C&S ELECTRIC LIMITED","INTEGRATED INDUSTRIAL ESTATE, PLOT NO. 1C, SECTOR-8C, SIDCUL, RANIPUR",Haridwar,Uttarakhand,India,,,,,,,,,,,,,,,,,,
"POWER CABLE TEST LABORATORY, POLYCAB INDIA LIMITED","67-72, 75-76, 102-106, 116/2, VILLAGE NURPURA",Halol,Gujarat,India,,,,,,,,,,,,,,,,,,
"POWER CABLE TEST LABORATORY, POLYCAB INDIA LIMITED","RS. NO. 12P2, 13,15,16/A, 16/B, 17,18,19, 20P1,20P2, 21 TO 25, 26A, 26B, 30 TO 33, 34/1, 34/2, 34/3, 34/4, 65, 109, VILLAGE-RAMPURA & NOORPURA",Halol,Gujarat,India,,,,,,,,,,,,,,,,,,
POWER ELECTRONICAL - TRANSFORMER OIL TESTING LABORATORY,"D-24, CLASSIC INDUSTRIAL PREMISES",Nashik,Maharashtra,India,,,,,,,,,,,,,,,,,,
"POWER TRANSFORMER FACTORY - 2 TESTING LABORATORY, HITACHI ENERGY INDIA LIMITED","MANEJA WORKS, MANEJA",Vadodara,Gujarat,India,,,,,,,,,,,,,,,,,,
"POWER TRANSFORMER TESTING LABORATORIES, TRANSFORMERS & RECTIFIERS (INDIA) LTD","SURVEY NO. 427P/3-4 & 431P/1-2, SARKHEJ BAVLA HIGHWAY, POST:MORAIYA, TAL:SANAND",Ahmedabad,Gujarat,India,,,,,,,,,,,,,,,,,,
"POWERGRID ADVANCED RESEARCH AND TECHNOLOGY CENTRE (PARTEC), POWER GRID CORPORATION OF INDIA LIMITED","POWERGRID MANESAR COMPLEX, GWALIOR VILLAGE, PANCHGAON PO, TAORU ROAD, MANESAR",Gurgaon,Haryana,India,,,,,,,,,,,,,,,,,,
POWERONIC TEST & RESEARCH CENTRE PRIVATE LIMITED,"B-2/4, SITE-B, FIRST FLOOR, UPSIDC, SURAJPUR INDUSTRIAL AREA",Greater Noida,Uttar Pradesh,India,,,,,,,,,,,,,,,,,,
PREMIER EVOLVICS PRIVATE LIMITED - TESTING LABORATORY,"SF NO. 79/6, KULATHUR ROAD",Coimbatore,Tamil Nadu,India,,,,,,,,,,,,,,,,,,
PRICOL ENGINEERING INDUSTRIES PRIVATE LIMITED (Testing Laboratory),"SF.NO.455/1B, 455/2B, POOCHIYUR, NARASHIMANAICKEN PALAYAM",Coimbatore,Tamil Nadu,India,,,,,,,,,,,,,,,,,,
PRODUCT EVALUATION LABORATORY,"PANASONIC LIFE SOLUTIONS INDIA PRIVATE LIMITED, UNIT-IV, 41/3, SILVER INDUSTRIAL ESTATE, PATALIA ROAD, BHIMPORE",Daman,Daman and Diu,India,,,,,,,,,,,,,,,,,,
PRODUCT RELIABILITY ASSURANCE LAB PRICOL LIMITED PLANT-1,"132, METTUPALAYAM (OOTY) MAIN ROAD",Coimbatore,Tamil Nadu,India,,,,,,,,,,,,,,,,,,
"PRODUCT TESTING LABORATORY, CENTRAL INSTITUTE OF PETROCHEMICALS ENGINEERING & TECHNOLOGY(CIPET)","UNIT OF CIPET:CSTS MADURAI, SIDCO INDUSTRIAL ESTATE,  K. PUDUR",Madurai,Tamil Nadu,India,,,,,,,,,,,,,,,,,,
"PRODUCT TESTING LABORATORY, EXIDE INDUSTRIES LIMITED","SURVEY NO. 246, CHICHURAKANAPALLI, SEVAKANAPALLI PANCHAYATH, HOSUR TALUK",Hosur,Tamil Nadu,India,,,,,,,,,,,,,,,,,,
"PRODUCT TESTING LABORATORY, LG ELECTRONICS INDIA LIMITED","A-5, MIDC RANJANGAON",Shirur,Maharashtra,India,,,,,,,,,,,,,,,,,,
"PRODUCT TESTING LABORATORY, LG ELECTRONICS INDIA LTD. NOIDA, GREATER NOIDA","PLOT NO. 51, UDYOG VIHAR, SURAJPUR KASNA ROAD",Greater Noida,Uttar Pradesh,India,,,,,,,,,,,,,,,,,,
"PRODUCTION ENVIRONMENTAL TEST FACILITY (PETF), DETT, RESEARCH CENTRE IMARAT (RCI), DRDO","PRODUCTION ENVIRONMENTAL TESTING FACILITY (PETF), BUILDING NO: 0412, DETT, RESEARCH CENTRE IMARAT (RCI)",Hyderabad,Telangana,India,,,,,,,,,,,,,,,,,,
"PROTECTION AND METERING LABORATORY, ADANI POWER LIMITED","MUNDRA THERMAL POWER PLANT, VILLAGE: TUNDA AND SIRACHA, TALUKA: MUNDRA",Kutch,Gujarat,India,,,,,,,,,,,,,,,,,,
"PUMP TEST LAB, KSB LIMITED","Plot No. E-3 & E-4, Malegaon MIDC, Sinnar",Nashik,Maharashtra,India,,,,,,,,,,,,,,,,,,
"PUMP TESTING CENTRE, PUNJAB AGRICULTURAL UNIVERSITY",DEPARTMENT OF SOIL AND WATER ENGINEERING,Ludhiana,Punjab,India,,,,,,,,,,,,,,,,,,
PUMP TESTING LAB,"DEPARTMENT OF MECHANICAL ENGINEERING, GURU NANAK DEV ENGINEERING COLLEGE, GILL ROAD, GILL PARK",Ludhiana,Punjab,India,,,,,,,,,,,,,,,,,,
PURNIMA SOLAR TECHNOLOGIES PRIVATE LIMITED,"PLOT NO. 18, 1ST FLOOR, SECTOR 140A",Noida,Uttar Pradesh,India,,,,,,,,,,,,,,,,,,
PV MODULE TEST LAB - RENSERV GLOBAL PRIVATE LIMITED,"1ST & 2ND FLOOR, MANGAL TOWER, ADARSH NAGAR, GAURAV PATH, SECTOR-2, NAGAUR ROAD",Phalodi,Rajasthan,India,,,,,,,,,,,,,,,,,,
"PV MODULE TEST LABORATORY(PMTL), WAAREE ENERGIES LIMITED","SURVEY NO. 1934,1939,1941,1942, NH-48, DEGAM, CHIKHLI",Navsari,Gujarat,India,,,,,,,,,,,,,,,,,,
"PVC-LAB, MICROTEK INTERNATIONAL PRIVATE LIMITED","PLOT NO. 12, SECTOR 2, SOLAN",Parwanoo,Himachal Pradesh,India,,,,,,,,,,,,,,,,,,
"Q. A. LAB, ALLIED ENGINEERING WORKS LIMITED","M-11, BADLI INDUSTRIAL ESTATE, NORTH WEST",New Delhi,Delhi,India,,,,,,,,,,,,,,,,,,
"Q.A LAB, EPPELTONE ENGINEERS LTD.","G-91, SITE - V, UPSIDC, SURAJPUR",Greater Noida,Uttar Pradesh,India,,,,,,,,,,,,,,,,,,
"Q.A. LAB, AVON METERS PVT. LTD.","D-15-16-17, INDUSTRIAL FOCAL POINT",Dera Bassi,Punjab,India,,,,,,,,,,,,,,,,,,
"Q.A. LAB, BENTEC INDIA LIMITED","150, UPEN BANERJEE ROAD",Kolkata,West Bengal,India,,,,,,,,,,,,,,,,,,
"Q.A. LAB, BENTEC INDIA LIMITED","PLOT NO. 76, SECTOR 68, INDUSTRIAL MODEL TOWNSHIP",Faridabad,Haryana,India,,,,,,,,,,,,,,,,,,
"Q.A. LAB, FLASH ELECTRONICS (INDIA) PRIVATE LIMITED","PLOT NO. 3, 1ST FLOOR (ADMINISTRATIVE BLOCK), SECTOR-27B",Faridabad,Haryana,India,,,,,,,,,,,,,,,,,,
"Q.A. LAB, HOLLEY METERS INDIA LLP","VILLAGE-SAIDPURA, DERABASSI - BARWALA ROAD",Dera Bassi,Punjab,India,,,,,,,,,,,,,,,,,,
"Q.A. LAB, MAHASHAKTI ENERGY LTD.","A-8, FOCAL POINT, DABWALI ROAD",Bathinda,Punjab,India,,,,,,,,,,,,,,,,,,
"Q.A. LAB, MODERN TRANSFORMERS PVT. LTD.","D-97, BULANDSHAHAR ROAD, INDUSTRIAL AREA",Ghaziabad,Uttar Pradesh,India,,,,,,,,,,,,,,,,,,
"Q.A. TEST LAB, RICHA EQUIPMENTS PVT. LTD.","ZB 5-6/487, ZULFE BENGAL, DILSHAD GARDEN",Delhi,Delhi,India,,,,,,,,,,,,,,,,,,
QA DEPARTMENT - TRACO CABLE COMPANY LIMITED,"JFTC FACTORY, CHUMATHRA",Thiruvalla,Kerala,India,,,,,,,,,,,,,,,,,,
QA LAB PARAMOUNT COMMUNICATIONS LTD.,"SP-30A, SP-30B & E31 RIICO INDUSTRIAL AREA, KHUSHKHERA",Bhiwadi,Rajasthan,India,,,,,,,,,,,,,,,,,,
QA LAB UNO MINDA LIMITED,"VILLAGE NAWADA FATEHPUR, P.O. SIKANDER PUR BADDA, MANESAR",Gurugram,Haryana,India,,,,,,,,,,,,,,,,,,
"QA LAB, TECH OVN PRIVATE LIMITED","57-58 KM MILE STONE, DELHI JAIPUR HIGHWAY NH-8 BAHODA KALAN",Gurgaon,Haryana,India,,,,,,,,,,,,,,,,,,
QC Lab-GEPDEC ENERGY PRIVATE LIMITED,"FIRST FLOOR, A-50, NOIDA LINK ROAD, SECTOR 67",Noida,Uttar Pradesh,India,,,,,,,,,,,,,,,,,,
"QC LABORATORY, SWASTIKA STEEL & ALLIED PRODUCTS PRIVATE LIMITED","8/1, NUTANPARA ROAD, LILUAH",Howrah,West Bengal,India,,,,,,,,,,,,,,,,,,
QUALITEK LABS LIMITED,"C-40, SECTOR 57",Noida,Uttar Pradesh,India,,,,,,,,,,,,,,,,,,
QUALITEK LABS LIMITED,"PLOT NO . PAP-3/1,BLOCK-E, CHAKAN INDUSTRIAL AREA",Pune,Maharashtra,India,,,,,,,,,,,,,,,,,,
"QUALITY ASSURANCE AND R&D LABORATORY, TECHNO ELECTROMECH Private limited","RS NO. 858, SURESH TIMBER LANE, NH-8",Vadodara,Gujarat,India,,,,,,,,,,,,,,,,,,
"QUALITY ASSURANCE LABORATORY - EHV, KEI INDUSTRIES LIMITED","A-280/281/282/283/284, RIICO INDUSTRIAL AREA, CHOPANKI",Bhiwadi,Rajasthan,India,,,,,,,,,,,,,,,,,,
QUALITY ASSURANCE LABORATORY OF PRIME CABLE INDUSTRIES LIMITED,"C-60, RIICO INDUSTRIAL AREA, GHILOTH",Neemrana,Rajasthan,India,,,,,,,,,,,,,,,,,,
QUALITY ASSURANCE LABORATORY- WEST COAST OPTILINKS (A DIVISION OF WEST COAST PAPER MILLS LIMITED),"PLOT NO. 386 &387, KIADB ELECTRONIC CITY, HEBBAL INDUSTRIAL AREA",Mysuru,Karnataka,India,,,,,,,,,,,,,,,,,,
"QUALITY ASSURANCE LABORATORY, KEI INDUSTRIES LTD","99/2/7, MADHUBAN INDUSTRIAL ESTATE, RAKHOLI",Silvassa,Dadra and Nagar Haveli,India,,,,,,,,,,,,,,,,,,
"QUALITY ASSURANCE LABORATORY, KEI INDUSTRIES LTD.","SP-919, 920, 922, RIICO INDUSTRIAL AREA, BHIWADI",Alwar,Rajasthan,India,,,,,,,,,,,,,,,,,,
"QUALITY ASSURANCE LABORATORY, METAL, BHARAT ALUMINIUM COMPANY LIMITED",BALCO NAGAR,Korba,Chhattisgarh,India,,,,,,,,,,,,,,,,,,
"QUALITY ASSURANCE LABORATORY, PLANT-1",VEDANTA LIMITED- ALUMINIUM & POWER,Jharsuguda,Odisha,India,,,,,,,,,,,,,,,,,,
"QUALITY ASSURANCE LABORATORY, VEDANTA LIMITED, STERLITE COPPER","1/1/2, VILLAGE CHINCHPADA",Silvassa,Dadra and Nagar Haveli and Daman and Diu,India,,,,,,,,,,,,,,,,,,
QUALITY CONTROL LABORATORY - SHAKTIANODES PRIVATE LIMITED,"HEERA ESTATE, PHASE-2, GIDC, VATVA",Ahmedabad,Gujarat,India,,,,,,,,,,,,,,,,,,
"QUALITY LABORATORY, JVS SWITCHGEARS PVT LTD","SY.NO.79, PLOT NO: D-3, PHASE IV EXTENSION, IDA, JEEDIMETLA",Hyderabad,Telangana,India,,,,,,,,,,,,,,,,,,
"QUALITY TESTING LAB, DEOGIRI ELECTRONICS CLUSTER PRIVATE LIMITED","PLOT NO. P-30, SHENDRA MIDC",Aurangabad,Maharashtra,India,,,,,,,,,,,,,,,,,,
QUANTA CABLES AND ELECTRIC WIRES PRIVATE LIMITED (QUALITY CONTROL LAB),"PLOT NO. A194 K, ELDECO SIDCUL INDUSTRIAL PARK",Sitarganj,Uttarakhand,India,,,,,,,,,,,,,,,,,,
QVC CERTIFICATION SERVICES PRIVATE LIMITED,"2B, CIVIL LINES, YUKTI BUSINESS CENTRE, JAIL ROAD, AMBALA CITY",Ambala,Haryana,India,,,,,,,,,,,,,,,,,,
R & D LABORATORY TASHKENT OIL COMPANY PVT. LTD.,"84 GIDC, ESTATE NANDESARI",Vadodara,Gujarat,India,,,,,,,,,,,,,,,,,,
R K C T LABORATORY PRIVATE LIMITED,"P-316/3 RAIGWA, PATAN BYPASS ROAD",Jabalpur,Madhya Pradesh,India,,,,,,,,,,,,,,,,,,
"R&D CENTRE LABORATORY, EXIDE INDUSTRIES LIMITED","EXIDE INDUSTRIES LTD. 217, NAZRUL ISLAM AVENUE , P.O. DESHBANDHU NAGAR, 24 PARGANAS NORTH",Kolkata,West Bengal,India,,,,,,,,,,,,,,,,,,
"R&D LABORATORY, INGERSOLL- RAND (INDIA) LIMITED","21-30, NARODA GIDC ESTATE, NARODA",Ahmedabad,Gujarat,India,,,,,,,,,,,,,,,,,,
R.G. TESTINGS CONCERN PROJECT PRIVATE LIMITED,BALTIKURI,Howrah,West Bengal,India,,,,,,,,,,,,,,,,,,
RACEMOSA LABORATORY,"PLOT NO. 108 A, ADDITIONAL NEW MIDC AREA, AKRALE",Nashik,Maharashtra,India,,,,,,,,,,,,,,,,,,
RAGHVENDRA CABLES AND WIRES PRIVATE LIMITED (LAB DIVISION),"G-1/843 RIICO INDUSTRIAL AREA PHASE III, Sitapura",Jaipur,Rajasthan,India,,,,,,,,,,,,,,,,,,
RAICON LABS PVT. LTD.,"PLOT NO. 140, HSIIDC, RAI INDUSTRIAL AREA",Sonipat,Haryana,India,,,,,,,,,,,,,,,,,,
RAJ PETRO SPECIALITIES PVT.LTD,"SURVEY NO. 146/2/3,MADHUBAN DAM ROAD, VILLAGE KARAD",Silvassa,Dadra and Nagar Haveli,India,,,,,,,,,,,,,,,,,,
"RAJ PETRO SPECIALITIES PVT.LTD., LIQUID DIELECTRIC TESTING LABORATORY","73/1B, VAIKKADU VILLAGE, MANALI",Chennai,Tamil Nadu,India,,,,,,,,,,,,,,,,,,
RAJKOT ENGINEERING TESTING AND RESEARCH CENTRE,"PLOT NO. 372, AJI GIDC, O-ROAD",Rajkot,Gujarat,India,,,,,,,,,,,,,,,,,,
RAMELEX TESTING AND RESEARCH INSTITUTE,"S. NO. 81/4A, P. NO. 1759, DANGAT INDUSTRIAL ESTATE, NDA ROAD",Pune,Maharashtra,India,,,,,,,,,,,,,,,,,,
REACT COMPLIANCE & TESTING LABORATORIES LLP,"3411, 3RD FLOOR, SERVICE ROAD VIJAYANAGAR",Bengaluru,Karnataka,India,,,,,,,,,,,,,,,,,,
"REFRIGERATION AND PRODUCT TESTING LABORATORY, DOVER INDIA PRIVATE LIMITED","NO. 8 - B, ROAD NO.6, KIADB INDUSTRIAL AREA, ANEKAL TALUK, JIGANI PHASE 1",Bengaluru,Karnataka,India,,,,,,,,,,,,,,,,,,
REFRIGERATOR PA LAB - HAIER APPLIANCES (INDIA) PRIVATE LIMITED,"PLOT NO H-6, DMIC INTEGRATED INDUSTRIAL TOWNSHIP",Greater Noida,Uttar Pradesh,India,,,,,,,,,,,,,,,,,,
"REFRIGERATOR TESTING LAB, HAVELLS INDIA LIMITED","SP 1- 133, GENERAL ZONE, RIICO INDUSTRIAL AREA, GHILOTH",Alwar,Rajasthan,India,,,,,,,,,,,,,,,,,,
REFRIGERATOR TESTING LABORATORY - SAMSUNG INDIA ELECTRONICS PRIVATE LIMITED,"PLOT NO. P1, SIPCOT INDUSTRIAL PARK, PHASE II, SUNGUVARCHATRAM (P.O)",Sriperumpudur,Tamil Nadu,India,,,,,,,,,,,,,,,,,,
REGIONAL METER TESTING LABORATORY,"MPWZ PARISAR, SHANKARPURA,MAKSI ROAD",Ujjain,Madhya Pradesh,India,,,,,,,,,,,,,,,,,,
"REGIONAL METER TESTING LABORATORY,  M. P. M. K. V. V. CO. LTD.","NISHTHA PARISAR, GOVINDPURA",Bhopal,Madhya Pradesh,India,,,,,,,,,,,,,,,,,,
REGIONAL METER TESTING LABORATORY-INDORE,"URJA PARISAR,GPH CAMPUS, POLOGROUND",Indore,Madhya Pradesh,India,,,,,,,,,,,,,,,,,,
REGIONAL OIL TESTING LABORATORY (NR III),"POWER GRID CORPORATION OF INDIA LIMITED, POWERGRID RESIDENTIAL COLONY, AMBEDKAR VIHAR AWAS, CHAUFATKA",Prayagraj,Uttar Pradesh,India,,,,,,,,,,,,,,,,,,
"REGIONAL TESTING LABORATORY (NR-II),POWERGRID CORPORATION OF INDIA LIMTED","400/220 KV SUBSTATION,G.T. ROAD,KARTARPUR",Jalandhar,Punjab,India,,,,,,,,,,,,,,,,,,
RELIABLE TRANSOIL TESTING LABORATORY,"SHOP NO. 1,2,3, NERUL SHUBHANKAR CHS, Thane",Navi Mumbai,Maharashtra,India,,,,,,,,,,,,,,,,,,
RENLECC LABORATORIES (OPC) PRIVATE LIMITED,"PLOT NO 8-B FIRST FLOOR SHIV VIHAR WEST,VIKAS NAGR,UTTAM NAGAR",New Delhi,Delhi,India,,,,,,,,,,,,,,,,,,
"RESEARCH & DEVELOPMENT CENTRE, LUMINOUS POWER TECHNOLOGIES PRIVATE LIMITED","KHASRA NO. 957, 958, 960, 961, 975, DEV NAGAR GAGRET",Una,Himachal Pradesh,India,,,,,,,,,,,,,,,,,,
"RESEARCH AND DEVELOPMENT LABORATORY, EASTMAN AUTO & POWER LIMITED","KHASRA NO. 146 TO 150, 151/1, 151/2, 166, 58, 67 TO 73, HEADBAST NO. 200, VILLAGE MOUJA BATED, PRAGNA DOON",Baddi,Himachal Pradesh,India,,,,,,,,,,,,,,,,,,
RHINE QUALITY LAB,"PLOT NO. 229, SECTOR-7, IMT MANESAR",Gurgaon,Haryana,India,,,,,,,,,,,,,,,,,,
RIOT TESTING LABZ,"A-21, PHASE-II, HOSIERY COMPLEX, YAKUBPUR, NEPZ POST OFFICE, GAUTAM BUDDHA NAGAR",Noida,Uttar Pradesh,India,,,,,,,,,,,,,,,,,,
RISHABH TESTING AND CALIBRATION LABORATORY,C-6 NICE TRISHLA UNIT NASIK SATPUR,Nashik,Maharashtra,India,,,,,,,,,,,,,,,,,,
RKS INDOTECH TESTING LAB,"69, RAJENDRA NAGAR INDUSTRIAL AREA",Ghaziabad,Uttar Pradesh,India,,,,,,,,,,,,,,,,,,
ROBUST TESTING SOLUTIONS PVT LTD,"PLOT H1-958, RIICO INDUSTRIAL AREA, CHOPANKI",Bhiwadi,Rajasthan,India,,,,,,,,,,,,,,,,,,
ROOTS METROLOGY & TESTING LABORATORY,"S.F.NO.265,R.K.G INDUSTRIAL ESTATE, GANAPATHY",Coimbatore,Tamil Nadu,India,,,,,,,,,,,,,,,,,,
"RRTL, RAYCHEM RPG PRIVATE LIMITED","1/62, M.G.ROAD, OFF WESTERN EXPRESS HIGHWAY",Vasai,Maharashtra,India,,,,,,,,,,,,,,,,,,
"RTDC-OIL LAB, POWERGRID CORPORATION OF INDIA LIMITED","POWERGRID CORPORATION OF INDIA LIMITED,400/230 KV SUB-STATION,SHOOLAGIRI,KRISHNAGIRI DISTRICT",Hosur,Tamil Nadu,India,,,,,,,,,,,,,,,,,,
RTRC LIMITED,"PLOT NO. 296, SECTOR - 7, PHASE - II, INDUSTRIAL ESTATE, IMT MANESAR",Gurugram,Haryana,India,,,,,,,,,,,,,,,,,,
SALZER ELECTRONICS LIMITED,"SF. NO. 570/2, DOOR NO. 5/266, ANNUR PLANT",Coimbatore,Tamil Nadu,India,,,,,,,,,,,,,,,,,,
"SAMEER KOLKATA CENTRE, R&D LABORATORY, MINISTRY OF ELECTRONICS AND INFORMATION TECHNOLOGY, GOVT OF INDIA","PLOT - L2, BLOCK - GP, SALT LAKE ELECTRONICS COMPLEX, SECTOR - V, SALT LAKE",Kolkata,West Bengal,India,,,,,,,,,,,,,,,,,,
SAMS ADVANCED CLIMATIC TECHNOLOGIES PRIVATE LIMITED - TESTING LABORATORY,"PLOT NO. 8 & 9B/29, MIRRA INDUSTRIAL ESTATE, PHASE-1,IDA PATENCHERU",Hyderabad,Telangana,India,,,,,,,,,,,,,,,,,,
SAMVARDHANA MOTHERSON INTERNATIONAL LIMITED,"A-3, 1ST FLOOR, SECTOR 84",Noida,Uttar Pradesh,India,,,,,,,,,,,,,,,,,,
SASMOS HET TECHNOLOGIES LIMITED,"PLOT NO. 1 & 2, KIADB (AEROSPACE) SEZ, KIADB INDUSTRIAL AERA, CHANNARAYAPATNA HOBLI,
DEVANAHALLI",Bengaluru,Karnataka,India,,,,,,,,,,,,,,,,,,
SAVITA OIL TECHNOLOGIES LIMITED,"SURVEY NO 140/1, KUVAPADA, VILLAGE SILLI, POST KILVAN",Silvassa,Dadra and Nagar Haveli,India,,,,,,,,,,,,,,,,,,
SAVITA OIL TECHNOLOGIES LIMITED,"17/17A, THANE BELAPUR ROAD, P.O. VASHI",Thane,Maharashtra,India,,,,,,,,,,,,,,,,,,
SCI WIRES AND CABLES PRIVATE LIMITED,"E-704, PHASE-8, FOCAL POINT",Ludhiana,Punjab,India,,,,,,,,,,,,,,,,,,
SCIENTIFIC AND INDUSTRIAL TESTING AND RESEARCH CENTRE,"83 & 84 AVARAMPALAYAM ROAD, K.R.PURAM POST",Coimbatore,Tamil Nadu,India,,,,,,,,,,,,,,,,,,
SELEC TEST LAB,"NO. EL-27/1, ELECTRONIC ZONE, T.T.C. INDUSTRIAL AREA",Navi Mumbai,Maharashtra,India,,,,,,,,,,,,,,,,,,
SET ON SITE ELECTRICALS PRIVATE LIMITED TESTING LABORATORY,"GUT NO. 58, 67 & 69, JIKTHAN, GANGAPUR",Aurangabad,Maharashtra,India,,,,,,,,,,,,,,,,,,
"SGS INDIA PRIVATE LIMITED, CONSUMER AND RETAIL - ELECTRICAL AND ELECTRONICS TESTING LABORATORY","AHMED PLAZA, NO 38/1 AND 38/2, NEW BBMP NO.88/45/45, BERETENA AGRAHARA, BEGUR HOBLI, HOSUR MAIN ROAD",Bengaluru,Karnataka,India,,,,,,,,,,,,,,,,,,
"SGS INDIA PRIVATE LIMITED, TESTING LABORATORY - TRANSPORTATION","GAT NO. 239/1/3, VILLAGE KHALUMBRE, TALUKA KHED, CHAKAN",Pune,Maharashtra,India,,,,,,,,,,,,,,,,,,
SGS INDIA PVT LTD - TRANSPORTATION,"PLOT NO. 28 B/1 (SP), 28 B/2 (SP), SECOND MAIN ROAD",Chennai,Tamil Nadu,India,,,,,,,,,,,,,,,,,,
"SGS INDIA PVT. LTD. TESTING LABORATORY, TRANSPORTATION, CONSUMER AND RETAIL","PLOT NO 21, SECTOR 03, IMT MANESAR",Gurgaon,Haryana,India,,,,,,,,,,,,,,,,,,
"SGS INDIA PVT. LTD., CONNECTIVITY AND PRODUCTS, TESTING LABORATORY-SOFTLINES","28/B/1 (SP), B/2 (SP), 2ND MAIN ROAD, AMBATTUR INDUSTRIAL ESTATE",Chennai,Tamil Nadu,India,,,,,,,,,,,,,,,,,,
"SGS INDIA PVT. LTD., OIL, GAS & CHEMICAL LABORATORY","A-77, WAGLE INDUSTRIAL ESTATE, ROAD NO.16",Thane,Maharashtra,India,,,,,,,,,,,,,,,,,,
"SHANTHALA POWER LIMITED, ELECTRICAL TESTING LABORATORY","SHANTHALA NO. 24, PRIYADARSHINI COLONY, GOKUL ROAD, HUBBALLI",Hubli,Karnataka,India,,,,,,,,,,,,,,,,,,
SHETE ADVANCED TECHNOLOGIES TEST LAB,"PLOT NO. A-44/1/2/20, CHAKAN MIDC, PHASE-2",Pune,Maharashtra,India,,,,,,,,,,,,,,,,,,
"SHIRDI SAI ELECTRICALS LIMITED, TEST LAB NAINI","4/3, MIRZAPUR ROAD, CHAK DAUD NAGAR, NAINI INDUSTRIAL AREA",Prayagraj,Uttar Pradesh,India,,,,,,,,,,,,,,,,,,
SHREE HERAMB TEST LAB (OPC) PRIVATE LIMITED,"312/12, NAI BAZAR NAINI, UDYOG NAGAR (ALLAHABAD), KARCHHANA, ALLAHABAD",Prayagraj,Uttar Pradesh,India,,,,,,,,,,,,,,,,,,
SHRI KRISHNA LABORATORIES AND POWER SERVICES,"#44, 6TH MAIN, 8TH CROSS, PRIYADARSHINI COLONY GOKUL ROAD",Hubli,Karnataka,India,,,,,,,,,,,,,,,,,,
SHRIRAM INSTITUTE FOR INDUSTRIAL RESEARCH( A UNIT OF SHRIRAM SCIENTIFIC AND INDUSTRIAL RESEARCH FOUNDATION),19-UNIVERSITY ROAD,Delhi,Delhi,India,,,,,,,,,,,,,,,,,,
SICAME INDIA CONNECTORS PVT. LTD - SITEC,"S.NO 473/1 (PART), #96, SIRUNKUNDRAM VILLAGE, CHENGALPET TALUK",Kanchipuram,Tamil Nadu,India,,,,,,,,,,,,,,,,,,
"SIEL-N TESTING LABORATORY, SAMSUNG INDIA ELECTRONICS PVT. LTD.","B-1, SECTOR-81, PHASE-2",Noida,Uttar Pradesh,India,,,,,,,,,,,,,,,,,,
SIGNALS AND SYSTEMS (INDIA) PRIVATE LIMITED,"15/D-19, 3RD MAIN ROAD, OMR, SIPCOT IT PARK, SIRUSERI",Chennai,Tamil Nadu,India,,,,,,,,,,,,,,,,,,
"SIGNIFY LIGHTING LABORATORY, SIGNIFY INNOVATIONS INDIA LIMITED","C-47, SECTOR-57",Noida,Uttar Pradesh,India,,,,,,,,,,,,,,,,,,
Sinewaves (Laboratory Division of Sinewaves Solutions India Private Limited),"7TH FLOOR, NO. 712, SHIVALAYA 'A' BLOCK, ETHIRAJ SALAI, EGMORE",Chennai,Tamil Nadu,India,,,,,,,,,,,,,,,,,,
SKC COMPLIANCE LAB PRIVATE LIMITED,"SP-9, NGEF INDSUTRIAL ESTAE",Bengaluru,Karnataka,India,,,,,,,,,,,,,,,,,,
SKC ENVIRON LAB PVT LTD,"B7 NGEF INDUSTRIAL ESTATE, 2ND CROSS, MAHADEVPURA",Bengaluru,Karnataka,India,,,,,,,,,,,,,,,,,,
SKIPPERSEIL LABORATORY,"PLOT NO. SP-9A, RIICO  INDUSTRIAL AREA, KAHARANI",Bhiwadi,Rajasthan,India,,,,,,,,,,,,,,,,,,
SMART METER R&D TESTING LAB,"S F NO. 147/1,145/2B2,145/2B1B, AVANASHI ROAD, ARASUR",Coimbatore,Tamil Nadu,India,,,,,,,,,,,,,,,,,,
SMARTGRID INNOVATIONS TEST LAB,"A-66, SECTOR 83",Noida,Uttar Pradesh,India,,,,,,,,,,,,,,,,,,
"SMELTER TECHNICAL LABORATORY, HINDALCO INDUSTRIES LIMITED, UNIT: MAHAN ALUMINIUM",HINDALCO INDUSTRIES LIMITED,Singrauli,Madhya Pradesh,India,,,,,,,,,,,,,,,,,,
SPARK MINDA TECHNICAL CENTRE (SMIT),"SURVEY NO. 254(P), RAJIV GANDHI IT PARK, PHASE-I, HINJEWADI",Pune,Maharashtra,India,,,,,,,,,,,,,,,,,,
"SPECIAL TESTING LABORATORY, POWER GRID CORPORATION OF INDIA LIMITED","400/220 KV SUBSTATION, GE ROAD, KUMHARI",Durg,Chhattisgarh,India,,,,,,,,,,,,,,,,,,
"SPECIALISED TESTING LABORATORY, POWER GRID CORPORATION OF INDIA LTD","400/220KV PATNA SUB-STATION, PATNA-GAYA ROAD, VILLAGE- GAURICHAK, POST- FATEHPUR",Patna,Bihar,India,,,,,,,,,,,,,,,,,,
SPECTRO ANALYTICAL LABS PRIVATE LIMITED,"S-1, GNEPIP, SURAJPUR INDUSTRIAL AREA, PHASE-V, KASNA",Greater Noida,Uttar Pradesh,India,,,,,,,,,,,,,,,,,,
SPECTRUM DIAGNOSTIC LABORATORY & RESEARCH CENTRE,"W-47, PVC MARKET, JWALA PURI, PASCHIM VIHAR",New Delhi,Delhi,India,,,,,,,,,,,,,,,,,,
"SREEJA ELECTRICALS, TRANSFORMER OIL TESTING LABORATORY","PLOT NO S 122, PHASE III B, VERNA INDUSTRIAL ESTATE",Vasco,Goa,India,,,,,,,,,,,,,,,,,,
SSPL - TEST HOUSE,"PLOT NO A-5/9,  ROAD NO 1, IDA, NACHARAM",Hyderabad,Telangana,India,,,,,,,,,,,,,,,,,,
STANDARD ANALYTICAL LABORATORY (ND) PVT. LTD.,"69, F.I.E., PATPARGANJ INDUSTRIAL AREA",Delhi,Delhi,India,,,,,,,,,,,,,,,,,,
"STANDARD TESTING LABORATORY, BHUBANESWAR","PLOT NO.-GD-2/7,MAITRIVIHAR,CHANDRASEKHARPUR",Bhubaneswar,Odisha,India,,,,,,,,,,,,,,,,,,
STAR LABS TEST CENTRE LLP,"PLOT NO. 36, KRISHNA VIHAR-5, AKEDA DUNGAR, ROAD NO. 18, VISHWAKARMA INDUSTRIAL AREA",Jaipur,Rajasthan,India,,,,,,,,,,,,,,,,,,
STAR WIRE (INDIA) LABORATORIES PRIVATE LIMITED,"21/4, MATHURA ROAD",Ballabgarh,Haryana,India,,,,,,,,,,,,,,,,,,
STELLAR TEST HOUSE,"G - 68, SECTOR 63",Noida,Uttar Pradesh,India,,,,,,,,,,,,,,,,,,
STERLITE POWER TRANSMISSION LIMITED (POWER CABLE TESTING LAB),"Sector-5, VIE",Haridwar,Uttarakhand,India,,,,,,,,,,,,,,,,,,
STERLITE POWER TRANSMISSION LTD-TESTING LABORATORY,"BHURKHAMUNDA, PO: KALIMANDIR ROAD",Jharsuguda,Odisha,India,,,,,,,,,,,,,,,,,,
STERLITE TECHNOLOGIES LIMITED - OFC QUALITY ASSURANCE LABORATORY,"SURVEY NO. 68/1, RAKHOLI VILLAGE, MADHUBAN DAM ROAD",Silvassa,Dadra and Nagar Haveli,India,,,,,,,,,,,,,,,,,,
STL OF QUALITY TESTING LABORATORY,"E1 E2 E3, MIDC-WALUJ",Aurangabad,Maharashtra,India,,,,,,,,,,,,,,,,,,
STRATON ELECTRICALS HIGH VOLTAGE TEST LABORATORY,"SY NO. 42/A1/1, ALINAGAR, GADDA POTARAM (GP), JINNARAM(M)",Hyderabad,Telangana,India,,,,,,,,,,,,,,,,,,
"SUNREN TELECOM LABORATORY, A DIVISION OF M/S SUNREN TECHNICAL SOLUTIONS PVT. LTD.","C-475, MIDC PAVANE, TTC INDUSTRIAL AREA",Navi Mumbai,Maharashtra,India,,,,,,,,,,,,,,,,,,
SUPRAJIT ENGINEERING LIMITED - TESTING LABORATORY (UNIT -1),"59 A-F, NSEZ",Noida,Uttar Pradesh,India,,,,,,,,,,,,,,,,,,
SUPRAJIT ENGINEERING LIMITED-TESTING LABORATORY (UNIT-II),"A-1, PHASE II",Noida,Uttar Pradesh,India,,,,,,,,,,,,,,,,,,
"SURYA TECHNOLOGY & INNOVATION CENTRE, SURYA ROSHNI LIMITED","D-63, HOSIERY COMPLEX, PHASE-II",Noida,Uttar Pradesh,India,,,,,,,,,,,,,,,,,,
SWASTIK ELECTRONICS TESTING CENTRE (OPC) PRIVATE LIMITED,"PLOT NO-16, MAINAPUR INDUSTRIAL AREA",Ghaziabad,Uttar Pradesh,India,,,,,,,,,,,,,,,,,,
SWEN KONFORMITY LLP,"GOKUL RH 1, S. NO 22, VISHAL NAGAR, PIMPLE NILAKH",Pune,Maharashtra,India,,,,,,,,,,,,,,,,,,
"SWITCHGEAR LAB, MICROTEK NEW TECHNOLOGIES PRIVATE LIMITED (UNIT-2)",VILLAGE KATHA,Baddi,Himachal Pradesh,India,,,,,,,,,,,,,,,,,,
SWITCHGEAR TESTING LABORATORIES-SCHNEIDER ELECTRIC INDIA PRIVATE LIMITED,"SECTOR E3, L&T CAMPUS, L&T BYPASS ROAD, MALUMICHAMPATTI",Coimbatore,Tamil Nadu,India,,,,,,,,,,,,,,,,,,
TAG CORPORATION,91 THIRUNEERMALAI ROAD CHROMPET,Chennai,Tamil Nadu,India,,,,,,,,,,,,,,,,,,
"TARANG LABS, WIPRO LIMITED","SURVEY NO.203/1, MANIKONDA JAGIR VILLAGE,",Hyderabad,Telangana,India,,,,,,,,,,,,,,,,,,
"TARANG LABS, WIPRO LIMITED","SY. NO. 69P, 71/4P, 78/8AP, 134P, 76P, 77P, 80P, 70P, 79/1P, UNIT 1, SARJAPUR ROAD, DODDAKANNELLI VILLAGE, VARTHUR HOBLI",Bengaluru,Karnataka,India,,,,,,,,,,,,,,,,,,
TARANG LABS-PRODUCT QUALIFICATION AND COMPLIANCE PLANET,"WIPRO LTD, SURVEY NO.70,77,78/8A, DODDA KANNELLI",Bengaluru,Karnataka,India,,,,,,,,,,,,,,,,,,
TATA ADVANCED SYSTEMS LIMITED,"42-43 HOSUR ROAD, ELECTRONIC CITY",Bengaluru,Karnataka,India,,,,,,,,,,,,,,,,,,
TBEA ELECTRICAL PRODUCTS & MATERIAL TESTING RESEARCH CENTER,"TBEA ENERGY(INDIA) PRIVATE LIMITED, TBEA GREEN ENERGY PARK, NATIONAL HIGHWAY NO. 8, VILLAGE MIYAGAM, KARJAN",Vadodara,Gujarat,India,,,,,,,,,,,,,,,,,,
"TECH MAHINDRA LTD., NOIDA LAB","A-20, SECTOR 60, GAUTAM BUDDHA NAGAR",Noida,Uttar Pradesh,India,,,,,,,,,,,,,,,,,,
TECHLAB TESTING AND RESEARCH INSTITUTE PRIVATE LIMITED,"PLOT NO. F-19, MIDC AREA, BHUSAWAL",Jalgaon,Maharashtra,India,,,,,,,,,,,,,,,,,,
TECHNICAL ASSOCIATES TRANSFORMERS LIMITED (DEPT. OF TRANSFORMER TESTING),"B-7, ELDECO SIDCUL INDUSTRIAL PARK, SITARGANJ",Udham Singh Nagar,Uttarakhand,India,,,,,,,,,,,,,,,,,,
TECHNO ASSOCIATES VIDYUT PRIVATE LIMITED,"W-160, MIDC PHASE II",Dombivli,Maharashtra,India,,,,,,,,,,,,,,,,,,
TECHNOPOWER TECH SOLUTIONS LLP,"SHED NO. 11, TYPE-B, BLOCK NO. 1, SECTOR 1, GOVIND PURA INDUSTRIAL AREA",Bhopal,Madhya Pradesh,India,,,,,,,,,,,,,,,,,,
TECHVISION TESTING LAB PRIVATE LIMITED,"B-6, COMMERCIAL COMPLEX (3RD FLOOR, 2ND FLOOR AND BASEMENT), NIMRI COLONY, ASHOK VIHAR, PHASE-IV",New Delhi,Delhi,India,,,,,,,,,,,,,,,,,,
TERAWATT TESTING AND RESEARCH INSTITUTE PRIVATE LIMITED,"H-400, RIICO INDUSTRIAL AREA, KHUSKHERA",Bhiwadi,Rajasthan,India,,,,,,,,,,,,,,,,,,
TERMINAL TECHNOLOGIES INDIA PRIVATE LIMITED,"GAT NO. 312/2, 3 & 6, NANEKARWADI, CHAKAN",Pune,Maharashtra,India,,,,,,,,,,,,,,,,,,
TEST AND SCREENING LABORATORY OF CENTUM ELECTRONICS LIMITED,"44, KHB INDUSTRIAL AREA, YELAHANKA NEW TOWN",Bengaluru,Karnataka,India,,,,,,,,,,,,,,,,,,
"TEST DIVISION, LUBI INDUSTRIES LLP","A1, LUBI INDUSTRIAL PARK, VADSAR-KHATARJ ROAD, VILLAGE VADSAR, TA. KALOL",Gandhinagar,Gujarat,India,,,,,,,,,,,,,,,,,,
"TEST LAB, LEDURE LIGHTINGS LIMITED","A-40, SECTOR-58",Noida,Uttar Pradesh,India,,,,,,,,,,,,,,,,,,
"TEST LABORATORY, ELECTRIFY ENERGY PRIVATE LIMITED","PLOT SURVEY NO. 268, Bagodara - Dholka Road, Village Gangad, Taluka Bavla",Ahmedabad,Gujarat,India,,,,,,,,,,,,,,,,,,
"TEST LABORATORY, GOLDWYN LIMITED","B-60, SECTOR-60",Noida,Uttar Pradesh,India,,,,,,,,,,,,,,,,,,
"TESTING & CALIBRATION LABORATORY, CTC, DVC","MAITHON, GOSWAMI BHAWAN, AREA NO. 6, P.O. MAITHON DAM",Dhanbad,Jharkhand,India,,,,,,,,,,,,,,,,,,
"TESTING & CALIBRATION LABORATORY, NARAYAN POWERTECH PriVaTe LimiTeD, UNIT 2","SURVEY NO. 191, VILLAGE : LUNA",Padra,Gujarat,India,,,,,,,,,,,,,,,,,,
"TESTING & CALIBRATION LABORATORY, NARAYAN POWERTECH PVT. LTD",PADRA-VADODARA ROAD,Padra,Gujarat,India,,,,,,,,,,,,,,,,,,
"TESTING & QUALITY ASSURANCE LABORATORY, MSEDCL",BAPAT CAMP,Kolhapur,Maharashtra,India,,,,,,,,,,,,,,,,,,
"TESTING AND CALIBRATION LAB, SECURE METERS LIMITED","VILLAGE BATED, OFF- HARIPUR ROAD, BAROTIWALA",Baddi,Himachal Pradesh,India,,,,,,,,,,,,,,,,,,
"TESTING AND CALIBRATION LABORATORY, HPL ELECTRIC & POWER LIMITED","PLOT 357Q, PACE CITY II, SECTOR 37",Gurgaon,Haryana,India,,,,,,,,,,,,,,,,,,
"TESTING AND CALIBRATION LABORATORY, SECURE METERS LIMITED","E-566, GIDC, SANAND-II, INDUSTRIAL ESTATE, ROAD NO-H, SANAND",Ahmedabad,Gujarat,India,,,,,,,,,,,,,,,,,,
"TESTING AND CALIBRATION LABORATORY, SECURE METERS LIMITED","F-378 TO 380, G-421 TO 432, G1-390 TO 396, H-381 TO 389, RIICO BHAMASHAH INDUSTRIAL AREA, KALADWAS",Udaipur,Rajasthan,India,,,,,,,,,,,,,,,,,,
TESTING AND RESEARCH CENTER OF VIJAY CORROSION TECHNOLOGY,"PLOT NO. 03, SWAMINARAYAN INDUSTRIAL PARK",Ahmedabad,Gujarat,India,,,,,,,,,,,,,,,,,,
TESTING LAB - COMET ENVIRONS (P) LTD,"V34/B, 7th Main, 2nd Stage, Peenya Industrial Area",Bengaluru,Karnataka,India,,,,,,,,,,,,,,,,,,
TESTING LAB - TIRAME TECHNOLOGY PRIVATE LIMITED,"PLOT NO. 136, ASHOK METROVARAM, SURVEY NO. 2/1, SIRUNGAVUR VILLAGE, MADHAVARAM TALUK, THIRUVALLUR",Chennai,Tamil Nadu,India,,,,,,,,,,,,,,,,,,
TESTING LAB - WW DEFSYS PVT. LTD.,"R1 & R2, SITE V, KASNA INDUSTRIAL AREA",Greater Noida,Uttar Pradesh,India,,,,,,,,,,,,,,,,,,
TESTING LAB OF APTIV COMPONENTS INDIA PVT LTD,"GAT NO 428, B-3, INDOSPACE ROAHN INDUSTRIAL PARK, CHAKAN TALEGAON ROAD, MAHALUNGE MIDC CHAKAN",Pune,Maharashtra,India,,,,,,,,,,,,,,,,,,
"TESTING LAB, DEORA WIRES N MACHINES PRIVATE LIMITED","BLOCK NO. 543/2, VILLAGE - RAKANPUR",Gandhinagar,Gujarat,India,,,,,,,,,,,,,,,,,,
"TESTING LAB, DIXON ELECTRO MANUFACTURING PRIVATE LIMITED","PLOT NO. 14, ECOTECH 8, SECTOR - ECOTECH 8",Greater Noida,Uttar Pradesh,India,,,,,,,,,,,,,,,,,,
"TESTING LAB, K L J POLYMERS AND CHEMICALS LIMITED","SURVEY NO 837, JAMALPADA ROAD, SILLI",Silvassa,Dadra and Nagar Haveli and Daman and Diu,India,,,,,,,,,,,,,,,,,,
"TESTING LAB, KLJ POLYMERS PRIVATE LIMITED","AREA B, SURVEY NO. 837, JAMALPADA ROAD, VILLAGE SILLI",Silvassa,Dadra and Nagar Haveli,India,,,,,,,,,,,,,,,,,,
"TESTING LAB, NSIC TECHNICAL SERVICES CENTRE, THE NATIONAL SMALL INDUSTRIES CORPORATION LIMITED, (A GOVT. OF INDIA ENTERPRISE)","B-24, GUINDY INDUSTRIAL ESTATE, EKKADUTHANGAL",Chennai,Tamil Nadu,India,,,,,,,,,,,,,,,,,,
"TESTING LABORATORIES (UNITS: 03, 04, 09, 10, 11 & 15), TOSHIBA TRANSMISSION & DISTRIBUTION SYSTEMS (INDIA) PRIVATE LIMITED","RUDRARAM VILLAGE, PATANCHERU MANDAL, SANGAREDDY DISTRICT",Hyderabad,Telangana,India,,,,,,,,,,,,,,,,,,
"TESTING LABORATORIES, DAIKIN AIRCONDITIONING INDIA PRIVATE LIMITED (R&D CENTRE)","SP2-43, NEW INDUSTRIAL COMPLEX, MAJRAKATH",Neemrana,Rajasthan,India,,,,,,,,,,,,,,,,,,
"TESTING LABORATORIES, DAIKIN AIRCONDITIONING INDIA PVT.LTD. (R&D CENTRE)","SP2-12 TO SP2-15 & SP2-24 TO SP2-27, RIICO INDUSTRIAL COMPLEX (MAJRAKATH)",Neemrana,Rajasthan,India,,,,,,,,,,,,,,,,,,
"TESTING LABORATORIES, TECHNICAL SERVICES DIVISION, BHEL",TECHNICAL SERVICES DEPARTMENT,Bhopal,Madhya Pradesh,India,,,,,,,,,,,,,,,,,,
TESTING LABORATORY - LIGHTING DIVISION,"JAQUAR AND COMPANY PVT. LTD., PLOT NO A 111 TO 114, RIICO INDUSTRIAL AREA, PHASE 1",Bhiwadi,Rajasthan,India,,,,,,,,,,,,,,,,,,
TESTING LABORATORY - PANASONIC LIFE SOLUTIONS INDIA PRIVATE LIMITED,"VILLAGE-BID DADRI, HSIIDC",Jhajjar,Haryana,India,,,,,,,,,,,,,,,,,,
TESTING LABORATORY CONTROLLERATE OF QUALITY ASSURANCE (INSTRUMENTS),RAIPUR,Dehradun,Uttarakhand,India,,,,,,,,,,,,,,,,,,
"TESTING LABORATORY CR UNIT-2 WAGHODIA, VOLTAS LIMITED","PLOT NO. 1/A, SIDDHI INDUSTRIAL INFRASTRUCTURE PARK",Waghodia,Gujarat,India,,,,,,,,,,,,,,,,,,
"TESTING LABORATORY CR, VOLTAS LIMITED","PLOT NO. 1, SECTOR-8, IIE PANTNAGAR",Rudrapur,Uttarakhand,India,,,,,,,,,,,,,,,,,,
"TESTING LABORATORY MEDIUM VOLTAGE AND SYSTEMS, SIEMENS LIMITED, KALWA","KALWA WORKS, THANE BELAPUR ROAD",Thane,Maharashtra,India,,,,,,,,,,,,,,,,,,
TESTING LABORATORY MPPKVVCL,POLO GROUND,Indore,Madhya Pradesh,India,,,,,,,,,,,,,,,,,,
TESTING LABORATORY MPPKVVCL UJJAIN,"SHANKARPUR, MAKSI ROAD",Ujjain,Madhya Pradesh,India,,,,,,,,,,,,,,,,,,
TESTING LABORATORY OF AJANTA ELECTRIC INDUSTRIES,"SP-4, 870 (A), INDUSTRIAL AREA PATHREDI, CHOPANKI",Bhiwadi,Rajasthan,India,,,,,,,,,,,,,,,,,,
TESTING LABORATORY OF ASBESCO INDIA PRIVATE LIMITED,"BEGRI, MOUZA BANIARA, SANKHARAIDAHA",Howrah,West Bengal,India,,,,,,,,,,,,,,,,,,
TESTING LABORATORY OF EL POWER TRANSFORMERS PVT. LTD.,"17/1279, HOSPITAL JUNCTION, KANJIKODE",Palakkad,Kerala,India,,,,,,,,,,,,,,,,,,
TESTING LABORATORY OF JDS TRANSFORMERS INDUSTRIES PVT. LTD,"PLOT NO.33 & 34 PART OF 32,AKVN INDUSTRIAL GROWTH CENTER, BORGAON, TEH;-SAUSAR",Chhindwara,Madhya Pradesh,India,,,,,,,,,,,,,,,,,,
TESTING LABORATORY OF KNORR-BREMSE TECHNOLOGY CENTER INDIA PRIVATE LIMITED,"OFFICE NO. 302, FLOOR NO. 3, BUILDING A, TERMINAL ONE, SURVEY NO. 256/6/1 & 256/7, PHASE 1, HINJEWADI",Pune,Maharashtra,India,,,,,,,,,,,,,,,,,,
TESTING LABORATORY OF NANGALWALA INDUSTRIES PRIVATE LIMITED,"F 151 TO 154, M. I. A.",Alwar,Rajasthan,India,,,,,,,,,,,,,,,,,,
TESTING LABORATORY OF PGR POWERTECH,"MANALIPPADAM, MUDAPPALLUR",Palakkad,Kerala,India,,,,,,,,,,,,,,,,,,
TESTING LABORATORY OF PLAZA WIRES LIMITED,"KHASRA NO. 923/56, 924/58, 874/49/1, Industrial Area, Katha",Baddi,Himachal Pradesh,India,,,,,,,,,,,,,,,,,,
TESTING LABORATORY OF TAMRA DHATU UDYOG PRIVATE LIMITED,"SP2-873, PATHERDI, RIICO INDUSTRIAL AREA",Bhiwadi,Rajasthan,India,,,,,,,,,,,,,,,,,,
TESTING LABORATORY SGTPP WBPDCL,"SAGARDIGHI THERMAL POWER PROJECT, POST - MANIGRAM, PS: SAGARDIGHI",Murshidabad,West Bengal,India,,,,,,,,,,,,,,,,,,
"TESTING LABORATORY, AUMNI TRANSMISSION INDUSTRY PVT. LTD.","E-76, G.I.D.C. MANJUSAR, TALUKA SAVLI",Vadodara,Gujarat,India,,,,,,,,,,,,,,,,,,
"TESTING LABORATORY, DELTON CABLES LIMITED","17/4, MATHURA ROAD, SECTOR 16A",Faridabad,Haryana,India,,,,,,,,,,,,,,,,,,
"TESTING LABORATORY, ELCOM INTERNATIONAL PRIVATE LIMITED","PLOT E-4, KAGAL FIVE STAR MIDC, KAGAL",Kolhapur,Maharashtra,India,,,,,,,,,,,,,,,,,,
"TESTING LABORATORY, EMMESS CONTROL PVT. LTD.","DP 90, 91, 92, SIDCO INDUSTRIAL ESTATE THIRUMAZHISAI",Chennai,Tamil Nadu,India,,,,,,,,,,,,,,,,,,
"TESTING LABORATORY, EVERRENEW ENERGY PVT LTD.","PLOT NO. 146, 148 & 149, LOGI TECH PARK 4, THIRUMAZHISAI, SIDCO INDUSTRIAL ESTATE,",Tiruvallur,Tamil Nadu,India,,,,,,,,,,,,,,,,,,
"TESTING LABORATORY, GODREJ R&D CENTER (APPLIANCE DIVISION)","PLOT NO. 2, MULSHI ROAD, PIRANGUT, TALUKA MULSHI",Pune,Maharashtra,India,,,,,,,,,,,,,,,,,,
"TESTING LABORATORY, HAREY KRISHNA CABLES PRIVATE LIMITED","PLOT NO. 101, ECOTECH-XII",Greater Noida,Uttar Pradesh,India,,,,,,,,,,,,,,,,,,
"TESTING LABORATORY, HIMACHAL ENERGY PRIVATE LIMITED","VILLAGE SHAVELA, P.O. JABLI, TEHSIL- KASAULI",Solan,Himachal Pradesh,India,,,,,,,,,,,,,,,,,,
"TESTING LABORATORY, HPL ELECTRIC & POWER LIMITED","PLOT NO-76B, PHASE-IV, SECTOR-57 KUNDLI",Sonipat,Haryana,India,,,,,,,,,,,,,,,,,,
"TESTING LABORATORY, INESH SMART ENERGY PRIVATE LIMITED","NO:183, ARCOT MAIN ROAD, VANI NAGAR, VALASARAVAKKAM",Chennai,Tamil Nadu,India,,,,,,,,,,,,,,,,,,
"TESTING LABORATORY, KJV ALLOY CONDUCTORS PVT LTD","PLOT NO. 15 & PART OF 20, AKVN INDUSTRIAL AREA, BOREGAON, TAH - SAUSAR, DIST. - CHHINDWARA (MP)",Sausar,Madhya Pradesh,India,,,,,,,,,,,,,,,,,,
"TESTING LABORATORY, KWALITY CABLE INDIA","C-153, SECTOR-5, DSIIDC, BAWANA",Delhi,Delhi,India,,,,,,,,,,,,,,,,,,
"TESTING LABORATORY, MEHRU ELECTRICAL & MECHANICAL ENGINEERS PVT. LTD.","SP-2/180, RIICO INDUSTRIAL, KEHRANI",Bhiwadi,Rajasthan,India,,,,,,,,,,,,,,,,,,
"TESTING LABORATORY, NSIC TECHNICAL SERVICES CENTRE (A GOVT. OF INDIA ENTERPRISE)","JAPANIGATE, P.O. BALITIKURI",Howrah,West Bengal,India,,,,,,,,,,,,,,,,,,
"TESTING LABORATORY, PASONDIA CABLES PRIVATE LIMITED","28 KM, DELHI MEERUT ROAD, VILLAGE- DUHAI, POST- SANTHALI",Ghaziabad,Uttar Pradesh,India,,,,,,,,,,,,,,,,,,
"TESTING LABORATORY, PRAGATI ELECTRICALS PVT. LTD.","PLOT NO. A-2/16, MIDC INDUSTRIAL AREA",Murbad,Maharashtra,India,,,,,,,,,,,,,,,,,,
"TESTING LABORATORY, R R KABEL LIMITED","R R KABEL LIMITED, R SURVEY NOS. 201, 202/1, 202/2, 203, 209, 215, 216, 217, 218 & 327/3 AT & PO VILLAGE WAGHODIA, KHANDA ROAD",Vadodara,Gujarat,India,,,,,,,,,,,,,,,,,,
"TESTING LABORATORY, SANTALDIH THERMAL POWER STATION","SANTALDIH THERMAL POWER STATION , P.O: SANTALDIH T.P , PS: SANTALDIH",Purulia,West Bengal,India,,,,,,,,,,,,,,,,,,
"TESTING LABORATORY, SEEWEL POWER INDUSTRIES PRIVATE LIMITED","PLOT NO-38, 39, 64, 65, SEC-D,BAWANA-II,BHORGARH INDUSTRIAL COMPLEX",New Delhi,Delhi,India,,,,,,,,,,,,,,,,,,
"TESTING LABORATORY, SONA ELECTRICALS",82 A SECTOR H INDUSTRIAL AREA,Bhopal,Madhya Pradesh,India,,,,,,,,,,,,,,,,,,
"TESTING LABORATORY, TAK TECHNOLOGIES PRIVATE LIMITED","A 68, SECTOR 80",Noida,Uttar Pradesh,India,,,,,,,,,,,,,,,,,,
"TESTING LABORATORY, THERMO CABLES LIMITED","D-44, 45, 48, 49 & 50, PHASE-V, IDA, JEEDIMETLA",Hyderabad,Telangana,India,,,,,,,,,,,,,,,,,,
"TESTING LABORATORY, VEELINE INDUSTRIES LIMITED","BLOCK NO. 154/2, TAL MAHUWA, TARSADI",Bardoli,Gujarat,India,,,,,,,,,,,,,,,,,,
"TESTING LABORATORY, VOLTAS LIMTED","PLOT NO. 1, SECTOR-8, IIE PANTNAGAR",Rudrapur,Uttarakhand,India,,,,,,,,,,,,,,,,,,
"TESTING LABORATORY, ZENMETER SOLUTIONS PRIVATE LIMITED","NO. 26(P) CORNER,ELECTRONIC CITY PHASE-II, INDUSTRIAL AREA",Bengaluru,Karnataka,India,,,,,,,,,,,,,,,,,,
"TESTTEX INDIA LABORATORIES PVT. LTD., NOIDA BRANCH","C-57, SECTOR 65",Noida,Uttar Pradesh,India,,,,,,,,,,,,,,,,,,
TESUTO LABS PRIVATE LIMITED,"GROUND FLOOR, NO. 62/3, SECTOR -3, IMT MANESAR",Gurgaon,Haryana,India,,,,,,,,,,,,,,,,,,
TG ADVAIT INDIA PVT. LTD. QUALITY CONTROL LABORATORY,"PLOT NO. PE-42 & 43, VILLAGE CHHARODI, GIDC-II",Sanand,Gujarat,India,,,,,,,,,,,,,,,,,,
THE AUTOMOTIVE RESEARCH ASSOCIATION OF INDIA - HOMOLOGATION & TECHNOLOGY CENTRE (ARAI-HTC)),"PLOT NO. E-1/1, MIDC CHAKAN INDUSTRIAL AREA, PHASE-III, TALUKA KHED",Pune,Maharashtra,India,,,,,,,,,,,,,,,,,,
THE AUTOMOTIVE RESEARCH ASSOCIATION OF INDIA (ARAI),"SURVEY NO.102,VETAL HILL,OFF PAUD ROAD,KOTHRUD",Pune,Maharashtra,India,,,,,,,,,,,,,,,,,,
"THE MOTWANE MANUFACTURING COMPANY PRIVATE LIMITED, TRANSFORMER OIL TESTING LABORATORY","40/3, J C INDUSTRIAL LAYOUT, YELACHENAHALLI, KANAKAPURA ROAD",Bengaluru,Karnataka,India,,,,,,,,,,,,,,,,,,
THE NATIONAL SMALL INDUSTRIES CORPORATION LTD. TECHNICAL SERVICES CENTRE,"D/82-83, FOCAL POINT",Rajpura,Punjab,India,,,,,,,,,,,,,,,,,,
THERMOFISHER SCIENTIFIC PRODUCT TESTING LABORATORY,"WAREHOUSE NO:1A, PLOT NO:6, SURVEY NO:315, 434/1, ALLCARGO LOGISTICS & INDUSTRIAL PARK,RAMACHANDRAPURAM, VELMULA, SANGAREDDY",Hyderabad,Telangana,India,,,,,,,,,,,,,,,,,,
TISCON TESTING AND RESEARCH INSTITUTE PVT. LTD.,"GAT NO.115, JYOTIBA NAGAR, TALAWADE, PIMPRI CHINCHWAD",Pune,Maharashtra,India,,,,,,,,,,,,,,,,,,
TNPDCL MOBILE LABORATORY,"EE RURAL OFFICE CAMPUS, SIVANTHIPATTI ROAD, TANGEDCO, THIYAGARAJA NAGAR",Tirunelveli,Tamil Nadu,India,,,,,,,,,,,,,,,,,,
"TP SOLAR LTD, PHOTOVOLTAIC RELIABILITY TEST LABORATORY","PLOT NO A104, A107, A108,  SIPCOT, GANGAIKONDAN VILLAGE",Tirunelveli,Tamil Nadu,India,,,,,,,,,,,,,,,,,,
TPCODL METER TESTING LABORATORY BHUBANESWAR,POWER HOUSE COLONY UNIT-8,Bhubaneswar,Odisha,India,,,,,,,,,,,,,,,,,,
TPNODL METER TESTING LABORATORY,"THERMAL COLONY, BALIA",Balasore,Odisha,India,,,,,,,,,,,,,,,,,,
"TQM CENTRE, 2M RESEARCH PRIVATE LIMITED","G-52 MIDC, BUTIBORI",Nagpur,Maharashtra,India,,,,,,,,,,,,,,,,,,
"TRACTION TRANSFORMERS TESTING LABORATORY, HITACHI ENERGY INDIA LIMITED","25 & 26 (ALINDRA), MANJUSAR GIDC, SAVLI",Vadodara,Gujarat,India,,,,,,,,,,,,,,,,,,
"TRANSFIX INDIA TRANSFORMER TESTING LABORATORY, TRANSFIX INDIA PRIVATE LIMITED","PLOT NO. E - 90, PUNE NAGAR ROAD, MIDC RANJANGAON, KAREGAON",Pune,Maharashtra,India,,,,,,,,,,,,,,,,,,
"TRANSFORMER AND REACTOR TESTING LABORATORY, TRANSFORMERS & RECTIFIERS (INDIA) LIMITED","SURVEY NO. 344/350, SARKHEJ BAVLA HIGHWAY NO. 8, CHANGODAR, TAL SANAND",Ahmedabad,Gujarat,India,,,,,,,,,,,,,,,,,,
TRANSFORMER OIL TESTING LAB,TATA STEEL KALINGANAGAR,Jajpur,Odisha,India,,,,,,,,,,,,,,,,,,
"TRANSFORMER OIL TESTING LAB, TRAINING INSTITUTE, DR. NTTPS, APGENCO","TRAINING INSTITUTE, DR. NTTPS, IBRAHIMPATNAM",Krishna,Andhra Pradesh,India,,,,,,,,,,,,,,,,,,
TRANSFORMER OIL TESTING LABORATORY,"SURVEY NO: 427P/3-4 & 431P/1-2, SARKHEJ-BAVLA HIGHWAY, POST MORAIYA, TALUK SANAND",Ahmedabad,Gujarat,India,,,,,,,,,,,,,,,,,,
TRANSFORMER OIL TESTING LABORATORY - TSM,"AT- NARENDRAPUR, PO- KUSUPANGA, VIA- MERAMANDALI",Dhenkanal,Odisha,India,,,,,,,,,,,,,,,,,,
"TRANSFORMER OIL TESTING LABORATORY, SHREE ABIRAMI ENGGINEERING WORKS PRIVATE LIMITED","PLOT NO. 9, PALANI NAGAR, MOULIWAKKAM, PORUR",Chennai,Tamil Nadu,India,,,,,,,,,,,,,,,,,,
"TRANSFORMER OIL TESTING LABORATORY, STEAG ENERGY SERVICES (I) PVT. LTD.","A-29, SECTOR-16",Noida,Uttar Pradesh,India,,,,,,,,,,,,,,,,,,
"TRANSFORMER TESTING LAB, MEIDEN T&D (INDIA) LIMITED","APIIC, MPSEZ, MENAKURU VILLAGE",Nayudupeta,Andhra Pradesh,India,,,,,,,,,,,,,,,,,,
TRANSFORMER TESTING LABORATORY TESLA TRANSFORMERS INDIA LTD,23-A SECTOR-B INDUSTRIAL AREA,Bhopal,Madhya Pradesh,India,,,,,,,,,,,,,,,,,,
"TRANSFORMER TESTING LABORATORY, BHARAT BIJLEE LTD.","NO. 2, MIDC, THANE BELAPUR ROAD, AIROLI",Navi Mumbai,Maharashtra,India,,,,,,,,,,,,,,,,,,
"TRANSFORMER TESTING LABORATORY, BHARAT HEAVY ELECTRICALS LIMITED",BHARAT HEAVY ELECTRICALS LIMITED,Jhansi,Uttar Pradesh,India,,,,,,,,,,,,,,,,,,
"TRANSFORMER TESTING LABORATORY, NUCON SWITCHGEARS PRIVATE LIMITED","PLOT NO. A54-55, KAHRANI INDUSTRIAL AREA",Bhiwadi,Rajasthan,India,,,,,,,,,,,,,,,,,,
"TRANSFORMER TESTING LABORATORY, RAYCHEM RPG (P) LIMITED","GAT NO. 426/2B, CHAKAN-TALEGAON ROAD, MAHALUNGE VILLAGE, TALUKA KHED",Pune,Maharashtra,India,,,,,,,,,,,,,,,,,,
"TRANSFORMER TESTING LABORATORY, SHILCHAR TECHNOLOGIES LIMITED, VADODARA","MUVAL SUBSTATION, PADRA-JAMBUSAR HIGHWAY, GAVASAD",Vadodara,Gujarat,India,,,,,,,,,,,,,,,,,,
"TRANSFORMER TESTING LABORATORY, TMC TRANSFORMERS (INDIA) LIMITED.","SUR. NO. 26 1/2, PART B, VILLAGE KHANDIWADA",Vadodara,Gujarat,India,,,,,,,,,,,,,,,,,,
"TRANSFORMER TESTING LABORATORY, VISHVAS POWER ENGINEERING SERVICES PRIVATE LIMITED","PLOT NO. K-5 FIVE STAR INDUSTRIAL AREA, MIDC, BUTIBORI",Nagpur,Maharashtra,India,,,,,,,,,,,,,,,,,,
"TRANSFORMER TESTING LABORATORY, VOLTAMP TRANSFORMERS LTD.","MANEJA, POST MAKARPURA",Vadodara,Gujarat,India,,,,,,,,,,,,,,,,,,
"TRANSFORMER TESTING LABORATORY, WILSON POWER AND DISTRIBUTION TECHNOLOGIES PRIVATE LIMITED","SURVEY NO: 9/2B, 10/1A, 10/2A ORAKKADU",Chennai,Tamil Nadu,India,,,,,,,,,,,,,,,,,,
TRANSFORMER TESTING LABORATORY-KIRLOSKAR ELECTRIC COMPANY LIMITED,"UNIT-5, TRANSFORMER DIVISION",Mysuru,Karnataka,India,,,,,,,,,,,,,,,,,,
"TRANSFORMER TESTING LABORATORY-TBI, SCHNEIDER ELECTRIC INFRASTRUCTURE LIMITED","MILE STONE 87, BARODA-HALOL HIGHWAY, KOTAMBI VILLAGE, PO. JAROD",Vadodara,Gujarat,India,,,,,,,,,,,,,,,,,,
TRANSFORMER TESTINGLABORATORY (T2-TRANSFORMERDIVISION),"CG POWER AND INDUSTRIAL SOLUTIONS LTD. (PLOT NO. T1 TO T5, MPAKVN INDUSTRIAL AREA)",Malanpur,Madhya Pradesh,India,,,,,,,,,,,,,,,,,,
"TRANSGEAR ELECTRICAL SERVICES PVT LTD, TRANSFORMER TESTING ONSITE,","#40/3, J C INDUSTRIAL LAYOUT, YELACHENAHALLI, KANAKAPURA ROAD",Bengaluru,Karnataka,India,,,,,,,,,,,,,,,,,,
TRANSOIL TEST LABORATORY,"FL NO. 2, SAMRAT APARTMENT, ASHWIN NAGAR, CIDCO COLONY",Nashik,Maharashtra,India,,,,,,,,,,,,,,,,,,
"TRANSRAIL CONDUCTOR LAB, TRANSRAIL LIGHTING LIMITED, CONDUCTOR DIVISION","SURVEY NO 178 TO 182. VILLAGE AMBOLI, DUNGRIPADA, KHERDI SURANGI ROAD",Silvassa,Dadra and Nagar Haveli,India,,,,,,,,,,,,,,,,,,
"TRANSRAIL LAB, TRANSRAIL LIGHTING LIMITED","SURVEY NO. 227/1/1/1/1/1, VILLAGE KHERDI, KHANVEL KHERDI ROAD",Silvassa,Dadra and Nagar Haveli,India,,,,,,,,,,,,,,,,,,
"TUV INDIA PRIVATE LIMITED - PETROLEUM, CHEMICAL AND GAS TESTING LABORATORY","M. P.  SHAH UDYOG NAGAR, PLOT NO. A/12/2/2-3, SARU SECTION ROAD",Jamnagar,Gujarat,India,,,,,,,,,,,,,,,,,,
"TUV INDIA PRIVATE LIMITED, ELECTRONICS AND ELECTRICAL PRODUCT TESTING LABORATORY, BANGALORE","PLOT NO. 105, PEENYA 3RD PHASE, INDUSTRIAL AREA, SY. NO. 90, 92, 93, PEENYA VILLAGE",Bengaluru,Karnataka,India,,,,,,,,,,,,,,,,,,
TUV INDIA PVT. LTD.,"ANJANI PALLADIUM, 203 & 204, SECOND FLOOR AND MEZZANINE FLOOR, 104B, SURVEY NO.126/1, BANER",Pune,Maharashtra,India,,,,,,,,,,,,,,,,,,
TUV RHEINLAND (INDIA) PRIVATE LIMITED,"SURVEY NO 480/2, AMTZ CAMPUS, NADUPURU VILLAGE, PEDAGANTYADA MANDAL, PRAGATI MAIDAN, VM STEEL PROJECT S.O.",Visakhapatnam,Andhra Pradesh,India,,,,,,,,,,,,,,,,,,
"TUV RHEINLAND (INDIA) PRIVATE LIMITED, MATERIAL TESTING LABORATORY","#27B, BASEMENT AND 2ND FLOOR, 2ND CROSS ROAD, ELECTRONIC CITY, PHASE-1",Bengaluru,Karnataka,India,,,,,,,,,,,,,,,,,,
TUV RHEINLAND (INDIA) PVT LTD,"GROUND & FIRST FLOOR, 27/B, 2ND CROSS ROAD, ELECTRONIC CITY PHASE 1",Bengaluru,Karnataka,India,,,,,,,,,,,,,,,,,,
TUV RHEINLAND (INDIA) PVT LTD SOLAR PV MODULE TESTING LABORATORY,"# 27/B, GROUND FLOOR, 2ND CROSS ROAD, ELECTRONICS CITY PHASE 1",Bengaluru,Karnataka,India,,,,,,,,,,,,,,,,,,
TUV RHEINLAND (INDIA) PVT. LTD.,"PLOT NO. 417, UDYOG VIHAR, PHASE-IV",Gurgaon,Haryana,India,,,,,,,,,,,,,,,,,,
TUV RHEINLAND INDIA PVT LTD GURGAON,"PLOT NO. 330-331, UDYOG VIHAR, PHASE IV",Gurgaon,Haryana,India,,,,,,,,,,,,,,,,,,
TUV SUD SOUTH ASIA PRIVATE LIMITED,"PLOT NO. 3-P1-B, HI-TECH, DEFENCE & AEROSPACE PARK, KIADB INDUSTRIAL AREA",Bengaluru,Karnataka,India,,,,,,,,,,,,,,,,,,
TYCON INDIA LLP,"D-11, BSR ROAD, INDUSTRIAL AREA, SITE-1",Ghaziabad,Uttar Pradesh,India,,,,,,,,,,,,,,,,,,
"TYPE TEST CENTER SIEMENS LIMITED, KALWA","SIEMENS LIMITED KALWA WORKS, THANE BELAPUR ROAD, AIROLI",Thane,Maharashtra,India,,,,,,,,,,,,,,,,,,
"TYPE TEST LABORATORY, ROCKWELL INDUSTRIES LIMITED",SURVEY NO: 849,Hyderabad,Telangana,India,,,,,,,,,,,,,,,,,,
UCAL KCAT LAB,"KRISHNAMURTHY CENTRE FOR AUTOMOTIVE TECHNOLOGY - R&D, UCAL LIMITED, 11B/2(SP), FIRST CROSS (AMBIT PARK) ROAD, AMBATTUR INDUSTRIAL ESTATE",Chennai,Tamil Nadu,India,,,,,,,,,,,,,,,,,,
"UHV TEST LAB, TBEA ENERGY (INDIA) PRIVATE LIMITED","TBEA GREEN ENERGY PARK, NATIONAL HIGHWAY NO. 8, VILLAGE MIYAGAM, KARJAN",Vadodara,Gujarat,India,,,,,,,,,,,,,,,,,,
"UL INDIA LAB, UL INDIA PRIVATE LIMITED","LABORATORY BUILDING, KALYANI PLATINA CAMPUS, SY.NO.129/4, EPIP ZONE, PHASE II, WHITEFIELD, BENGALURU URBAN",Bengaluru,Karnataka,India,,,,,,,,,,,,,,,,,,
UL INDIA PRIVATE LIMITED,"A-12, INFOCITY-1, SECTOR 34",Gurgaon,Haryana,India,,,,,,,,,,,,,,,,,,
UL INDIA PRIVATE LIMITED,"30/A, I STAGE VISHVESHWARYA INDUSTRIAL ESTATE, DODDANEKKUNDI INDUSTRIAL AREA",Bengaluru,Karnataka,India,,,,,,,,,,,,,,,,,,
"UL INDIA PRIVATE LIMITED, UL- JAIN FIRE LABORATORY","JAIN UNIVERSITY GLOBAL CAMPUS, JAKKASANDRA, KANAKPURA TALUK,",Ramanagara,Karnataka,India,,,,,,,,,,,,,,,,,,
"ULTRA HIGH VOLTAGE LABORATORY, BHEL BHOPAL",BHARAT HEAVY ELECTRICALS LIMITED,Bhopal,Madhya Pradesh,India,,,,,,,,,,,,,,,,,,
"ULTRA HIGH VOLTAGE RESEARCH LABORATORY, CENTRAL POWER RESEARCH INSTITUTE","MEDIPALLY P.O, WARANGAL ROAD, UPPAL, MEDCHAL MALKAJGIRI",Hyderabad,Telangana,India,,,,,,,,,,,,,,,,,,
"ULTRA HIGH VOLTAGE TESTING LABORATORY - LTI, GE VERNOVA T&D INDIA LIMITED","MILE STONE 87, VADODARA - HALOL HIGHWAY",Vadodara,Gujarat,India,,,,,,,,,,,,,,,,,,
UM CABLES LIMITED,"SURVEY NO. 1/1/3, VASONA ROAD, CHINCHPADA",Silvassa,Dadra and Nagar Haveli,India,,,,,,,,,,,,,,,,,,
UMANG BOARDS LIMITED,"A-27 RIICO INDUSTRIAL AREA, KALADERA",Jaipur,Rajasthan,India,,,,,,,,,,,,,,,,,,
UNIGLOBUS R&D LAB,"SURVEY NO. 30, 31, HALOL-VADODARA ROAD",Halol,Gujarat,India,,,,,,,,,,,,,,,,,,
UNIVERSAL CABLES LIMITED,"L-58 TO L-60, VERNA INDUSTRIAL ESTATE",Verna,Goa,India,,,,,,,,,,,,,,,,,,
"UNIVERSAL CABLES LIMITED, EHV CABLE LABORATORY",BIRLA VIKAS,Satna,Madhya Pradesh,India,,,,,,,,,,,,,,,,,,
"UNIVERSAL TESTING LABORATORIES, SHIRDI SAI ELECTRICALS LIMITED","PLOT NOS:  13/82, 53, 54, 55, 58, 59 & 60,  INDUSTRIAL DEVELOPMENT AREA",Cuddapah,Andhra Pradesh,India,,,,,,,,,,,,,,,,,,
URS PRODUCTS AND TESTING PRIVATE LIMITED,"A-29, SECTOR-5",Noida,Uttar Pradesh,India,,,,,,,,,,,,,,,,,,
URS PRODUCTS AND TESTING PVT. LTD.,"F-3, SECTOR - 6",Noida,Uttar Pradesh,India,,,,,,,,,,,,,,,,,,
UTTAM (BHARAT) ELECTRICALS PRIVATE LIMITED,"B-189 / A, ROAD NO. 9 (F), VKI AREA",Jaipur,Rajasthan,India,,,,,,,,,,,,,,,,,,
"VALEO INDIA PRIVATE LIMITED, EMC LABORATORY","CEE DEE YES IT PARKS, GROUND FLOOR NO.63, RAJIV GANDHI SALAI, NAVALUR",Chennai,Tamil Nadu,India,,,,,,,,,,,,,,,,,,
VALIDATE INDIA PRIVATE LIMITED,"PLOT NO. 122, SECTOR-6, IMT MANESAR",Gurgaon,Haryana,India,,,,,,,,,,,,,,,,,,
VARDHAMANA TESTING LABORATORY OPC PVT LTD,"PLOT NO. 403, UDYOG KENDRA EXTN-II, SECTOR-ECOTECH-3",Greater Noida,Uttar Pradesh,India,,,,,,,,,,,,,,,,,,
VARDHMAN STAMPINGS PVT. LTD.,"SURVEY NO. 132/C, IRANA ROAD, BUDASAN VILLAGE, KALOL-KADI ROAD",Kadi,Gujarat,India,,,,,,,,,,,,,,,,,,
VARROC ENGINEERING LTD,"C.T.S. NO. 4270, ELPRO COMPOUND, TALUKA- HAVELI, CHINCHWADGAON",Pune,Maharashtra,India,,,,,,,,,,,,,,,,,,
VEDANTA LIMITED (QUALITY ASSURANCE LABORATORY),"PLANT-2, SEZ, AT: BHURKHAMUNDA",Jharsuguda,Odisha,India,,,,,,,,,,,,,,,,,,
VENKATESWARA ELECTRICAL INDUSTRIES PRIVATE LTD,"NO. 75, KUNDRATHUR MAIN ROAD, PORUR",Chennai,Tamil Nadu,India,,,,,,,,,,,,,,,,,,
"VIJAI ELECTRICALS LTD., TRANSFORMER TESTING LABORATORY","PLOT NO. 1A , SEC-12, IIE SIDCUL, BHEL",Haridwar,Uttarakhand,India,,,,,,,,,,,,,,,,,,
VIKRAM SOLAR LIMITED,"SPECIAL ECONOMIC ZONE, SECTOR-2, FALTA",24 Parganas (s),West Bengal,India,,,,,,,,,,,,,,,,,,
VIMTA LABS LIMITED,"PLOT NO 05, MN PARK, GENOME VALLEY",Hyderabad,Telangana,India,,,,,,,,,,,,,,,,,,
VIMTA LABS LIMITED,"PLOT NO.:11/6, ROAD NO.9, IDA NACHARAM, KEESARA",Hyderabad,Telangana,India,,,,,,,,,,,,,,,,,,
VIN POWER ELECTRO PRODUCT,"H-413A, H-413B, SARNA DUNGAR INDUSTRIAL AREA, SARNA DUNGER",Jaipur,Rajasthan,India,,,,,,,,,,,,,,,,,,
VIRTUOSO OPTOELECTRONICS LIMITED - TESTING LABORATORY,"64-B-1, MIDC AREA, SATPUR",Nashik,Maharashtra,India,,,,,,,,,,,,,,,,,,
VISHAL TRANSFORMERS AND SWITCHGEARS PRIVATE LIMITED,"561/3 RITHANI, INDUSTRIAL ESTATE PARTAPUR, DELHI ROAD",Meerut,Uttar Pradesh,India,,,,,,,,,,,,,,,,,,
"VISTA TESTING LAB, VISTA CONSOLES ELECTRONICS PRIVATE LIMITED","B-103, SECTOR 67",Noida,Uttar Pradesh,India,,,,,,,,,,,,,,,,,,
"VISTEON INDIA PRODUCT RELIABILITY ASSURANCE LAB (VIPRA), VISTEON ELECTRONICS INDIA PVT. LTD.","KEELAKARANAI VILLAGE,MALROSAPURAM POST,MARAIMALAI NAGAR,CHENGALPATTU",Chennai,Tamil Nadu,India,,,,,,,,,,,,,,,,,,
VOLTAMP TRANSFORMERS LIMITED UNIT-2 (DRY TYPE TRANSFORMER TESTING LABORATORY),"VADADALA, JAROD SAMLAYA ROAD, POST GHARDIYA, TALUKA SAVALI",Vadodara,Gujarat,India,,,,,,,,,,,,,,,,,,
VOLTAMP TRANSFORMERS LTD. UNIT-2,"VILLAGE VADADALA, JAROD, SAMALAYA ROAD",Vadodara,Gujarat,India,,,,,,,,,,,,,,,,,,
VOLTECH MANUFACTURING COMPANY PRIVATE LIMITED,"212/1,212/2,213/3, PILLAIPAKKAM VILLAGE",Kanchipuram,Tamil Nadu,India,,,,,,,,,,,,,,,,,,
VPK ELECTRICAL TESTING CENTER LLP,"2ND FLOOR, A8 DEVYANINAGAR, KALADARSHAN CHAR RASTA, WAGHODIA ROAD",Vadodara,Gujarat,India,,,,,,,,,,,,,,,,,,
"VVDN TEST LABORATORY, VVDN TECHNOLOGIES PRIVATE LIMITED","CP-07, SECTOR 8, IMT MANESAR",Gurgaon,Haryana,India,,,,,,,,,,,,,,,,,,
"VYAS LAB, KIMBAL","BUILDING NO.-20, THINK NEXT VILLAGE, KNOWLEDGE PARK - III, GAUTAMBUDDHA NAGAR",Greater Noida,Uttar Pradesh,India,,,,,,,,,,,,,,,,,,
WABTEC LAB (WABTEC INDIA INDUSTRIAL PRIVATE LIMITED),"NO 130, EPIP PHASE 2, KIADB INDUSTRIAL AREA, WHITEFIELD",Bengaluru,Karnataka,India,,,,,,,,,,,,,,,,,,
"WASHING MACHINE PA LAB, HAIER APPLIANCES (INDIA) PRIVATE LIMITED","PLOT NO H-6, DMIC INTEGRATED INDUSTRIAL TOWNSHIP",Greater Noida,Uttar Pradesh,India,,,,,,,,,,,,,,,,,,
WASHING MACHINE TESTING LABORATORY,"GODREJ & BOYCE MFG. CO. LTD, NAVROJI GODREJ R & D CENTRE",Pune,Maharashtra,India,,,,,,,,,,,,,,,,,,
"WASHSYSTEM LAB , WHIRLPOOL OF INDIA LIMITED",THIRUBUVANAI,Puducherry,Puducherry,India,,,,,,,,,,,,,,,,,,
WINAMR SYSTEMS TEST LAB,"45/3, DLR ENCLAVE, MADHAVAPURI COLONY",Hyderabad,Telangana,India,,,,,,,,,,,,,,,,,,
"WIND TURBINE TEST STATION, NATIONAL INSTITUTE OF WIND ENERGY",KAYATHAR DEVARKULAM ROAD,Kayattar,Tamil Nadu,India,,,,,,,,,,,,,,,,,,
"WIPRO GE HEALTHCARE PVT. LTD., TESTING LABORATORY","JOHN F WELCH TECHNOLOGY CENTER, # 122, PHASE -5, EPIP-2",Bengaluru,Karnataka,India,,,,,,,,,,,,,,,,,,
WORLD ONE INSTRUMENTS PRIVATE LIMITED ENVIRONMENTAL TESTING LABORATORY,"522, IV PHASE, PEENYA INDUSTRIAL AREA",Bengaluru,Karnataka,India,,,,,,,,,,,,,,,,,,
XIOTA TESTING LABORATORY,"B24, ITI INDUSTRIAL AREA, 3 CROSS, MAHADEVAPURA",Bengaluru,Karnataka,India,,,,,,,,,,,,,,,,,,
YADAV MEASUREMENTS PRIVATE LIMITED,"PLOT NO. F373-375, RIICO, BHAMASHAH INDUSTRIAL AREA",Udaipur,Rajasthan,India,,,,,,,,,,,,,,,,,,
"YASH HIGHVOLTAGE LABORATORY,YASH HIGHVOLTAGE LIMITED","84/1B, P.O. KHAKHARIYA",Vadodara,Gujarat,India,,,,,,,,,,,,,,,,,,
YASH METROLOGY LABORATORY PRIVATE LIMITED,"93/E, SECTOR-5, GANDHI NAGAR",Chittaurgarh,Rajasthan,India,,,,,,,,,,,,,,,,,,
YATHVA ENERGY SOLUTIONS PRIVATE LIMITED,"TEST LAB: H. NO. 32-10-7/16/SF-302, VENKATESWARA COLONY, REVENUE WARD 65",Visakhapatnam,Andhra Pradesh,India,,,,,,,,,,,,,,,,,,
YATHVA ENERGY SOLUTIONS PVT LTD,"4TH FLOOR, H.NO. 2-1-53/4, ELLAMMABANDA, KUKATPALLY",Hyderabad,Telangana,India,,,,,,,,,,,,,,,,,,
ZTT INDIA PRIVATE LIMITED,"956, JEEDI DRIVE, SECTOR 28, SRI CITY, SATYAVEDU MANDAL",Chittoor,Andhra Pradesh,India,,,,,,,,,,,,,,,,,,
